obs_time_utc,obs_date_utc,obs_date_local,metar_type,retrieved_at,temp_c,temp_f,dewpoint_c,dewpoint_f,relative_humidity,wind_dir_deg,wind_dir_compass,wind_speed_kt,wind_speed_mph,wind_gust_kt,wind_gust_mph,visibility_sm,visibility_sm_numeric,sky_cover_pct,ceiling_ft,cloud_layers,altimeter_inhg,sea_level_pressure_mb,precip_1hr_in,precip_3hr_in,precip_6hr_in,precip_24hr_in,wx_string,flight_category,raw_metar
2026-04-23T01:56:00Z,2026-04-23,2026-04-22,METAR,2026-04-23T02:59:13Z,22.8,73.0,-7.2,19.0,0,260,W,13,15.0,,,10+,10.0,19,,FEW12000,1010.9,1009.3,,,,,,VFR,METAR KLAS 230156Z 26013KT 10SM FEW120 23/M07 A2985 RMK AO2 SLP093 T02281072
2026-04-23T00:56:00Z,2026-04-23,2026-04-22,METAR,2026-04-23T02:59:13Z,23.9,75.0,-6.7,19.9,0,260,W,11,12.7,,,10+,10.0,19,,FEW12000 FEW20000,1011.3,1009.7,,,,,,VFR,METAR KLAS 230056Z 26011KT 10SM FEW120 FEW200 24/M07 A2986 RMK AO2 SLP097 T02391067
2026-04-23T02:56:00Z,2026-04-23,2026-04-22,METAR,2026-04-23T03:13:00Z,21.7,71.1,-7.2,19.0,1,250,WSW,12,13.8,,,10+,10.0,19,,FEW12000,1010.9,1009.4,,,,,,VFR,METAR KLAS 230256Z 25012KT 10SM FEW120 22/M07 A2985 RMK AO2 SLP094 T02171072 55008
2026-04-22T23:56:00Z,2026-04-22,2026-04-22,METAR,2026-04-23T03:13:00Z,23.9,75.0,-7.2,19.0,1,220,SW,12,13.8,20,23.0,10+,10.0,19,,FEW12000 FEW20000,1011.9,1010.2,,,,,,VFR,METAR KLAS 222356Z 22012G20KT 10SM FEW120 FEW200 24/M07 A2988 RMK AO2 SLP102 T02391072 10250 20189 56019
2026-04-22T22:56:00Z,2026-04-22,2026-04-22,METAR,2026-04-23T03:13:00Z,24.4,75.9,-7.2,19.0,1,280,W,11,12.7,21,24.2,10+,10.0,44,,FEW12000 FEW20000 SCT25000,1012.3,1010.6,,,,,,VFR,METAR KLAS 222256Z 28011G21KT 10SM FEW120 FEW200 SCT250 24/M07 A2989 RMK AO2 SLP106 T02441072
2026-04-22T21:56:00Z,2026-04-22,2026-04-22,METAR,2026-04-23T03:13:00Z,23.9,75.0,-7.2,19.0,1,0,CALM,0,0.0,,,10+,10.0,44,,FEW12000 FEW20000 SCT25000,1013,1011.4,,,,,,VFR,METAR KLAS 222156Z 00000KT 10SM FEW120 FEW200 SCT250 24/M07 A2991 RMK AO2 SLP114 T02391072
2026-04-22T20:56:00Z,2026-04-22,2026-04-22,METAR,2026-04-23T03:13:00Z,23.9,75.0,-7.8,18.0,1,VRB,VRB,5,5.8,,,10+,10.0,44,,FEW12000 FEW20000 SCT25000,1014,1012.3,,,,,,VFR,METAR KLAS 222056Z VRB05KT 10SM FEW120 FEW200 SCT250 24/M08 A2994 RMK AO2 SLP123 T02391078 58025
2026-04-23T09:56:00Z,2026-04-23,2026-04-23,METAR,2026-04-23T10:58:11Z,17.8,64.0,-5.6,21.9,1,350,N,11,12.7,,,10+,10.0,,,,1014,1012,,,,,,VFR,METAR KLAS 230956Z 35011KT 10SM CLR 18/M06 A2994 RMK AO2 PK WND 35027/0910 SLP120 T01781056
2026-04-23T08:56:00Z,2026-04-23,2026-04-23,METAR,2026-04-23T10:58:11Z,17.8,64.0,-6.1,21.0,1,330,NNW,12,13.8,22,25.3,10+,10.0,,,,1013.6,1011.7,,,,,,VFR,METAR KLAS 230856Z 33012G22KT 10SM CLR 18/M06 A2993 RMK AO2 PK WND 31027/0803 SLP117 T01781061 52013
2026-04-23T07:56:00Z,2026-04-23,2026-04-23,METAR,2026-04-23T10:58:11Z,18.9,66.0,-7.2,19.0,1,310,NW,12,13.8,20,23.0,10+,10.0,,,,1013.3,1011.5,,,,,,VFR,METAR KLAS 230756Z 31012G20KT 10SM CLR 19/M07 A2992 RMK AO2 SLP115 T01891072 402500133
2026-04-23T06:56:00Z,2026-04-23,2026-04-22,METAR,2026-04-23T10:58:11Z,18.3,64.9,-5.6,21.9,1,230,SW,6,6.9,,,10+,10.0,,,,1012.6,1010.9,,,,,,VFR,METAR KLAS 230656Z 23006KT 10SM CLR 18/M06 A2990 RMK AO2 SLP109 T01831056
2026-04-23T05:56:00Z,2026-04-23,2026-04-22,METAR,2026-04-23T10:58:11Z,19.4,66.9,-6.7,19.9,1,230,SW,7,8.1,,,10+,10.0,,,,1012.3,1010.6,,,,,,VFR,METAR KLAS 230556Z 23007KT 10SM CLR 19/M07 A2989 RMK AO2 SLP106 T01941067 10244 20194 50012
2026-04-23T04:56:00Z,2026-04-23,2026-04-22,METAR,2026-04-23T10:58:11Z,20.6,69.1,-7.2,19.0,1,240,WSW,7,8.1,,,10+,10.0,,,,1012.3,1010.8,,,,,,VFR,METAR KLAS 230456Z 24007KT 10SM CLR 21/M07 A2989 RMK AO2 SLP108 T02061072
2026-04-23T16:56:00Z,2026-04-23,2026-04-23,METAR,2026-04-23T17:54:27Z,20,68.0,-7.2,19.0,1,50,NE,9,10.4,,,10+,10.0,19,,FEW25000,1016.7,1015,,,,,,VFR,METAR KLAS 231656Z 05009KT 10SM FEW250 20/M07 A3002 RMK AO2 SLP150 T02001072
2026-04-23T15:56:00Z,2026-04-23,2026-04-23,METAR,2026-04-23T17:54:27Z,18.9,66.0,-6.7,19.9,1,20,NNE,18,20.7,24,27.6,10+,10.0,19,,FEW25000,1016.7,1015,,,,,,VFR,METAR KLAS 231556Z 02018G24KT 10SM FEW250 19/M07 A3002 RMK AO2 SLP150 T01891067
2026-04-23T14:56:00Z,2026-04-23,2026-04-23,METAR,2026-04-23T17:54:27Z,18.3,64.9,-5,23.0,1,20,NNE,9,10.4,,,10+,10.0,19,,FEW25000,1016.3,1014.8,,,,,,VFR,METAR KLAS 231456Z 02009KT 10SM FEW250 18/M05 A3001 RMK AO2 SLP148 T01831050 53017
2026-04-23T13:56:00Z,2026-04-23,2026-04-23,METAR,2026-04-23T17:54:27Z,16.1,61.0,-5,23.0,1,300,WNW,5,5.8,,,10+,10.0,19,,FEW25000,1015.7,1014.3,,,,,,VFR,METAR KLAS 231356Z 30005KT 10SM FEW250 16/M05 A2999 RMK AO2 SLP143 T01611050
2026-04-23T12:56:00Z,2026-04-23,2026-04-23,METAR,2026-04-23T17:54:27Z,16.7,62.1,-6.1,21.0,1,50,NE,9,10.4,,,10+,10.0,19,,FEW25000,1015,1013.3,,,,,,VFR,METAR KLAS 231256Z 05009KT 10SM FEW250 17/M06 A2997 RMK AO2 SLP133 T01671061
2026-04-23T11:56:00Z,2026-04-23,2026-04-23,METAR,2026-04-23T17:54:27Z,16.1,61.0,-5.6,21.9,1,30,NNE,7,8.1,,,10+,10.0,,,,1014.6,1012.9,,,,,,VFR,METAR KLAS 231156Z 03007KT 10SM CLR 16/M06 A2996 RMK AO2 SLP129 T01611056 10194 20161 51009
2026-04-23T10:56:00Z,2026-04-23,2026-04-23,METAR,2026-04-23T17:54:27Z,17.2,63.0,-5.6,21.9,1,50,NE,6,6.9,,,10+,10.0,,,,1014.3,1012.6,,,,,,VFR,METAR KLAS 231056Z 05006KT 10SM CLR 17/M06 A2995 RMK AO2 SLP126 T01721056
2026-04-23T18:56:00Z,2026-04-23,2026-04-23,METAR,2026-04-23T19:12:00Z,22.2,72.0,-7.8,18.0,1,50,NE,9,10.4,,,10+,10.0,19,,FEW25000,1015.7,1013.9,,,,,,VFR,METAR KLAS 231856Z 05009KT 10SM FEW250 22/M08 A2999 RMK AO2 SLP139 T02221078
2026-04-23T17:56:00Z,2026-04-23,2026-04-23,METAR,2026-04-23T19:12:00Z,21.1,70.0,-8.3,17.1,1,350,N,12,13.8,22,25.3,10+,10.0,19,,FEW25000,1016,1014.4,,,,,,VFR,METAR KLAS 231756Z 35012G22KT 10SM FEW250 21/M08 A3000 RMK AO2 SLP144 T02111083 10211 20156 58003
2026-04-23T20:56:00Z,2026-04-23,2026-04-23,METAR,2026-04-23T21:13:00Z,22.8,73.0,-8.9,16.0,1,VRB,VRB,4,4.6,,,10+,10.0,19,,FEW25000,1014,1012.3,,,,,,VFR,METAR KLAS 232056Z VRB04KT 10SM FEW250 23/M09 A2994 RMK AO2 SLP123 T02281089 58020
2026-04-23T19:56:00Z,2026-04-23,2026-04-23,METAR,2026-04-23T21:13:00Z,21.7,71.1,-9.4,15.1,1,240,WSW,3,3.5,,,10+,10.0,19,,FEW25000,1015,1013.1,,,,,,VFR,METAR KLAS 231956Z 24003KT 10SM FEW250 22/M09 A2997 RMK AO2 SLP131 T02171094
2026-04-24T06:56:00Z,2026-04-24,2026-04-23,METAR,2026-04-24T07:18:41Z,18.9,66.0,-10,14.0,1,210,SSW,6,6.9,,,10+,10.0,75,25000,BKN25000,1011.9,1010.2,,,,,,VFR,METAR KLAS 240656Z 21006KT 10SM BKN250 19/M10 A2988 RMK AO2 SLP102 T01891100
2026-04-24T05:56:00Z,2026-04-24,2026-04-23,METAR,2026-04-24T07:18:41Z,20,68.0,-9.4,15.1,1,190,S,3,3.5,,,10+,10.0,75,25000,BKN25000,1011.9,1010.2,,,,,,VFR,METAR KLAS 240556Z 19003KT 10SM BKN250 20/M09 A2988 RMK AO2 SLP102 T02001094 10244 20200 51008
2026-04-24T04:56:00Z,2026-04-24,2026-04-23,METAR,2026-04-24T07:18:41Z,21.7,71.1,-8.9,16.0,1,250,WSW,6,6.9,,,10+,10.0,75,25000,BKN25000,1011.9,1010.1,,,,,,VFR,METAR KLAS 240456Z 25006KT 10SM BKN250 22/M09 A2988 RMK AO2 SLP101 T02171089
2026-04-24T03:56:00Z,2026-04-24,2026-04-23,METAR,2026-04-24T07:18:41Z,22.2,72.0,-8.9,16.0,1,250,WSW,7,8.1,,,10+,10.0,75,25000,BKN25000,1011.6,1009.8,,,,,,VFR,METAR KLAS 240356Z 25007KT 10SM BKN250 22/M09 A2987 RMK AO2 SLP098 T02221089
2026-04-24T02:56:00Z,2026-04-24,2026-04-23,METAR,2026-04-24T07:18:41Z,23.3,73.9,-7.8,18.0,1,170,S,4,4.6,,,10+,10.0,75,25000,BKN25000,1011.3,1009.3,,,,,,VFR,METAR KLAS 240256Z 17004KT 10SM BKN250 23/M08 A2986 RMK AO2 SLP093 T02331078 55005
2026-04-24T01:56:00Z,2026-04-24,2026-04-23,METAR,2026-04-24T07:18:41Z,23.9,75.0,-7.2,19.0,1,0,CALM,0,0.0,,,10+,10.0,44,,SCT25000,1010.9,1009.2,,,,,,VFR,METAR KLAS 240156Z 00000KT 10SM SCT250 24/M07 A2985 RMK AO2 SLP092 T02391072
2026-04-24T00:56:00Z,2026-04-24,2026-04-23,METAR,2026-04-24T07:18:41Z,23.9,75.0,-7.2,19.0,1,0,CALM,0,0.0,,,10+,10.0,44,,SCT25000,1011.3,1009.4,,,,,,VFR,METAR KLAS 240056Z 00000KT 10SM SCT250 24/M07 A2986 RMK AO2 SLP094 T02391072
2026-04-24T09:56:00Z,2026-04-24,2026-04-24,METAR,2026-04-24T10:54:52Z,16.7,62.1,-10,14.0,1,200,SSW,3,3.5,,,10+,10.0,75,25000,BKN25000,1010.9,1009.2,,,,,,VFR,METAR KLAS 240956Z 20003KT 10SM BKN250 17/M10 A2985 RMK AO2 SLP092 T01671100 $
2026-04-24T08:56:00Z,2026-04-24,2026-04-24,METAR,2026-04-24T10:54:52Z,17.2,63.0,-10.6,12.9,1,200,SSW,7,8.1,,,10+,10.0,75,25000,BKN25000,1011.3,1009.7,,,,,,VFR,METAR KLAS 240856Z 20007KT 10SM BKN250 17/M11 A2986 RMK AO2 SLP097 T01721106 58006
2026-04-24T07:56:00Z,2026-04-24,2026-04-24,METAR,2026-04-24T10:54:52Z,18.3,64.9,-10.6,12.9,1,210,SSW,5,5.8,,,10+,10.0,75,25000,BKN25000,1011.9,1010.2,,,,,,VFR,METAR KLAS 240756Z 21005KT 10SM BKN250 18/M11 A2988 RMK AO2 SLP102 T01831106 402500156
2026-04-24T14:56:00Z,2026-04-24,2026-04-24,METAR,2026-04-24T15:39:35Z,18.3,64.9,-10,14.0,1,180,S,3,3.5,,,10+,10.0,44,,FEW600 SCT25000,1011.6,1009.6,,,,,,VFR,METAR KLAS 241456Z 18003KT 10SM FEW006 SCT250 18/M10 A2987 RMK AO2 SLP096 FU FEW006 T01831100 53006 $
2026-04-24T14:36:00Z,2026-04-24,2026-04-24,SPECI,2026-04-24T15:39:35Z,17.2,63.0,-10,14.0,1,200,SSW,3,3.5,,,10+,10.0,44,,FEW600 SCT25000,1011.6,,,,,,,VFR,SPECI KLAS 241436Z 20003KT 10SM FEW006 SCT250 17/M10 A2987 RMK AO2 FU FEW006 T01721100 $
2026-04-24T13:56:00Z,2026-04-24,2026-04-24,METAR,2026-04-24T15:39:35Z,15.6,60.1,-9.4,15.1,1,200,SSW,5,5.8,,,10+,10.0,44,,SCT25000,1011.3,1009.7,,,,,,VFR,METAR KLAS 241356Z 20005KT 10SM SCT250 16/M09 A2986 RMK AO2 SLP097 T01561094 $
2026-04-24T12:56:00Z,2026-04-24,2026-04-24,METAR,2026-04-24T15:39:35Z,15,59.0,-10,14.0,1,0,CALM,0,0.0,,,10+,10.0,19,,FEW25000,1010.9,1009.2,,,,,,VFR,METAR KLAS 241256Z 00000KT 10SM FEW250 15/M10 A2985 RMK AO2 SLP092 T01501100 $
2026-04-24T11:56:00Z,2026-04-24,2026-04-24,METAR,2026-04-24T15:39:35Z,15.6,60.1,-10,14.0,1,0,CALM,0,0.0,,,10+,10.0,75,25000,BKN25000,1010.9,1009.2,,,,,,VFR,METAR KLAS 241156Z 00000KT 10SM BKN250 16/M10 A2985 RMK AO2 SLP092 T01561100 10200 20150 56005 $
2026-04-24T10:56:00Z,2026-04-24,2026-04-24,METAR,2026-04-24T15:39:35Z,15.6,60.1,-10,14.0,1,0,CALM,0,0.0,,,10+,10.0,75,25000,BKN25000,1010.9,1009.2,,,,,,VFR,METAR KLAS 241056Z 00000KT 10SM BKN250 16/M10 A2985 RMK AO2 SLP092 T01561100 $
2026-04-24T15:56:00Z,2026-04-24,2026-04-24,METAR,2026-04-24T16:12:58Z,20,68.0,-9.4,15.1,1,0,CALM,0,0.0,,,10+,10.0,44,,FEW20000 SCT25000,1010.9,1009.1,,,,,,VFR,METAR KLAS 241556Z 00000KT 10SM FEW200 SCT250 20/M09 A2985 RMK AO2 SLP091 T02001094
2026-04-24T20:56:00Z,2026-04-24,2026-04-24,METAR,2026-04-24T21:33:34Z,27.2,81.0,-10.6,12.9,1,210,SSW,15,17.3,28,32.2,10+,10.0,44,,SCT14000 SCT20000,1007.9,1005.8,,,,,,VFR,METAR KLAS 242056Z 21015G28KT 10SM SCT140 SCT200 27/M11 A2976 RMK AO2 PK WND 21028/2052 SLP058 T02721106 56026
2026-04-24T19:56:00Z,2026-04-24,2026-04-24,METAR,2026-04-24T21:33:34Z,26.7,80.1,-12.2,10.0,1,180,S,8,9.2,24,27.6,10+,10.0,44,,FEW14000 SCT20000 SCT25000,1008.5,1006.5,,,,,,VFR,METAR KLAS 241956Z 18008G24KT 120V210 10SM FEW140 SCT200 SCT250 27/M12 A2978 RMK AO2 SLP065 T02671122
2026-04-24T19:20:00Z,2026-04-24,2026-04-24,SPECI,2026-04-24T21:33:34Z,26.1,79.0,-12.2,10.0,1,200,SSW,10,11.5,16,18.4,10+,10.0,75,25000,SCT20000 BKN25000,1008.9,,,,,,,VFR,SPECI KLAS 241920Z 20010G16KT 10SM SCT200 BKN250 26/M12 A2979 RMK AO2 T02611122
2026-04-24T18:56:00Z,2026-04-24,2026-04-24,METAR,2026-04-24T21:33:34Z,25.6,78.1,-11.7,10.9,1,140,SE,7,8.1,18,20.7,10+,10.0,75,25000,SCT20000 BKN25000,1009.6,1007.6,,,,,,VFR,METAR KLAS 241856Z 14007G18KT 100V170 10SM SCT200 BKN250 26/M12 A2981 RMK AO2 SLP076 T02561117
2026-04-24T17:56:00Z,2026-04-24,2026-04-24,METAR,2026-04-24T21:33:34Z,23.9,75.0,-11.1,12.0,1,VRB,VRB,4,4.6,,,10+,10.0,75,25000,SCT20000 BKN25000,1010.6,1008.7,,,,,,VFR,METAR KLAS 241756Z VRB04KT 10SM SCT200 BKN250 24/M11 A2984 RMK AO2 SLP087 T02391111 10239 20150 56008
2026-04-24T16:56:00Z,2026-04-24,2026-04-24,METAR,2026-04-24T21:33:34Z,21.7,71.1,-9.4,15.1,1,0,CALM,0,0.0,,,10+,10.0,75,25000,SCT20000 BKN25000,1010.9,1009.1,,,,,,VFR,METAR KLAS 241656Z 00000KT 10SM SCT200 BKN250 22/M09 A2985 RMK AO2 SLP091 T02171094
2026-04-25T05:56:00Z,2026-04-25,2026-04-24,METAR,2026-04-25T06:10:58Z,22.8,73.0,-5,23.0,1,240,WSW,12,13.8,,,10+,10.0,,,,1005.8,1003.9,,,,,,VFR,METAR KLAS 250556Z 24012KT 10SM CLR 23/M05 A2970 RMK AO2 SLP039 T02281050 10272 20228 51007
2026-04-25T04:56:00Z,2026-04-25,2026-04-24,METAR,2026-04-25T06:10:58Z,23.9,75.0,-10.6,12.9,1,190,S,7,8.1,,,10+,10.0,44,,FEW14000 FEW17000 SCT20000,1005.8,1003.8,,,,,,VFR,METAR KLAS 250456Z 19007KT 10SM FEW140 FEW170 SCT200 24/M11 A2970 RMK AO2 SLP038 T02391106
2026-04-25T03:56:00Z,2026-04-25,2026-04-24,METAR,2026-04-25T06:10:58Z,24.4,75.9,-12.2,10.0,1,180,S,5,5.8,14,16.1,10+,10.0,44,,SCT17000 SCT20000,1005.8,1003.7,,,,,,VFR,METAR KLAS 250356Z 18005G14KT 10SM SCT170 SCT200 24/M12 A2970 RMK AO2 SLP037 T02441122
2026-04-25T02:56:00Z,2026-04-25,2026-04-24,METAR,2026-04-25T06:10:58Z,25,77.0,-12.2,10.0,1,220,SW,9,10.4,,,10+,10.0,44,,FEW14000 SCT17000 SCT20000,1005.2,1003.2,,,,,,VFR,METAR KLAS 250256Z 22009KT 10SM FEW140 SCT170 SCT200 25/M12 A2968 RMK AO2 SLP032 T02501122 55004
2026-04-25T01:56:00Z,2026-04-25,2026-04-24,METAR,2026-04-25T06:10:58Z,26.1,79.0,-13.3,8.1,1,210,SSW,14,16.1,21,24.2,10+,10.0,44,,FEW14000 SCT17000 SCT20000,1005.2,1003.2,,,,,,VFR,METAR KLAS 250156Z 21014G21KT 10SM FEW140 SCT170 SCT200 26/M13 A2968 RMK AO2 SLP032 T02611133
2026-04-25T00:56:00Z,2026-04-25,2026-04-24,METAR,2026-04-25T06:10:58Z,26.7,80.1,-13.3,8.1,1,220,SW,12,13.8,23,26.5,10+,10.0,75,17000,FEW14000 BKN17000 BKN20000,1005.5,1003.4,,,,,,VFR,METAR KLAS 250056Z 22012G23KT 10SM FEW140 BKN170 BKN200 27/M13 A2969 RMK AO2 PK WND 25027/0006 SLP034 T02671133
2026-04-24T23:56:00Z,2026-04-24,2026-04-24,METAR,2026-04-25T06:10:58Z,27.8,82.0,-12.8,9.0,1,220,SW,16,18.4,26,29.9,10+,10.0,75,17000,SCT14000 BKN17000 BKN22000,1005.5,1003.7,,,,,,VFR,METAR KLAS 242356Z 22016G26KT 10SM SCT140 BKN170 BKN220 28/M13 A2969 RMK AO2 PK WND 22026/2352 SLP037 T02781128 10278 20233 56021
2026-04-25T08:56:00Z,2026-04-25,2026-04-25,METAR,2026-04-25T09:38:05Z,19.4,66.9,-1.7,28.9,1,210,SSW,10,11.5,,,10+,10.0,,,,1005.8,1003.8,,,,,,VFR,METAR KLAS 250856Z 21010KT 10SM CLR 19/M02 A2970 RMK AO2 SLP038 T01941017 58001
2026-04-25T07:56:00Z,2026-04-25,2026-04-25,METAR,2026-04-25T09:38:05Z,20.6,69.1,-2.2,28.0,1,220,SW,12,13.8,16,18.4,10+,10.0,,,,1006.5,1004.3,,,,,,VFR,METAR KLAS 250756Z 22012G16KT 10SM CLR 21/M02 A2972 RMK AO2 SLP043 T02061022 402780150
2026-04-25T06:56:00Z,2026-04-25,2026-04-24,METAR,2026-04-25T09:38:05Z,21.7,71.1,-3.3,26.1,1,220,SW,9,10.4,,,10+,10.0,,,,1006.5,1004.4,,,,,,VFR,METAR KLAS 250656Z 22009KT 10SM CLR 22/M03 A2972 RMK AO2 SLP044 T02171033
2026-04-25T14:56:00Z,2026-04-25,2026-04-25,METAR,2026-04-25T15:04:52Z,18.9,66.0,-0.6,30.9,2,170,S,6,6.9,,,10+,10.0,44,,SCT20000,1006.9,1004.8,,,,,,VFR,METAR KLAS 251456Z 17006KT 10SM SCT200 19/M01 A2973 RMK AO2 SLP048 T01891006 53015
2026-04-25T13:56:00Z,2026-04-25,2026-04-25,METAR,2026-04-25T15:04:52Z,17.8,64.0,-1.1,30.0,5,180,S,5,5.8,,,10+,10.0,75,20000,BKN20000,1006.2,1004.1,,,,,,VFR,METAR KLAS 251356Z 18005KT 10SM BKN200 18/M01 A2971 RMK AO2 SLP041 T01781011
2026-04-25T12:56:00Z,2026-04-25,2026-04-25,METAR,2026-04-25T15:04:52Z,17.2,63.0,-0.6,30.9,11,150,SSE,4,4.6,16,18.4,10+,10.0,75,20000,BKN20000,1005.8,1003.8,,,,,,VFR,METAR KLAS 251256Z 15004G16KT 10SM BKN200 17/M01 A2970 RMK AO2 SLP038 T01721006
2026-04-25T11:56:00Z,2026-04-25,2026-04-25,METAR,2026-04-25T15:04:52Z,17.2,63.0,0,32.0,14,210,SSW,9,10.4,,,10+,10.0,44,,SCT20000,1005.2,1003.1,,,,,,VFR,METAR KLAS 251156Z 21009KT 10SM SCT200 17/00 A2968 RMK AO2 SLP031 T01720000 10228 20172 56006
2026-04-25T10:56:00Z,2026-04-25,2026-04-25,METAR,2026-04-25T15:04:52Z,18.3,64.9,-0.6,30.9,5,190,S,12,13.8,17,19.6,10+,10.0,19,,FEW20000,1005.5,1003.3,,,,,,VFR,METAR KLAS 251056Z 19012G17KT 10SM FEW200 18/M01 A2969 RMK AO2 SLP033 T01831006
2026-04-25T09:56:00Z,2026-04-25,2026-04-25,METAR,2026-04-25T15:04:52Z,18.9,66.0,-0.6,30.9,2,200,SSW,11,12.7,20,23.0,10+,10.0,,,,1005.8,1003.5,,,,,,VFR,METAR KLAS 250956Z 20011G20KT 10SM CLR 19/M01 A2970 RMK AO2 SLP035 T01891006
2026-04-25T19:56:00Z,2026-04-25,2026-04-25,METAR,2026-04-25T20:23:42Z,23.9,75.0,-1.7,28.9,1,200,SSW,15,17.3,25,28.8,10+,10.0,75,20000,BKN20000,1005.5,1003.6,,,,,,VFR,METAR KLAS 251956Z 20015G25KT 10SM BKN200 24/M02 A2969 RMK AO2 PK WND 19027/1900 SLP036 T02391017
2026-04-25T18:56:00Z,2026-04-25,2026-04-25,METAR,2026-04-25T20:23:42Z,23.9,75.0,-1.1,30.0,1,180,S,11,12.7,25,28.8,10+,10.0,75,20000,BKN20000,1006.2,1004.1,,,,,,VFR,METAR KLAS 251856Z 18011G25KT 10SM BKN200 24/M01 A2971 RMK AO2 SLP041 T02391011
2026-04-25T17:56:00Z,2026-04-25,2026-04-25,METAR,2026-04-25T20:23:42Z,23.3,73.9,-1.1,30.0,1,170,S,10,11.5,18,20.7,10+,10.0,75,20000,BKN20000,1006.5,1004.5,,,,,,VFR,METAR KLAS 251756Z 17010G18KT 140V200 10SM BKN200 23/M01 A2972 RMK AO2 SLP045 T02331011 10233 20167 56002
2026-04-25T16:56:00Z,2026-04-25,2026-04-25,METAR,2026-04-25T20:23:42Z,21.1,70.0,-1.7,28.9,1,290,WNW,7,8.1,,,10+,10.0,75,20000,BKN20000,1006.9,1004.7,,,,,,VFR,METAR KLAS 251656Z 29007KT 10SM BKN200 21/M02 A2973 RMK AO2 SLP047 T02111017
2026-04-25T15:56:00Z,2026-04-25,2026-04-25,METAR,2026-04-25T20:23:42Z,20.6,69.1,-0.6,30.9,1,180,S,8,9.2,17,19.6,10+,10.0,75,20000,BKN20000,1006.5,1004.2,,,,,,VFR,METAR KLAS 251556Z 18008G17KT 140V210 10SM BKN200 21/M01 A2972 RMK AO2 SLP042 T02061006
2026-04-26T06:56:00Z,2026-04-26,2026-04-25,METAR,2026-04-26T07:10:33Z,14.4,57.9,3.9,39.0,48,210,SSW,17,19.6,26,29.9,10+,10.0,75,12000,FEW8000 SCT10000 BKN12000,1005.2,1003.5,,,,,,VFR,METAR KLAS 260656Z 21017G26KT 10SM FEW080 SCT100 BKN120 14/04 A2968 RMK AO2 PK WND 21027/0642 SLP035 T01440039
2026-04-26T05:56:00Z,2026-04-26,2026-04-25,METAR,2026-04-26T07:10:33Z,15,59.0,5.6,42.1,53,220,SW,18,20.7,28,32.2,10+,10.0,100,8000,SCT6500 BKN8000 OVC10000,1005.5,1003.9,,,,,,VFR,METAR KLAS 260556Z 22018G28KT 10SM SCT065 BKN080 OVC100 15/06 A2969 RMK AO2 PK WND 23030/0546 SLP039 T01500056 10233 20150 51016
2026-04-26T04:56:00Z,2026-04-26,2026-04-25,METAR,2026-04-26T07:10:33Z,16.7,62.1,3.9,39.0,36,250,WSW,11,12.7,23,26.5,10+,10.0,75,11000,BKN11000,1005.5,1003.6,,,,,,VFR,METAR KLAS 260456Z 25011G23KT 10SM BKN110 17/04 A2969 RMK AO2 PK WND 25026/0439 SLP036 T01670039
2026-04-26T03:56:00Z,2026-04-26,2026-04-25,METAR,2026-04-26T07:10:33Z,18.9,66.0,1.7,35.1,14,240,WSW,14,16.1,21,24.2,10+,10.0,100,11000,OVC11000,1004.5,1002.6,,,,,,VFR,METAR KLAS 260356Z 24014G21KT 10SM OVC110 19/02 A2966 RMK AO2 SLP026 T01890017
2026-04-26T02:56:00Z,2026-04-26,2026-04-25,METAR,2026-04-26T07:10:33Z,19.4,66.9,1.1,34.0,9,270,W,17,19.6,25,28.8,10+,10.0,100,10000,OVC10000,1003.8,1002.2,,,,,,VFR,METAR KLAS 260256Z 27017G25KT 10SM OVC100 19/01 A2964 RMK AO2 PK WND 23027/0158 SLP022 T01940011 58003
2026-04-26T01:56:00Z,2026-04-26,2026-04-25,METAR,2026-04-26T07:10:33Z,21.7,71.1,-2.2,28.0,1,240,WSW,14,16.1,26,29.9,10+,10.0,100,12000,BKN12000 OVC20000,1004.1,1002.2,,,,,,VFR,METAR KLAS 260156Z 24014G26KT 10SM BKN120 OVC200 22/M02 A2965 RMK AO2 PK WND 23027/0146 SLP022 T02171022
2026-04-26T00:56:00Z,2026-04-26,2026-04-25,METAR,2026-04-26T07:10:33Z,22.2,72.0,-2.2,28.0,1,240,WSW,14,16.1,22,25.3,10+,10.0,100,12000,BKN12000 OVC20000,1004.1,1002.5,,,,,,VFR,METAR KLAS 260056Z 24014G22KT 210V270 10SM BKN120 OVC200 22/M02 A2965 RMK AO2 PK WND 22029/0017 SLP025 T02221022
2026-04-26T08:56:00Z,2026-04-26,2026-04-26,METAR,2026-04-26T09:39:41Z,13.3,55.9,2.2,36.0,44,220,SW,20,23.0,30,34.5,10+,10.0,75,20000,FEW9000 SCT15000 BKN20000,1005.2,1003.6,,,,,,VFR,METAR KLAS 260856Z 22020G30KT 10SM FEW090 SCT150 BKN200 13/02 A2968 RMK AO2 PK WND 22030/0855 SLP036 T01330022 56004
2026-04-26T07:56:00Z,2026-04-26,2026-04-26,METAR,2026-04-26T09:39:41Z,13.9,57.0,3.9,39.0,50,210,SSW,12,13.8,20,23.0,10+,10.0,75,20000,FEW9000 SCT15000 BKN20000,1005.5,1003.8,,,,,,VFR,METAR KLAS 260756Z 21012G20KT 10SM FEW090 SCT150 BKN200 14/04 A2969 RMK AO2 SLP038 T01390039 402500139
2026-04-26T14:56:00Z,2026-04-26,2026-04-26,METAR,2026-04-26T15:06:04Z,13.9,57.0,1.7,35.1,39,230,SW,14,16.1,21,24.2,10+,10.0,75,15000,SCT6000 BKN15000,1006.2,1004.8,,,,,,VFR,METAR KLAS 261456Z 23014G21KT 10SM SCT060 BKN150 14/02 A2971 RMK AO2 PK WND 24026/1429 SLP048 T01390017 53015
2026-04-26T13:56:00Z,2026-04-26,2026-04-26,METAR,2026-04-26T15:06:04Z,12.8,55.0,1.7,35.1,44,230,SW,17,19.6,24,27.6,10+,10.0,75,15000,SCT6000 BKN15000,1005.5,1004.1,,,,,,VFR,METAR KLAS 261356Z 23017G24KT 10SM SCT060 BKN150 13/02 A2969 RMK AO2 PK WND 24032/1324 SLP041 T01280017
2026-04-26T12:56:00Z,2026-04-26,2026-04-26,METAR,2026-04-26T15:06:04Z,12.2,54.0,1.7,35.1,48,220,SW,14,16.1,23,26.5,10+,10.0,44,,FEW6000 SCT20000,1005.2,1003.6,,,,,,VFR,METAR KLAS 261256Z 22014G23KT 10SM FEW060 SCT200 12/02 A2968 RMK AO2 SLP036 ACSL DSNT S T01220017
2026-04-26T11:56:00Z,2026-04-26,2026-04-26,METAR,2026-04-26T15:06:04Z,12.2,54.0,2.2,36.0,50,220,SW,16,18.4,28,32.2,10+,10.0,44,,FEW6000 FEW15000 SCT20000,1004.5,1003,,,,,,VFR,METAR KLAS 261156Z 22016G28KT 10SM FEW060 FEW150 SCT200 12/02 A2966 RMK AO2 PK WND 22032/1110 SLP030 T01220022 10150 20122 58006
2026-04-26T10:56:00Z,2026-04-26,2026-04-26,METAR,2026-04-26T15:06:04Z,12.8,55.0,2.2,36.0,47,210,SSW,16,18.4,24,27.6,10+,10.0,75,20000,SCT6000 SCT15000 BKN20000,1004.8,1003.3,,,,,,VFR,METAR KLAS 261056Z 21016G24KT 10SM SCT060 SCT150 BKN200 13/02 A2967 RMK AO2 PK WND 20027/1019 SLP033 T01280022
2026-04-26T09:56:00Z,2026-04-26,2026-04-26,METAR,2026-04-26T15:06:04Z,12.8,55.0,2.8,37.0,50,210,SSW,20,23.0,31,35.7,10+,10.0,75,20000,SCT6000 SCT15000 BKN20000,1004.8,1003.4,,,,,,VFR,METAR KLAS 260956Z 21020G31KT 10SM SCT060 SCT150 BKN200 13/03 A2967 RMK AO2 PK WND 20031/0954 SLP034 T01280028
2026-04-26T20:05:00Z,2026-04-26,2026-04-26,SPECI,2026-04-26T20:24:31Z,18.9,66.0,1.1,34.0,11,280,W,9,10.4,18,20.7,10+,10.0,100,10000,SCT6500 OVC10000,1008.2,,,,,,,VFR,SPECI KLAS 262005Z 28009G18KT 10SM SCT065 OVC100 19/01 A2977 RMK AO2 T01890011
2026-04-26T19:56:00Z,2026-04-26,2026-04-26,METAR,2026-04-26T20:24:31Z,18.3,64.9,0.6,33.1,12,300,WNW,8,9.2,20,23.0,10+,10.0,100,10000,SCT6500 OVC10000,1008.2,1006.9,,,,,,VFR,METAR KLAS 261956Z 30008G20KT 10SM SCT065 OVC100 18/01 A2977 RMK AO2 PK WND 21028/1901 SLP069 T01830006
2026-04-26T18:56:00Z,2026-04-26,2026-04-26,METAR,2026-04-26T20:24:31Z,17.8,64.0,1.1,34.0,16,210,SSW,13,15.0,21,24.2,10+,10.0,75,10000,SCT6000 BKN10000,1008.2,1006.8,,,,,,VFR,METAR KLAS 261856Z 21013G21KT 10SM SCT060 BKN100 18/01 A2977 RMK AO2 SLP068 T01780011
2026-04-26T17:56:00Z,2026-04-26,2026-04-26,METAR,2026-04-26T20:24:31Z,17.2,63.0,1.1,34.0,20,210,SSW,13,15.0,25,28.8,10+,10.0,75,8000,SCT5000 BKN8000,1007.9,1006.4,,,,,,VFR,METAR KLAS 261756Z 21013G25KT 10SM SCT050 BKN080 17/01 A2976 RMK AO2 SLP064 T01720011 10178 20122 53014
2026-04-26T16:56:00Z,2026-04-26,2026-04-26,METAR,2026-04-26T20:24:31Z,15,59.0,1.1,34.0,30,230,SW,9,10.4,19,21.9,10+,10.0,75,8000,SCT5000 BKN8000,1007.2,1006.1,,,,,,VFR,METAR KLAS 261656Z 23009G19KT 10SM SCT050 BKN080 15/01 A2974 RMK AO2 SLP061 T01500011
2026-04-26T15:56:00Z,2026-04-26,2026-04-26,METAR,2026-04-26T20:24:31Z,15,59.0,1.7,35.1,34,230,SW,17,19.6,22,25.3,10+,10.0,75,10000,FEW5000 BKN10000,1006.5,1005.1,,,,,,VFR,METAR KLAS 261556Z 23017G22KT 10SM FEW050 BKN100 15/02 A2972 RMK AO2 PK WND 20027/1534 SLP051 T01500017
2026-04-27T08:56:00Z,2026-04-27,2026-04-27,METAR,2026-04-27T09:29:12Z,13.9,57.0,0,32.0,30,190,S,11,12.7,21,24.2,10+,10.0,,,,1010.2,1008.8,,,,,,VFR,METAR KLAS 270856Z 19011G21KT 10SM CLR 14/00 A2983 RMK AO2 SLP088 T01390000 50004
2026-04-27T07:56:00Z,2026-04-27,2026-04-27,METAR,2026-04-27T09:29:12Z,15,59.0,1.1,34.0,30,220,SW,9,10.4,,,10+,10.0,,,,1010.6,1009.2,,,,,,VFR,METAR KLAS 270756Z 22009KT 10SM CLR 15/01 A2984 RMK AO2 SLP092 T01500011 402000122
2026-04-27T06:56:00Z,2026-04-27,2026-04-26,METAR,2026-04-27T09:29:12Z,15.6,60.1,1.1,34.0,28,200,SSW,10,11.5,,,10+,10.0,,,,1009.9,1008.7,,,,,,VFR,METAR KLAS 270656Z 20010KT 10SM CLR 16/01 A2982 RMK AO2 SLP087 T01560011
2026-04-27T05:56:00Z,2026-04-27,2026-04-26,METAR,2026-04-27T09:29:12Z,16.7,62.1,0.6,33.1,20,220,SW,10,11.5,,,10+,10.0,,,,1009.6,1008.3,,,,,,VFR,METAR KLAS 270556Z 22010KT 10SM CLR 17/01 A2981 RMK AO2 SLP083 T01670006 10200 20167 51012
2026-04-27T04:56:00Z,2026-04-27,2026-04-26,METAR,2026-04-27T09:29:12Z,17.2,63.0,-0.6,30.9,11,240,WSW,9,10.4,20,23.0,10+,10.0,,,,1009.6,1008.2,,,,,,VFR,METAR KLAS 270456Z 24009G20KT 10SM CLR 17/M01 A2981 RMK AO2 SLP082 T01721006
2026-04-27T03:56:00Z,2026-04-27,2026-04-26,METAR,2026-04-27T09:29:12Z,18.3,64.9,-1.7,28.9,1,230,SW,11,12.7,,,10+,10.0,19,,FEW11000,1008.9,1007.6,,,,,,VFR,METAR KLAS 270356Z 23011KT 10SM FEW110 18/M02 A2979 RMK AO2 SLP076 T01831017
2026-04-27T02:56:00Z,2026-04-27,2026-04-26,METAR,2026-04-27T09:29:12Z,18.9,66.0,-0.6,30.9,2,220,SW,9,10.4,,,10+,10.0,19,,FEW11000,1008.5,1007,,,,,,VFR,METAR KLAS 270256Z 22009KT 10SM FEW110 19/M01 A2978 RMK AO2 SLP070 T01891006 53004
2026-04-27T11:56:00Z,2026-04-27,2026-04-27,METAR,2026-04-27T12:11:19Z,11.7,53.1,0,32.0,42,180,S,12,13.8,22,25.3,10+,10.0,19,,FEW25000,1010.2,1009.1,,,,,,VFR,METAR KLAS 271156Z 18012G22KT 10SM FEW250 12/00 A2983 RMK AO2 SLP091 T01170000 10167 20117 50003
2026-04-27T10:56:00Z,2026-04-27,2026-04-27,METAR,2026-04-27T12:11:19Z,12.8,55.0,-0.6,30.9,33,210,SSW,13,15.0,22,25.3,10+,10.0,,,,1010.6,1009.3,,,,,,VFR,METAR KLAS 271056Z 21013G22KT 10SM CLR 13/M01 A2984 RMK AO2 SLP093 T01281006
2026-04-27T09:56:00Z,2026-04-27,2026-04-27,METAR,2026-04-27T12:11:19Z,12.8,55.0,0,32.0,36,210,SSW,16,18.4,24,27.6,10+,10.0,,,,1009.9,1008.9,,,,,,VFR,METAR KLAS 270956Z 21016G24KT 10SM CLR 13/00 A2982 RMK AO2 SLP089 T01280000
2026-04-27T16:56:00Z,2026-04-27,2026-04-27,METAR,2026-04-27T17:47:31Z,16.1,61.0,0,32.0,20,180,S,9,10.4,17,19.6,10+,10.0,19,,FEW10000 FEW25000,1012.6,1011.4,,,,,,VFR,METAR KLAS 271656Z 18009G17KT 10SM FEW100 FEW250 16/00 A2990 RMK AO2 SLP114 T01610000
2026-04-27T15:56:00Z,2026-04-27,2026-04-27,METAR,2026-04-27T17:47:31Z,15,59.0,0.6,33.1,28,200,SSW,12,13.8,19,21.9,10+,10.0,19,,FEW6500 FEW25000,1012.3,1011.1,,,,,,VFR,METAR KLAS 271556Z 20012G19KT 10SM FEW065 FEW250 15/01 A2989 RMK AO2 SLP111 T01500006
2026-04-27T14:56:00Z,2026-04-27,2026-04-27,METAR,2026-04-27T17:47:31Z,13.3,55.9,1.1,34.0,39,210,SSW,7,8.1,,,10+,10.0,19,,FEW6500 FEW25000,1012.3,1011,,,,,,VFR,METAR KLAS 271456Z 21007KT 10SM FEW065 FEW250 13/01 A2989 RMK AO2 SLP110 T01330011 53018
2026-04-27T13:56:00Z,2026-04-27,2026-04-27,METAR,2026-04-27T17:47:31Z,11.7,53.1,0.6,33.1,44,210,SSW,17,19.6,,,10+,10.0,19,,FEW6500 FEW25000,1011.3,1010.2,,,,,,VFR,METAR KLAS 271356Z 21017KT 10SM FEW065 FEW250 12/01 A2986 RMK AO2 SLP102 T01170006
2026-04-27T12:56:00Z,2026-04-27,2026-04-27,METAR,2026-04-27T17:47:31Z,11.7,53.1,0,32.0,42,200,SSW,12,13.8,20,23.0,10+,10.0,19,,FEW6500 FEW25000,1010.9,1009.8,,,,,,VFR,METAR KLAS 271256Z 20012G20KT 10SM FEW065 FEW250 12/00 A2985 RMK AO2 SLP098 T01170000
2026-04-27T20:56:00Z,2026-04-27,2026-04-27,METAR,2026-04-27T21:41:42Z,21.1,70.0,-4.4,24.1,1,190,S,13,15.0,25,28.8,10+,10.0,19,,FEW10000,1011.3,1009.8,,,,,,VFR,METAR KLAS 272056Z 19013G25KT 10SM FEW100 21/M04 A2986 RMK AO2 SLP098 T02111044 58014
2026-04-27T19:56:00Z,2026-04-27,2026-04-27,METAR,2026-04-27T21:41:42Z,19.4,66.9,-3.3,26.1,1,180,S,11,12.7,21,24.2,10+,10.0,19,,FEW10000,1011.6,1010.4,,,,,,VFR,METAR KLAS 271956Z 18011G21KT 10SM FEW100 19/M03 A2987 RMK AO2 PK WND 17027/1923 SLP104 T01941033
2026-04-27T18:56:00Z,2026-04-27,2026-04-27,METAR,2026-04-27T21:41:42Z,18.3,64.9,-1.7,28.9,1,170,S,8,9.2,19,21.9,10+,10.0,19,,FEW10000 FEW25000,1012.6,1011.1,,,,,,VFR,METAR KLAS 271856Z 17008G19KT 140V210 10SM FEW100 FEW250 18/M02 A2990 RMK AO2 SLP111 T01831017
2026-04-27T17:56:00Z,2026-04-27,2026-04-27,METAR,2026-04-27T21:41:42Z,17.8,64.0,-2.2,28.0,1,180,S,9,10.4,18,20.7,10+,10.0,19,,FEW10000 FEW25000,1012.6,1011.3,,,,,,VFR,METAR KLAS 271756Z 18009G18KT 10SM FEW100 FEW250 18/M02 A2990 RMK AO2 SLP113 T01781022 10178 20117 51004
2026-04-28T08:56:00Z,2026-04-28,2026-04-28,METAR,2026-04-28T09:35:44Z,14.4,57.9,-0.6,30.9,25,200,SSW,3,3.5,,,10+,10.0,,,,1015.7,1014.5,,,,,,VFR,METAR KLAS 280856Z 20003KT 10SM CLR 14/M01 A2999 RMK AO2 SLP145 T01441006 51011
2026-04-28T07:56:00Z,2026-04-28,2026-04-28,METAR,2026-04-28T09:35:44Z,15.6,60.1,0,32.0,22,220,SW,4,4.6,,,10+,10.0,,,,1015.7,1014.2,,,,,,VFR,METAR KLAS 280756Z 22004KT 10SM CLR 16/00 A2999 RMK AO2 SLP142 T01560000 402220117
2026-04-28T06:56:00Z,2026-04-28,2026-04-27,METAR,2026-04-28T09:35:44Z,17.2,63.0,0.6,33.1,17,340,NNW,12,13.8,,,10+,10.0,19,,FEW18000,1015,1013.7,,,,,,VFR,METAR KLAS 280656Z 34012KT 10SM FEW180 17/01 A2997 RMK AO2 SLP137 T01720006
2026-04-28T05:56:00Z,2026-04-28,2026-04-27,METAR,2026-04-28T09:35:44Z,17.8,64.0,0,32.0,11,340,NNW,8,9.2,,,10+,10.0,44,,FEW15000 SCT18000,1014.6,1013.2,,,,,,VFR,METAR KLAS 280556Z 34008KT 10SM FEW150 SCT180 18/00 A2996 RMK AO2 SLP132 T01780000 10222 20178 51021
2026-04-28T04:56:00Z,2026-04-28,2026-04-27,METAR,2026-04-28T09:35:44Z,17.8,64.0,0,32.0,11,330,NNW,10,11.5,,,10+,10.0,44,,FEW10000 FEW15000 SCT18000,1014,1012.8,,,,,,VFR,METAR KLAS 280456Z 33010KT 10SM FEW100 FEW150 SCT180 18/00 A2994 RMK AO2 SLP128 T01780000
2026-04-28T03:56:00Z,2026-04-28,2026-04-27,METAR,2026-04-28T09:35:44Z,18.3,64.9,0,32.0,8,330,NNW,11,12.7,18,20.7,10+,10.0,44,,FEW10000 FEW15000 SCT18000,1013.3,1012.1,,,,,,VFR,METAR KLAS 280356Z 33011G18KT 10SM FEW100 FEW150 SCT180 18/00 A2992 RMK AO2 WSHFT 0254 SLP121 T01830000
2026-04-28T03:14:00Z,2026-04-28,2026-04-27,SPECI,2026-04-28T09:35:44Z,18.9,66.0,0,32.0,6,340,NNW,10,11.5,,,10+,10.0,44,,FEW10000 FEW15000 SCT18000,1012.6,,,,,,,VFR,SPECI KLAS 280314Z 34010KT 10SM FEW100 FEW150 SCT180 19/00 A2990 RMK AO2 WSHFT 0254 T01890000
2026-04-28T02:56:00Z,2026-04-28,2026-04-27,METAR,2026-04-28T09:35:44Z,19.4,66.9,-2.2,28.0,1,340,NNW,13,15.0,,,10+,10.0,44,,FEW10000 FEW15000 SCT18000,1012.3,1011,,,,,,VFR,METAR KLAS 280256Z 34013KT 10SM FEW100 FEW150 SCT180 19/M02 A2989 RMK AO2 SLP110 T01941022 53020
2026-04-28T11:56:00Z,2026-04-28,2026-04-28,METAR,2026-04-28T12:16:00Z,13.9,57.0,-0.6,30.9,28,260,W,3,3.5,,,10+,10.0,,,,1016.3,1015,,,,,,VFR,METAR KLAS 281156Z 26003KT 10SM CLR 14/M01 A3001 RMK AO2 SLP150 T01391006 10178 20139 53005
2026-04-28T10:56:00Z,2026-04-28,2026-04-28,METAR,2026-04-28T12:16:00Z,13.9,57.0,-1.1,30.0,25,170,S,3,3.5,,,10+,10.0,,,,1016,1014.6,,,,,,VFR,METAR KLAS 281056Z 17003KT 10SM CLR 14/M01 A3000 RMK AO2 SLP146 T01391011
2026-04-28T09:56:00Z,2026-04-28,2026-04-28,METAR,2026-04-28T12:16:00Z,14.4,57.9,-1.1,30.0,22,190,S,3,3.5,,,10+,10.0,,,,1016,1014.4,,,,,,VFR,METAR KLAS 280956Z 19003KT 10SM CLR 14/M01 A3000 RMK AO2 SLP144 T01441011
2026-04-28T17:56:00Z,2026-04-28,2026-04-28,METAR,2026-04-28T18:08:52Z,18.9,66.0,0,32.0,6,VRB,VRB,3,3.5,,,10+,10.0,44,,SCT20000,1019,1017.5,,,,,,VFR,METAR KLAS 281756Z VRB03KT 10SM SCT200 19/00 A3009 RMK AO2 SLP175 T01890000 10194 20128 50005
2026-04-28T16:56:00Z,2026-04-28,2026-04-28,METAR,2026-04-28T18:08:52Z,18.3,64.9,0,32.0,8,VRB,VRB,4,4.6,,,10+,10.0,,,,1019,1017.6,,,,,,VFR,METAR KLAS 281656Z VRB04KT 10SM CLR 18/00 A3009 RMK AO2 SLP176 T01830000 $
2026-04-28T15:56:00Z,2026-04-28,2026-04-28,METAR,2026-04-28T18:08:52Z,16.7,62.1,-0.6,30.9,14,60,ENE,3,3.5,,,10+,10.0,19,,FEW20000,1019,1017.7,,,,,,VFR,METAR KLAS 281556Z 06003KT 10SM FEW200 17/M01 A3009 RMK AO2 SLP177 T01671006
2026-04-28T14:56:00Z,2026-04-28,2026-04-28,METAR,2026-04-28T18:08:52Z,15,59.0,0.6,33.1,28,20,NNE,5,5.8,,,10+,10.0,19,,FEW20000,1018.4,1017.2,,,,,,VFR,METAR KLAS 281456Z 02005KT 10SM FEW200 15/01 A3007 RMK AO2 SLP172 T01500006 53019
2026-04-28T13:56:00Z,2026-04-28,2026-04-28,METAR,2026-04-28T18:08:52Z,13.3,55.9,-1.1,30.0,28,230,SW,3,3.5,,,10+,10.0,,,,1017.7,1016.5,,,,,,VFR,METAR KLAS 281356Z 23003KT 10SM CLR 13/M01 A3005 RMK AO2 SLP165 T01331011
2026-04-28T12:56:00Z,2026-04-28,2026-04-28,METAR,2026-04-28T18:08:52Z,13.3,55.9,0.6,33.1,36,320,NW,4,4.6,,,10+,10.0,,,,1016.7,1015.4,,,,,,VFR,METAR KLAS 281256Z 32004KT 10SM CLR 13/01 A3002 RMK AO2 SLP154 T01330006
2026-04-28T21:56:00Z,2026-04-28,2026-04-28,METAR,2026-04-28T22:10:53Z,23.3,73.9,-5.6,21.9,1,350,N,6,6.9,,,10+,10.0,44,,FEW10000 SCT20000,1016,1014.3,,,,,,VFR,METAR KLAS 282156Z 35006KT 10SM FEW100 SCT200 23/M06 A3000 RMK AO2 SLP143 T02331056
2026-04-28T20:56:00Z,2026-04-28,2026-04-28,METAR,2026-04-28T22:10:53Z,23.3,73.9,-6.1,21.0,1,30,NNE,7,8.1,,,10+,10.0,44,,FEW10000 SCT20000,1016.7,1015,,,,,,VFR,METAR KLAS 282056Z 03007KT 10SM FEW100 SCT200 23/M06 A3002 RMK AO2 SLP150 T02331061 58022
2026-04-28T19:56:00Z,2026-04-28,2026-04-28,METAR,2026-04-28T22:10:53Z,21.7,71.1,-2.8,27.0,1,140,SE,4,4.6,,,10+,10.0,44,,FEW10000 SCT20000,1017.4,1016,,,,,,VFR,METAR KLAS 281956Z 14004KT 10SM FEW100 SCT200 22/M03 A3004 RMK AO2 SLP160 T02171028
2026-04-28T18:56:00Z,2026-04-28,2026-04-28,METAR,2026-04-28T22:10:53Z,20.6,69.1,-1.1,30.0,1,180,S,5,5.8,,,10+,10.0,44,,FEW10000 SCT20000,1018.4,1016.7,,,,,,VFR,METAR KLAS 281856Z 18005KT 10SM FEW100 SCT200 21/M01 A3007 RMK AO2 SLP167 T02061011
2026-04-29T08:56:00Z,2026-04-29,2026-04-29,METAR,2026-04-29T09:03:26Z,18.9,66.0,-5,23.0,1,0,CALM,0,0.0,,,10+,10.0,,,,1016,1014.1,,,,,,VFR,METAR KLAS 290856Z 00000KT 10SM CLR 19/M05 A3000 RMK AO2 SLP141 T01891050 51006
2026-04-29T07:56:00Z,2026-04-29,2026-04-29,METAR,2026-04-29T09:03:26Z,18.3,64.9,-4.4,24.1,1,270,W,6,6.9,,,10+,10.0,,,,1016,1014.3,,,,,,VFR,METAR KLAS 290756Z 27006KT 10SM CLR 18/M04 A3000 RMK AO2 SLP143 T01831044 402500128
2026-04-29T06:56:00Z,2026-04-29,2026-04-28,METAR,2026-04-29T09:03:26Z,19.4,66.9,-3.9,25.0,1,310,NW,7,8.1,,,10+,10.0,,,,1016,1014.3,,,,,,VFR,METAR KLAS 290656Z 31007KT 10SM CLR 19/M04 A3000 RMK AO2 SLP143 T01941039
2026-04-29T05:56:00Z,2026-04-29,2026-04-28,METAR,2026-04-29T09:03:26Z,20,68.0,-3.9,25.0,1,300,WNW,4,4.6,,,10+,10.0,,,,1015.3,1013.7,,,,,,VFR,METAR KLAS 290556Z 30004KT 10SM CLR 20/M04 A2998 RMK AO2 SLP137 T02001039 10250 20200 51010
2026-04-29T04:56:00Z,2026-04-29,2026-04-28,METAR,2026-04-29T09:03:26Z,21.7,71.1,-5.6,21.9,1,0,CALM,0,0.0,,,10+,10.0,,,,1015.3,1013.5,,,,,,VFR,METAR KLAS 290456Z 00000KT 10SM CLR 22/M06 A2998 RMK AO2 SLP135 T02171056
2026-04-29T03:56:00Z,2026-04-29,2026-04-28,METAR,2026-04-29T09:03:26Z,22.2,72.0,-6.1,21.0,1,90,E,5,5.8,,,10+,10.0,19,,FEW10000,1015,1013.4,,,,,,VFR,METAR KLAS 290356Z 09005KT 10SM FEW100 22/M06 A2997 RMK AO2 SLP134 T02221061
2026-04-29T02:56:00Z,2026-04-29,2026-04-28,METAR,2026-04-29T09:03:26Z,23.3,73.9,-6.1,21.0,1,100,E,4,4.6,,,10+,10.0,19,,FEW10000,1014.3,1012.6,,,,,,VFR,METAR KLAS 290256Z 10004KT 10SM FEW100 23/M06 A2995 RMK AO2 SLP126 T02331061 53002
2026-04-29T11:56:00Z,2026-04-29,2026-04-29,METAR,2026-04-29T12:06:46Z,15.6,60.1,-6.1,21.0,1,160,SSE,3,3.5,,,10+,10.0,,,,1016.3,1014.6,,,,,,VFR,METAR KLAS 291156Z 16003KT 10SM CLR 16/M06 A3001 RMK AO2 SLP146 T01561061 10206 20156 53004
2026-04-29T10:56:00Z,2026-04-29,2026-04-29,METAR,2026-04-29T12:06:46Z,16.1,61.0,-7.2,19.0,1,200,SSW,4,4.6,,,10+,10.0,,,,1016,1014.4,,,,,,VFR,METAR KLAS 291056Z 20004KT 10SM CLR 16/M07 A3000 RMK AO2 SLP144 T01611072
2026-04-29T09:56:00Z,2026-04-29,2026-04-29,METAR,2026-04-29T12:06:46Z,17.2,63.0,-6.7,19.9,1,190,S,3,3.5,,,10+,10.0,,,,1015.7,1014.1,,,,,,VFR,METAR KLAS 290956Z 19003KT 10SM CLR 17/M07 A2999 RMK AO2 SLP141 T01721067
2026-04-29T17:56:00Z,2026-04-29,2026-04-29,METAR,2026-04-29T18:02:55Z,22.2,72.0,-1.7,28.9,1,VRB,VRB,5,5.8,,,10+,10.0,19,,FEW12000,1017.4,1015.4,,,,,,VFR,METAR KLAS 291756Z VRB05KT 10SM FEW120 22/M02 A3004 RMK AO2 SLP154 T02221017 10228 20150 58006
2026-04-29T16:56:00Z,2026-04-29,2026-04-29,METAR,2026-04-29T18:02:55Z,21.1,70.0,-0.6,30.9,1,0,CALM,0,0.0,,,10+,10.0,19,,FEW12000,1017.7,1015.8,,,,,,VFR,METAR KLAS 291656Z 00000KT 10SM FEW120 21/M01 A3005 RMK AO2 SLP158 T02111006
2026-04-29T15:56:00Z,2026-04-29,2026-04-29,METAR,2026-04-29T18:02:55Z,19.4,66.9,-2.8,27.0,1,VRB,VRB,3,3.5,,,10+,10.0,19,,FEW12000,1017.7,1016,,,,,,VFR,METAR KLAS 291556Z VRB03KT 10SM FEW120 19/M03 A3005 RMK AO2 SLP160 T01941028
2026-04-29T14:56:00Z,2026-04-29,2026-04-29,METAR,2026-04-29T18:02:55Z,18.3,64.9,-2.2,28.0,1,30,NNE,6,6.9,,,10+,10.0,,,,1018,1016.1,,,,,,VFR,METAR KLAS 291456Z 03006KT 10SM CLR 18/M02 A3006 RMK AO2 SLP161 T01831022 51014
2026-04-29T13:56:00Z,2026-04-29,2026-04-29,METAR,2026-04-29T18:02:55Z,17.2,63.0,-1.7,28.9,6,360,N,7,8.1,,,10+,10.0,,,,1017.7,1015.9,,,,,,VFR,METAR KLAS 291356Z 36007KT 10SM CLR 17/M02 A3005 RMK AO2 SLP159 T01721017
2026-04-29T12:56:00Z,2026-04-29,2026-04-29,METAR,2026-04-29T18:02:55Z,15.6,60.1,-5,23.0,1,0,CALM,0,0.0,,,10+,10.0,,,,1017,1015.3,,,,,,VFR,METAR KLAS 291256Z 00000KT 10SM CLR 16/M05 A3003 RMK AO2 SLP153 T01561050
2026-04-29T21:56:00Z,2026-04-29,2026-04-29,METAR,2026-04-29T22:11:06Z,26.7,80.1,-5,23.0,1,360,N,9,10.4,,,10+,10.0,19,,FEW12000,1014,1012.1,,,,,,VFR,METAR KLAS 292156Z 36009KT 10SM FEW120 27/M05 A2994 RMK AO2 SLP121 T02671050
2026-04-29T20:56:00Z,2026-04-29,2026-04-29,METAR,2026-04-29T22:11:06Z,25,77.0,-5,23.0,1,60,ENE,4,4.6,,,10+,10.0,19,,FEW12000,1015,1012.9,,,,,,VFR,METAR KLAS 292056Z 06004KT 10SM FEW120 25/M05 A2997 RMK AO2 SLP129 T02501050 58022
2026-04-29T19:56:00Z,2026-04-29,2026-04-29,METAR,2026-04-29T22:11:06Z,24.4,75.9,-5.6,21.9,1,130,SE,4,4.6,,,10+,10.0,19,,FEW12000,1015.7,1013.8,,,,,,VFR,METAR KLAS 291956Z 13004KT 10SM FEW120 24/M06 A2999 RMK AO2 SLP138 T02441056
2026-04-29T18:56:00Z,2026-04-29,2026-04-29,METAR,2026-04-29T22:11:06Z,23.3,73.9,-2.2,28.0,1,VRB,VRB,3,3.5,,,10+,10.0,19,,FEW12000,1016.7,1014.7,,,,,,VFR,METAR KLAS 291856Z VRB03KT 10SM FEW120 23/M02 A3002 RMK AO2 SLP147 T02331022
2026-04-30T08:56:00Z,2026-04-30,2026-04-30,METAR,2026-04-30T09:10:12Z,18.3,64.9,-6.1,21.0,1,230,SW,5,5.8,,,10+,10.0,,,,1013,1010.9,,,,,,VFR,METAR KLAS 300856Z 23005KT 10SM CLR 18/M06 A2991 RMK AO2 SLP109 T01831061 58005
2026-04-30T07:56:00Z,2026-04-30,2026-04-30,METAR,2026-04-30T09:10:12Z,19.4,66.9,-5,23.0,1,220,SW,5,5.8,,,10+,10.0,,,,1013.3,1011.2,,,,,,VFR,METAR KLAS 300756Z 22005KT 10SM CLR 19/M05 A2992 RMK AO2 SLP112 T01941050 402780150
2026-04-30T06:56:00Z,2026-04-30,2026-04-29,METAR,2026-04-30T09:10:12Z,21.7,71.1,-3.9,25.0,1,270,W,4,4.6,,,10+,10.0,,,,1013.3,1011.2,,,,,,VFR,METAR KLAS 300656Z 27004KT 10SM CLR 22/M04 A2992 RMK AO2 SLP112 T02171039
2026-04-30T05:56:00Z,2026-04-30,2026-04-29,METAR,2026-04-30T09:10:12Z,22.2,72.0,-3.3,26.1,1,40,NE,3,3.5,,,10+,10.0,,,,1013.3,1011.3,,,,,,VFR,METAR KLAS 300556Z 04003KT 10SM CLR 22/M03 A2992 RMK AO2 SLP113 T02221033 10278 20222 50012
2026-04-30T04:56:00Z,2026-04-30,2026-04-29,METAR,2026-04-30T09:10:12Z,23.3,73.9,-2.8,27.0,1,230,SW,4,4.6,,,10+,10.0,19,,FEW12000,1013.3,1011.5,,,,,,VFR,METAR KLAS 300456Z 23004KT 10SM FEW120 23/M03 A2992 RMK AO2 SLP115 T02331028
2026-04-30T03:56:00Z,2026-04-30,2026-04-29,METAR,2026-04-30T09:10:12Z,24.4,75.9,-2.8,27.0,1,290,WNW,4,4.6,,,10+,10.0,19,,FEW12000,1012.6,1010.8,,,,,,VFR,METAR KLAS 300356Z 29004KT 10SM FEW120 24/M03 A2990 RMK AO2 SLP108 T02441028
2026-04-30T02:56:00Z,2026-04-30,2026-04-29,METAR,2026-04-30T09:10:12Z,25.6,78.1,-3.9,25.0,1,340,NNW,6,6.9,,,10+,10.0,19,,FEW12000,1011.9,1010,,,,,,VFR,METAR KLAS 300256Z 34006KT 10SM FEW120 26/M04 A2988 RMK AO2 SLP100 T02561039 55004
2026-04-30T11:56:00Z,2026-04-30,2026-04-30,METAR,2026-04-30T12:04:08Z,17.2,63.0,-5,23.0,1,220,SW,3,3.5,,,10+,10.0,,,,1013,1011.1,,,,,,VFR,METAR KLAS 301156Z 22003KT 10SM CLR 17/M05 A2991 RMK AO2 SLP111 T01721050 10222 20167 53003
2026-04-30T10:56:00Z,2026-04-30,2026-04-30,METAR,2026-04-30T12:04:08Z,17.8,64.0,-5,23.0,1,230,SW,4,4.6,,,10+,10.0,,,,1013,1010.9,,,,,,VFR,METAR KLAS 301056Z 23004KT 10SM CLR 18/M05 A2991 RMK AO2 SLP109 T01781050
2026-04-30T09:56:00Z,2026-04-30,2026-04-30,METAR,2026-04-30T12:04:08Z,17.8,64.0,-3.9,25.0,1,280,W,3,3.5,,,10+,10.0,,,,1013,1010.8,,,,,,VFR,METAR KLAS 300956Z 28003KT 10SM CLR 18/M04 A2991 RMK AO2 SLP108 T01781039
2026-04-30T16:56:00Z,2026-04-30,2026-04-30,METAR,2026-04-30T17:50:12Z,23.9,75.0,-2.8,27.0,1,60,ENE,8,9.2,,,10+,10.0,19,,FEW12000,1014.3,1012,,,,,,VFR,METAR KLAS 301656Z 06008KT 10SM FEW120 24/M03 A2995 RMK AO2 SLP120 T02391028
2026-04-30T15:56:00Z,2026-04-30,2026-04-30,METAR,2026-04-30T17:50:12Z,22.2,72.0,-2.8,27.0,1,50,NE,5,5.8,,,10+,10.0,19,,FEW12000,1014.3,1012.3,,,,,,VFR,METAR KLAS 301556Z 05005KT 10SM FEW120 22/M03 A2995 RMK AO2 SLP123 T02221028
2026-04-30T14:56:00Z,2026-04-30,2026-04-30,METAR,2026-04-30T17:50:12Z,20,68.0,-3.3,26.1,1,0,CALM,0,0.0,,,10+,10.0,19,,FEW12000,1014.3,1012.3,,,,,,VFR,METAR KLAS 301456Z 00000KT 10SM FEW120 20/M03 A2995 RMK AO2 SLP123 T02001033 53012
2026-04-30T13:56:00Z,2026-04-30,2026-04-30,METAR,2026-04-30T17:50:12Z,18.9,66.0,-3.3,26.1,1,0,CALM,0,0.0,,,10+,10.0,19,,FEW12000,1014,1011.9,,,,,,VFR,METAR KLAS 301356Z 00000KT 10SM FEW120 19/M03 A2994 RMK AO2 SLP119 T01891033
2026-04-30T12:56:00Z,2026-04-30,2026-04-30,METAR,2026-04-30T17:50:12Z,16.7,62.1,-4.4,24.1,1,200,SSW,4,4.6,,,10+,10.0,19,,FEW12000,1013.3,1011.3,,,,,,VFR,METAR KLAS 301256Z 20004KT 10SM FEW120 17/M04 A2992 RMK AO2 SLP113 T01671044
2026-04-30T20:56:00Z,2026-04-30,2026-04-30,METAR,2026-04-30T21:43:06Z,26.7,80.1,-3.9,25.0,1,VRB,VRB,3,3.5,,,10+,10.0,19,,FEW12000,1011.6,1009.4,,,,,,VFR,METAR KLAS 302056Z VRB03KT 10SM FEW120 27/M04 A2987 RMK AO2 SLP094 T02671039 58021
2026-04-30T19:56:00Z,2026-04-30,2026-04-30,METAR,2026-04-30T21:43:06Z,26.1,79.0,-3.9,25.0,1,0,CALM,0,0.0,,,10+,10.0,19,,FEW12000,1012.3,1010.1,,,,,,VFR,METAR KLAS 301956Z 00000KT 10SM FEW120 26/M04 A2989 RMK AO2 SLP101 T02611039
2026-04-30T19:22:00Z,2026-04-30,2026-04-30,SPECI,2026-04-30T21:43:06Z,26.1,79.0,-3.9,25.0,1,50,NE,6,6.9,,,10+,10.0,19,,FEW12000,1012.6,,,,,,,VFR,SPECI KLAS 301922Z 05006KT 10SM FEW120 26/M04 A2990 RMK AO2 T02611039
2026-04-30T18:56:00Z,2026-04-30,2026-04-30,METAR,2026-04-30T21:43:06Z,26.7,80.1,-3.9,25.0,1,60,ENE,9,10.4,15,17.3,10+,10.0,19,,FEW12000,1013,1011,,,,,,VFR,METAR KLAS 301856Z 06009G15KT 10SM FEW120 27/M04 A2991 RMK AO2 SLP110 T02671039
2026-04-30T17:56:00Z,2026-04-30,2026-04-30,METAR,2026-04-30T21:43:06Z,26.1,79.0,-3.9,25.0,1,30,NNE,16,18.4,,,10+,10.0,19,,FEW12000,1013.6,1011.6,,,,,,VFR,METAR KLAS 301756Z 03016KT 10SM FEW120 26/M04 A2993 RMK AO2 SLP116 T02611039 10261 20167 58006
2026-05-01T07:56:00Z,2026-05-01,2026-05-01,METAR,2026-05-01T08:28:24Z,22.8,73.0,-6.1,21.0,1,20,NNE,8,9.2,,,10+,10.0,19,,FEW14000,1011.9,1009.9,,,,,,VFR,METAR KLAS 010756Z 02008KT 10SM FEW140 23/M06 A2988 RMK AO2 SLP099 T02281061 402890167
2026-05-01T06:56:00Z,2026-05-01,2026-04-30,METAR,2026-05-01T08:28:24Z,23.3,73.9,-6.1,21.0,1,10,N,9,10.4,,,10+,10.0,44,,SCT14000,1011.6,1009.4,,,,,,VFR,METAR KLAS 010656Z 01009KT 10SM SCT140 23/M06 A2987 RMK AO2 SLP094 T02331061
2026-05-01T05:56:00Z,2026-05-01,2026-04-30,METAR,2026-05-01T08:28:24Z,24.4,75.9,-6.7,19.9,1,10,N,13,15.0,,,10+,10.0,75,14000,BKN14000,1010.9,1008.7,,,,,,VFR,METAR KLAS 010556Z 01013KT 10SM BKN140 24/M07 A2985 RMK AO2 SLP087 T02441067 10283 20244 51017
2026-05-01T04:56:00Z,2026-05-01,2026-04-30,METAR,2026-05-01T08:28:24Z,25.6,78.1,-6.7,19.9,1,10,N,4,4.6,,,10+,10.0,44,,SCT14000,1010.2,1008.1,,,,,,VFR,METAR KLAS 010456Z 01004KT 10SM SCT140 26/M07 A2983 RMK AO2 SLP081 T02561067
2026-05-01T03:56:00Z,2026-05-01,2026-04-30,METAR,2026-05-01T08:28:24Z,26.7,80.1,-6.7,19.9,1,10,N,10,11.5,,,10+,10.0,19,,FEW12000,1009.9,1007.8,,,,,,VFR,METAR KLAS 010356Z 01010KT 10SM FEW120 27/M07 A2982 RMK AO2 SLP078 T02671067
2026-05-01T02:56:00Z,2026-05-01,2026-04-30,METAR,2026-05-01T08:28:24Z,27.2,81.0,-6.7,19.9,1,30,NNE,8,9.2,,,10+,10.0,19,,FEW12000 FEW15000,1009.2,1007.1,,,,,,VFR,METAR KLAS 010256Z 03008KT 10SM FEW120 FEW150 27/M07 A2980 RMK AO2 SLP071 T02721067 53003
2026-05-01T02:07:00Z,2026-05-01,2026-04-30,SPECI,2026-05-01T08:28:24Z,27.8,82.0,-6.1,21.0,1,30,NNE,9,10.4,,,10+,10.0,19,,FEW12000 FEW15000,1008.9,,,,,,,VFR,SPECI KLAS 010207Z 03009KT 10SM FEW120 FEW150 28/M06 A2979 RMK AO2 T02781061
2026-05-01T01:56:00Z,2026-05-01,2026-04-30,METAR,2026-05-01T08:28:24Z,27.8,82.0,-5.6,21.9,1,80,E,10,11.5,15,17.3,10+,10.0,19,,FEW12000 FEW15000,1008.5,1006.6,,,,,,VFR,METAR KLAS 010156Z 08010G15KT 10SM FEW120 FEW150 28/M06 A2978 RMK AO2 SLP066 T02781056
2026-05-01T09:56:00Z,2026-05-01,2026-05-01,METAR,2026-05-01T10:57:59Z,20.6,69.1,-4.4,24.1,1,0,CALM,0,0.0,,,10+,10.0,19,,FEW14000,1012.3,1010,,,,,,VFR,METAR KLAS 010956Z 00000KT 10SM FEW140 21/M04 A2989 RMK AO2 SLP100 T02061044
2026-05-01T08:56:00Z,2026-05-01,2026-05-01,METAR,2026-05-01T10:57:59Z,21.7,71.1,-5.6,21.9,1,40,NE,6,6.9,,,10+,10.0,19,,FEW14000,1011.9,1009.9,,,,,,VFR,METAR KLAS 010856Z 04006KT 10SM FEW140 22/M06 A2988 RMK AO2 SLP099 T02171056 51010
2026-05-01T14:56:00Z,2026-05-01,2026-05-01,METAR,2026-05-01T15:42:56Z,21.7,71.1,-3.3,26.1,1,160,SSE,3,3.5,,,10+,10.0,44,,SCT14000,1015.3,1013.2,,,,,,VFR,METAR KLAS 011456Z 16003KT 10SM SCT140 22/M03 A2998 RMK AO2 SLP132 T02171033 53020
2026-05-01T13:56:00Z,2026-05-01,2026-05-01,METAR,2026-05-01T15:42:56Z,19.4,66.9,-3.3,26.1,1,210,SSW,5,5.8,,,10+,10.0,19,,FEW12000,1014.6,1012.4,,,,,,VFR,METAR KLAS 011356Z 21005KT 10SM FEW120 19/M03 A2996 RMK AO2 SLP124 T01941033
2026-05-01T12:56:00Z,2026-05-01,2026-05-01,METAR,2026-05-01T15:42:56Z,19.4,66.9,-4.4,24.1,1,360,N,4,4.6,,,10+,10.0,19,,FEW12000,1013.6,1011.5,,,,,,VFR,METAR KLAS 011256Z 36004KT 10SM FEW120 19/M04 A2993 RMK AO2 SLP115 T01941044
2026-05-01T11:56:00Z,2026-05-01,2026-05-01,METAR,2026-05-01T15:42:56Z,19.4,66.9,-3.9,25.0,1,0,CALM,0,0.0,,,10+,10.0,,,,1013.3,1011,,,,,,VFR,METAR KLAS 011156Z 00000KT 10SM CLR 19/M04 A2992 RMK AO2 SLP110 T01941039 10244 20189 53010
2026-05-01T10:56:00Z,2026-05-01,2026-05-01,METAR,2026-05-01T15:42:56Z,20.6,69.1,-4.4,24.1,1,90,E,6,6.9,,,10+,10.0,19,,FEW14000,1012.6,1010.5,,,,,,VFR,METAR KLAS 011056Z 09006KT 10SM FEW140 21/M04 A2990 RMK AO2 SLP105 T02061044
2026-05-01T20:56:00Z,2026-05-01,2026-05-01,METAR,2026-05-01T21:39:06Z,28.3,82.9,-6.7,19.9,1,70,ENE,13,15.0,19,21.9,10+,10.0,19,,FEW13000,1014,1011.7,,,,,,VFR,METAR KLAS 012056Z 07013G19KT 10SM FEW130 28/M07 A2994 RMK AO2 SLP117 T02831067 58017
2026-05-01T20:03:00Z,2026-05-01,2026-05-01,SPECI,2026-05-01T21:39:06Z,27.2,81.0,-6.7,19.9,1,VRB,VRB,3,3.5,,,10+,10.0,19,,FEW13000,1014.3,,,,,,,VFR,SPECI KLAS 012003Z VRB03KT 10SM FEW130 27/M07 A2995 RMK AO2 T02721067
2026-05-01T19:56:00Z,2026-05-01,2026-05-01,METAR,2026-05-01T21:39:06Z,27.8,82.0,-6.7,19.9,1,40,NE,7,8.1,16,18.4,10+,10.0,19,,FEW13000,1014.6,1012.2,,,,,,VFR,METAR KLAS 011956Z 04007G16KT 10SM FEW130 28/M07 A2996 RMK AO2 SLP122 T02781067
2026-05-01T18:56:00Z,2026-05-01,2026-05-01,METAR,2026-05-01T21:39:06Z,26.7,80.1,-6.7,19.9,1,30,NNE,7,8.1,,,10+,10.0,19,,FEW13000,1015.3,1013,,,,,,VFR,METAR KLAS 011856Z 03007KT 10SM FEW130 27/M07 A2998 RMK AO2 SLP130 T02671067
2026-05-01T18:13:00Z,2026-05-01,2026-05-01,SPECI,2026-05-01T21:39:06Z,26.1,79.0,-7.2,19.0,1,10,N,9,10.4,,,10+,10.0,19,,FEW13000,1015.7,,,,,,,VFR,SPECI KLAS 011813Z 01009KT 10SM FEW130 26/M07 A2999 RMK AO2 T02611072
2026-05-01T18:03:00Z,2026-05-01,2026-05-01,SPECI,2026-05-01T21:39:06Z,25.6,78.1,-7.2,19.0,1,40,NE,11,12.7,16,18.4,10+,10.0,19,,FEW13000,1015.7,,,,,,,VFR,SPECI KLAS 011803Z 04011G16KT 10SM FEW130 26/M07 A2999 RMK AO2 T02561072
2026-05-01T17:56:00Z,2026-05-01,2026-05-01,METAR,2026-05-01T21:39:06Z,25.6,78.1,-7.2,19.0,1,30,NNE,8,9.2,16,18.4,10+,10.0,19,,FEW13000,1015.7,1013.5,,,,,,VFR,METAR KLAS 011756Z 03008G16KT 10SM FEW130 26/M07 A2999 RMK AO2 SLP135 T02561072 10261 20178 50004
2026-05-01T17:31:00Z,2026-05-01,2026-05-01,SPECI,2026-05-01T21:39:06Z,25,77.0,-7.2,19.0,1,50,NE,4,4.6,,,10+,10.0,19,,FEW14000,1016,,,,,,,VFR,SPECI KLAS 011731Z 05004KT 10SM FEW140 25/M07 A3000 RMK AO2 T02501072
2026-05-01T17:29:00Z,2026-05-01,2026-05-01,SPECI,2026-05-01T21:39:06Z,25,77.0,-7.2,19.0,1,,,,,,,10+,10.0,19,,FEW14000,1016,,,,,,,VFR,SPECI KLAS 011729Z 10SM FEW140 25/M07 A3000 RMK AO2 T02501072
2026-05-01T17:11:00Z,2026-05-01,2026-05-01,SPECI,2026-05-01T21:39:06Z,25,77.0,-6.1,21.0,1,10,N,12,13.8,16,18.4,10+,10.0,19,,FEW14000,1016,,,,,,,VFR,SPECI KLAS 011711Z 01012G16KT 10SM FEW140 25/M06 A3000 RMK AO2 T02501061
2026-05-01T16:56:00Z,2026-05-01,2026-05-01,METAR,2026-05-01T21:39:06Z,24.4,75.9,-6.1,21.0,1,30,NNE,12,13.8,18,20.7,10+,10.0,19,,FEW14000,1016,1013.8,,,,,,VFR,METAR KLAS 011656Z 03012G18KT 10SM FEW140 24/M06 A3000 RMK AO2 SLP138 T02441061
2026-05-01T15:56:00Z,2026-05-01,2026-05-01,METAR,2026-05-01T21:39:06Z,22.2,72.0,-3.3,26.1,1,160,SSE,3,3.5,,,10+,10.0,19,,FEW14000,1015.7,1013.6,,,,,,VFR,METAR KLAS 011556Z 16003KT 10SM FEW140 22/M03 A2999 RMK AO2 SLP136 T02221033
2026-05-02T06:56:00Z,2026-05-02,2026-05-01,METAR,2026-05-02T07:12:12Z,23.3,73.9,-11.7,10.9,1,30,NNE,8,9.2,,,10+,10.0,19,,FEW20000,1015.3,1013.2,,,,,,VFR,METAR KLAS 020656Z 03008KT 10SM FEW200 23/M12 A2998 RMK AO2 SLP132 T02331117
2026-05-02T05:56:00Z,2026-05-02,2026-05-01,METAR,2026-05-02T07:12:12Z,23.9,75.0,-11.1,12.0,1,30,NNE,11,12.7,,,10+,10.0,,,,1014.6,1012.5,,,,,,VFR,METAR KLAS 020556Z 03011KT 10SM CLR 24/M11 A2996 RMK AO2 SLP125 T02391111 10289 20239 51019
2026-05-02T04:56:00Z,2026-05-02,2026-05-01,METAR,2026-05-02T07:12:12Z,25.6,78.1,-10.6,12.9,1,40,NE,5,5.8,,,10+,10.0,19,,FEW25000,1014.3,1012.2,,,,,,VFR,METAR KLAS 020456Z 04005KT 10SM FEW250 26/M11 A2995 RMK AO2 SLP122 T02561106
2026-05-02T03:56:00Z,2026-05-02,2026-05-01,METAR,2026-05-02T07:12:12Z,26.1,79.0,-10.6,12.9,1,30,NNE,7,8.1,,,10+,10.0,19,,FEW15000,1013.6,1011.5,,,,,,VFR,METAR KLAS 020356Z 03007KT 10SM FEW150 26/M11 A2993 RMK AO2 SLP115 T02611106
2026-05-02T02:56:00Z,2026-05-02,2026-05-01,METAR,2026-05-02T07:12:12Z,27.2,81.0,-10.6,12.9,1,40,NE,8,9.2,,,10+,10.0,19,,FEW15000,1012.6,1010.6,,,,,,VFR,METAR KLAS 020256Z 04008KT 10SM FEW150 27/M11 A2990 RMK AO2 SLP106 T02721106 53005
2026-05-02T01:56:00Z,2026-05-02,2026-05-01,METAR,2026-05-02T07:12:12Z,27.8,82.0,-10.6,12.9,1,80,E,7,8.1,,,10+,10.0,19,,FEW15000,1012.3,1010.1,,,,,,VFR,METAR KLAS 020156Z 08007KT 10SM FEW150 28/M11 A2989 RMK AO2 SLP101 T02781106
2026-05-02T00:56:00Z,2026-05-02,2026-05-01,METAR,2026-05-02T07:12:12Z,28.3,82.9,-7.2,19.0,1,110,ESE,6,6.9,,,10+,10.0,19,,FEW15000,1011.9,1009.9,,,,,,VFR,METAR KLAS 020056Z 11006KT 10SM FEW150 28/M07 A2988 RMK AO2 SLP099 T02831072
2026-05-02T09:56:00Z,2026-05-02,2026-05-02,METAR,2026-05-02T10:09:34Z,20,68.0,-9.4,15.1,1,260,W,3,3.5,,,10+,10.0,44,,SCT20000,1015.3,1013.3,,,,,,VFR,METAR KLAS 020956Z 26003KT 10SM SCT200 20/M09 A2998 RMK AO2 SLP133 T02001094
2026-05-02T08:56:00Z,2026-05-02,2026-05-02,METAR,2026-05-02T10:09:34Z,21.7,71.1,-11.1,12.0,1,VRB,VRB,3,3.5,,,10+,10.0,75,20000,BKN20000,1015.7,1013.4,,,,,,VFR,METAR KLAS 020856Z VRB03KT 10SM BKN200 22/M11 A2999 RMK AO2 SLP134 T02171111 50008
2026-05-02T07:56:00Z,2026-05-02,2026-05-02,METAR,2026-05-02T10:09:34Z,22.8,73.0,-12.2,10.0,1,30,NNE,4,4.6,,,10+,10.0,44,,SCT20000,1015.7,1013.4,,,,,,VFR,METAR KLAS 020756Z 03004KT 10SM SCT200 23/M12 A2999 RMK AO2 SLP134 T02281122 402940178
2026-05-02T14:56:00Z,2026-05-02,2026-05-02,METAR,2026-05-02T15:11:52Z,20.6,69.1,-8.3,17.1,1,220,SW,4,4.6,,,10+,10.0,75,25000,BKN25000,1017.4,1015.1,,,,,,VFR,METAR KLAS 021456Z 22004KT 10SM BKN250 21/M08 A3004 RMK AO2 SLP151 T02061083 51014
2026-05-02T13:56:00Z,2026-05-02,2026-05-02,METAR,2026-05-02T15:11:52Z,17.8,64.0,-8.9,16.0,1,200,SSW,5,5.8,,,10+,10.0,75,25000,BKN25000,1016.7,1014.8,,,,,,VFR,METAR KLAS 021356Z 20005KT 10SM BKN250 18/M09 A3002 RMK AO2 SLP148 T01781089
2026-05-02T12:56:00Z,2026-05-02,2026-05-02,METAR,2026-05-02T15:11:52Z,16.7,62.1,-10,14.0,1,220,SW,5,5.8,,,10+,10.0,75,25000,BKN25000,1016,1014.1,,,,,,VFR,METAR KLAS 021256Z 22005KT 10SM BKN250 17/M10 A3000 RMK AO2 SLP141 T01671100
2026-05-02T11:56:00Z,2026-05-02,2026-05-02,METAR,2026-05-02T15:11:52Z,17.8,64.0,-8.9,16.0,1,0,CALM,0,0.0,,,10+,10.0,75,20000,BKN20000,1015.7,1013.7,,,,,,VFR,METAR KLAS 021156Z 00000KT 10SM BKN200 18/M09 A2999 RMK AO2 SLP137 T01781089 10239 20178 53001
2026-05-02T10:56:00Z,2026-05-02,2026-05-02,METAR,2026-05-02T15:11:52Z,18.9,66.0,-9.4,15.1,1,270,W,5,5.8,,,10+,10.0,44,,SCT20000,1015.7,1013.5,,,,,,VFR,METAR KLAS 021056Z 27005KT 10SM SCT200 19/M09 A2999 RMK AO2 SLP135 T01891094
2026-05-02T20:56:00Z,2026-05-02,2026-05-02,METAR,2026-05-02T21:03:14Z,28.9,84.0,-13.3,8.1,1,50,NE,6,6.9,,,10+,10.0,75,25000,BKN25000,1014.6,1012.2,,,,,,VFR,METAR KLAS 022056Z 05006KT 10SM BKN250 29/M13 A2996 RMK AO2 SLP122 T02891133 58024
2026-05-02T19:56:00Z,2026-05-02,2026-05-02,METAR,2026-05-02T21:03:14Z,28.3,82.9,-10.6,12.9,1,VRB,VRB,3,3.5,,,10+,10.0,75,25000,BKN25000,1015.7,1013.2,,,,,,VFR,METAR KLAS 021956Z VRB03KT 10SM BKN250 28/M11 A2999 RMK AO2 SLP132 T02831106
2026-05-02T18:56:00Z,2026-05-02,2026-05-02,METAR,2026-05-02T21:03:14Z,27.2,81.0,-9.4,15.1,1,130,SE,5,5.8,,,10+,10.0,75,25000,BKN25000,1016.3,1014,,,,,,VFR,METAR KLAS 021856Z 13005KT 10SM BKN250 27/M09 A3001 RMK AO2 SLP140 T02721094
2026-05-02T17:56:00Z,2026-05-02,2026-05-02,METAR,2026-05-02T21:03:14Z,26.1,79.0,-8.9,16.0,1,0,CALM,0,0.0,,,10+,10.0,75,25000,BKN25000,1017,1014.9,,,,,,VFR,METAR KLAS 021756Z 00000KT 10SM BKN250 26/M09 A3003 RMK AO2 SLP149 T02611089 10261 20167 58001
2026-05-02T16:56:00Z,2026-05-02,2026-05-02,METAR,2026-05-02T21:03:14Z,25,77.0,-8.9,16.0,1,70,ENE,6,6.9,,,10+,10.0,75,25000,BKN25000,1017.4,1015.2,,,,,,VFR,METAR KLAS 021656Z 07006KT 10SM BKN250 25/M09 A3004 RMK AO2 SLP152 T02501089
2026-05-02T15:56:00Z,2026-05-02,2026-05-02,METAR,2026-05-02T21:03:14Z,23.3,73.9,-8.9,16.0,1,10,N,6,6.9,,,10+,10.0,75,25000,BKN25000,1017.4,1015.3,,,,,,VFR,METAR KLAS 021556Z 01006KT 10SM BKN250 23/M09 A3004 RMK AO2 SLP153 T02331089
2026-05-03T06:56:00Z,2026-05-03,2026-05-02,METAR,2026-05-03T07:32:49Z,21.7,71.1,-11.7,10.9,1,210,SSW,6,6.9,,,10+,10.0,44,,SCT25000,1012.3,1010.1,,,,,,VFR,METAR KLAS 030656Z 21006KT 10SM SCT250 22/M12 A2989 RMK AO2 SLP101 T02171117
2026-05-03T05:56:00Z,2026-05-03,2026-05-02,METAR,2026-05-03T07:32:49Z,23.3,73.9,-12.2,10.0,1,240,WSW,3,3.5,,,10+,10.0,75,25000,BKN25000,1012.3,1009.9,,,,,,VFR,METAR KLAS 030556Z 24003KT 10SM BKN250 23/M12 A2989 RMK AO2 SLP099 T02331122 10294 20233 51009
2026-05-03T04:56:00Z,2026-05-03,2026-05-02,METAR,2026-05-03T07:32:49Z,24.4,75.9,-11.1,12.0,1,210,SSW,4,4.6,,,10+,10.0,19,,FEW25000,1012.3,1009.9,,,,,,VFR,METAR KLAS 030456Z 21004KT 10SM FEW250 24/M11 A2989 RMK AO2 SLP099 T02441111
2026-05-03T03:56:00Z,2026-05-03,2026-05-02,METAR,2026-05-03T07:32:49Z,26.7,80.1,-13.3,8.1,1,10,N,3,3.5,,,10+,10.0,44,,SCT25000,1011.6,1009.3,,,,,,VFR,METAR KLAS 030356Z 01003KT 10SM SCT250 27/M13 A2987 RMK AO2 SLP093 T02671133
2026-05-03T02:56:00Z,2026-05-03,2026-05-02,METAR,2026-05-03T07:32:49Z,27.8,82.0,-15.6,3.9,1,30,NNE,4,4.6,,,10+,10.0,44,,SCT25000,1011.3,1008.9,,,,,,VFR,METAR KLAS 030256Z 03004KT 10SM SCT250 28/M16 A2986 RMK AO2 SLP089 T02781156 55006
2026-05-03T01:56:00Z,2026-05-03,2026-05-02,METAR,2026-05-03T07:32:49Z,28.9,84.0,-15.6,3.9,1,0,CALM,0,0.0,,,10+,10.0,75,25000,BKN25000,1010.9,1008.9,,,,,,VFR,METAR KLAS 030156Z 00000KT 10SM BKN250 29/M16 A2985 RMK AO2 SLP089 T02891156
2026-05-03T00:56:00Z,2026-05-03,2026-05-02,METAR,2026-05-03T07:32:49Z,28.9,84.0,-15.6,3.9,1,VRB,VRB,4,4.6,,,10+,10.0,75,25000,BKN25000,1011.3,1009.3,,,,,,VFR,METAR KLAS 030056Z VRB04KT 10SM BKN250 29/M16 A2986 RMK AO2 SLP093 T02891156
2026-05-03T09:56:00Z,2026-05-03,2026-05-03,METAR,2026-05-03T10:17:35Z,18.9,66.0,-11.1,12.0,1,230,SW,6,6.9,,,10+,10.0,,,,1011.3,1009.1,,,,,,VFR,METAR KLAS 030956Z 23006KT 10SM CLR 19/M11 A2986 RMK AO2 SLP091 T01891111
2026-05-03T08:56:00Z,2026-05-03,2026-05-03,METAR,2026-05-03T10:17:35Z,19.4,66.9,-10,14.0,1,0,CALM,0,0.0,,,10+,10.0,19,,FEW25000,1011.6,1009.4,,,,,,VFR,METAR KLAS 030856Z 00000KT 10SM FEW250 19/M10 A2987 RMK AO2 SLP094 T01941100 58005
2026-05-03T07:56:00Z,2026-05-03,2026-05-03,METAR,2026-05-03T10:17:35Z,20.6,69.1,-12.2,10.0,1,220,SW,5,5.8,,,10+,10.0,19,,FEW15000 FEW25000,1011.9,1009.9,,,,,,VFR,METAR KLAS 030756Z 22005KT 10SM FEW150 FEW250 21/M12 A2988 RMK AO2 SLP099 T02061122 403000167
2026-05-03T14:56:00Z,2026-05-03,2026-05-03,METAR,2026-05-03T15:10:29Z,21.7,71.1,-10,14.0,1,0,CALM,0,0.0,,,10+,10.0,19,,FEW15000 FEW25000,1012.3,1009.9,,,,,,VFR,METAR KLAS 031456Z 00000KT 10SM FEW150 FEW250 22/M10 A2989 RMK AO2 SLP099 T02171100 51011
2026-05-03T13:56:00Z,2026-05-03,2026-05-03,METAR,2026-05-03T15:10:29Z,19.4,66.9,-8.9,16.0,1,0,CALM,0,0.0,,,10+,10.0,19,,FEW15000 FEW25000,1011.9,1009.9,,,,,,VFR,METAR KLAS 031356Z 00000KT 10SM FEW150 FEW250 19/M09 A2988 RMK AO2 SLP099 T01941089
2026-05-03T12:56:00Z,2026-05-03,2026-05-03,METAR,2026-05-03T15:10:29Z,17.8,64.0,-11.1,12.0,1,280,W,6,6.9,,,10+,10.0,19,,FEW15000 FEW25000,1011.3,1009.2,,,,,,VFR,METAR KLAS 031256Z 28006KT 10SM FEW150 FEW250 18/M11 A2986 RMK AO2 SLP092 T01781111
2026-05-03T11:56:00Z,2026-05-03,2026-05-03,METAR,2026-05-03T15:10:29Z,17.2,63.0,-11.7,10.9,1,230,SW,7,8.1,,,10+,10.0,19,,FEW25000,1010.9,1009,,,,,,VFR,METAR KLAS 031156Z 23007KT 10SM FEW250 17/M12 A2985 RMK AO2 SLP090 T01721117 10233 20172 58005
2026-05-03T10:56:00Z,2026-05-03,2026-05-03,METAR,2026-05-03T15:10:29Z,17.8,64.0,-12.2,10.0,1,210,SSW,5,5.8,,,10+,10.0,,,,1011.3,1009.3,,,,,,VFR,METAR KLAS 031056Z 21005KT 10SM CLR 18/M12 A2986 RMK AO2 SLP093 T01781122
2026-05-03T20:56:00Z,2026-05-03,2026-05-03,METAR,2026-05-03T21:07:04Z,31.7,89.1,-3.3,26.1,1,180,S,15,17.3,26,29.9,10+,10.0,44,,SCT13000 SCT22000,1007.2,1004.7,,,,,,VFR,METAR KLAS 032056Z 18015G26KT 10SM SCT130 SCT220 32/M03 A2974 RMK AO2 PK WND 16026/2051 SLP047 T03171033 58038
2026-05-03T19:56:00Z,2026-05-03,2026-05-03,METAR,2026-05-03T21:07:04Z,30.6,87.1,-7.2,19.0,1,340,NNW,7,8.1,,,10+,10.0,44,,SCT13000 SCT22000,1008.5,1006.1,,,,,,VFR,METAR KLAS 031956Z 34007KT 10SM SCT130 SCT220 31/M07 A2978 RMK AO2 SLP061 T03061072
2026-05-03T18:56:00Z,2026-05-03,2026-05-03,METAR,2026-05-03T21:07:04Z,29.4,84.9,-8.3,17.1,1,40,NE,5,5.8,,,10+,10.0,44,,FEW13000 SCT22000,1009.9,1007.6,,,,,,VFR,METAR KLAS 031856Z 04005KT 10SM FEW130 SCT220 29/M08 A2982 RMK AO2 SLP076 T02941083
2026-05-03T17:56:00Z,2026-05-03,2026-05-03,METAR,2026-05-03T21:07:04Z,27.2,81.0,-10,14.0,1,VRB,VRB,6,6.9,,,10+,10.0,19,,FEW13000 FEW22000,1011.3,1008.8,,,,,,VFR,METAR KLAS 031756Z VRB06KT 10SM FEW130 FEW220 27/M10 A2986 RMK AO2 SLP088 T02721100 10272 20172 58010
2026-05-03T16:56:00Z,2026-05-03,2026-05-03,METAR,2026-05-03T21:07:04Z,25.6,78.1,-11.1,12.0,1,100,E,4,4.6,,,10+,10.0,19,,FEW13000 FEW25000,1011.9,1009.6,,,,,,VFR,METAR KLAS 031656Z 10004KT 10SM FEW130 FEW250 26/M11 A2988 RMK AO2 SLP096 T02561111
2026-05-03T15:56:00Z,2026-05-03,2026-05-03,METAR,2026-05-03T21:07:04Z,24.4,75.9,-11.1,12.0,1,0,CALM,0,0.0,,,10+,10.0,19,,FEW15000 FEW25000,1012.3,1009.8,,,,,,VFR,METAR KLAS 031556Z 00000KT 10SM FEW150 FEW250 24/M11 A2989 RMK AO2 SLP098 T02441111
2026-05-04T08:56:00Z,2026-05-04,2026-05-04,METAR,2026-05-04T09:32:01Z,21.7,71.1,0,32.0,1,160,SSE,9,10.4,,,10+,10.0,75,20000,FEW15000 BKN20000,1007.9,1005.4,,,,,,VFR,METAR KLAS 040856Z 16009KT 10SM FEW150 BKN200 22/00 A2976 RMK AO2 SLP054 T02170000 53013
2026-05-04T07:56:00Z,2026-05-04,2026-05-04,METAR,2026-05-04T09:32:01Z,23.3,73.9,-1.7,28.9,1,190,S,8,9.2,18,20.7,10+,10.0,75,20000,FEW10000 FEW15000 BKN20000,1007.2,1004.6,,,,,,VFR,METAR KLAS 040756Z 19008G18KT 10SM FEW100 FEW150 BKN200 23/M02 A2974 RMK AO2 SLP046 T02331017 403280172
2026-05-04T06:56:00Z,2026-05-04,2026-05-03,METAR,2026-05-04T09:32:01Z,23.9,75.0,-4.4,24.1,1,160,SSE,3,3.5,,,10+,10.0,100,20000,FEW10000 FEW15000 OVC20000,1006.9,1004.3,,,,,,VFR,METAR KLAS 040656Z 16003KT 10SM FEW100 FEW150 OVC200 24/M04 A2973 RMK AO2 SLP043 T02391044
2026-05-04T05:56:00Z,2026-05-04,2026-05-03,METAR,2026-05-04T09:32:01Z,25,77.0,-7.2,19.0,1,230,SW,10,11.5,,,10+,10.0,75,20000,FEW10000 SCT15000 BKN20000,1006.5,1004.1,,,,,,VFR,METAR KLAS 040556Z 23010KT 10SM FEW100 SCT150 BKN200 25/M07 A2972 RMK AO2 SLP041 T02501072 10322 20250 51016
2026-05-04T04:56:00Z,2026-05-04,2026-05-03,METAR,2026-05-04T09:32:01Z,25.6,78.1,-6.7,19.9,1,230,SW,12,13.8,,,10+,10.0,44,,FEW10000 SCT20000,1006.5,1004,,,,,,VFR,METAR KLAS 040456Z 23012KT 10SM FEW100 SCT200 26/M07 A2972 RMK AO2 SLP040 T02561067
2026-05-04T03:56:00Z,2026-05-04,2026-05-03,METAR,2026-05-04T09:32:01Z,26.7,80.1,-2.8,27.0,1,240,WSW,8,9.2,,,10+,10.0,44,,FEW10000 SCT20000,1006.2,1003.6,,,,,,VFR,METAR KLAS 040356Z 24008KT 10SM FEW100 SCT200 27/M03 A2971 RMK AO2 SLP036 T02671028
2026-05-04T02:56:00Z,2026-05-04,2026-05-03,METAR,2026-05-04T09:32:01Z,28.9,84.0,-5,23.0,1,200,SSW,13,15.0,22,25.3,10+,10.0,44,,SCT10000 SCT20000,1004.8,1002.4,,,,,,VFR,METAR KLAS 040256Z 20013G22KT 10SM SCT100 SCT200 29/M05 A2967 RMK AO2 SLP024 T02891050 55000
2026-05-04T11:56:00Z,2026-05-04,2026-05-04,METAR,2026-05-04T12:13:50Z,18.3,64.9,2.8,37.0,22,180,S,12,13.8,23,26.5,10+,10.0,75,20000,FEW15000 BKN20000,1007.5,1005.1,,,,,,VFR,METAR KLAS 041156Z 18012G23KT 10SM FEW150 BKN200 18/03 A2975 RMK AO2 SLP051 T01830028 10250 20183 58004
2026-05-04T10:56:00Z,2026-05-04,2026-05-04,METAR,2026-05-04T12:13:50Z,18.9,66.0,3.3,37.9,22,160,SSE,8,9.2,,,10+,10.0,100,20000,FEW15000 OVC20000,1007.9,1005.6,,,,,,VFR,METAR KLAS 041056Z 16008KT 10SM FEW150 OVC200 19/03 A2976 RMK AO2 SLP056 T01890033
2026-05-04T09:56:00Z,2026-05-04,2026-05-04,METAR,2026-05-04T12:13:50Z,20,68.0,2.8,37.0,14,160,SSE,9,10.4,16,18.4,10+,10.0,75,20000,FEW15000 BKN20000,1008.2,1005.7,,,,,,VFR,METAR KLAS 040956Z 16009G16KT 10SM FEW150 BKN200 20/03 A2977 RMK AO2 SLP057 T02000028
2026-05-04T17:56:00Z,2026-05-04,2026-05-04,METAR,2026-05-04T18:04:21Z,21.1,70.0,1.7,35.1,3,180,S,10,11.5,19,21.9,10+,10.0,75,25000,SCT20000 BKN25000,1010.2,1008.3,,,,,,VFR,METAR KLAS 041756Z 18010G19KT 150V210 10SM SCT200 BKN250 21/02 A2983 RMK AO2 SLP083 T02110017 10211 20167 53009
2026-05-04T16:56:00Z,2026-05-04,2026-05-04,METAR,2026-05-04T18:04:21Z,19.4,66.9,2.8,37.0,17,170,S,12,13.8,21,24.2,10+,10.0,75,25000,SCT20000 BKN25000,1009.9,1007.9,,,,,,VFR,METAR KLAS 041656Z 17012G21KT 10SM SCT200 BKN250 19/03 A2982 RMK AO2 SLP079 T01940028
2026-05-04T15:56:00Z,2026-05-04,2026-05-04,METAR,2026-05-04T18:04:21Z,18.9,66.0,3.3,37.9,22,180,S,13,15.0,24,27.6,10+,10.0,75,25000,SCT20000 BKN25000,1009.2,1007.3,,,,,,VFR,METAR KLAS 041556Z 18013G24KT 10SM SCT200 BKN250 19/03 A2980 RMK AO2 SLP073 T01890033
2026-05-04T14:56:00Z,2026-05-04,2026-05-04,METAR,2026-05-04T18:04:21Z,17.8,64.0,3.3,37.9,28,190,S,13,15.0,22,25.3,10+,10.0,75,25000,SCT20000 BKN25000,1009.2,1007.3,,,,,,VFR,METAR KLAS 041456Z 19013G22KT 10SM SCT200 BKN250 18/03 A2980 RMK AO2 SLP073 T01780033 53018
2026-05-04T13:56:00Z,2026-05-04,2026-05-04,METAR,2026-05-04T18:04:21Z,17.2,63.0,3.3,37.9,30,180,S,12,13.8,21,24.2,10+,10.0,75,20000,BKN20000 BKN25000,1008.5,1006.6,,,,,,VFR,METAR KLAS 041356Z 18012G21KT 10SM BKN200 BKN250 17/03 A2978 RMK AO2 SLP066 T01720033
2026-05-04T12:56:00Z,2026-05-04,2026-05-04,METAR,2026-05-04T18:04:21Z,17.2,63.0,2.8,37.0,28,190,S,9,10.4,20,23.0,10+,10.0,75,20000,FEW14000 BKN20000 BKN25000,1007.9,1005.8,,,,,,VFR,METAR KLAS 041256Z 19009G20KT 10SM FEW140 BKN200 BKN250 17/03 A2976 RMK AO2 SLP058 T01720028
2026-05-04T21:56:00Z,2026-05-04,2026-05-04,METAR,2026-05-04T22:15:44Z,25,77.0,-9.4,15.1,1,200,SSW,11,12.7,26,29.9,10+,10.0,75,25000,FEW12000 SCT20000 BKN25000,1008.5,1006.3,,,,,,VFR,METAR KLAS 042156Z 20011G26KT 10SM FEW120 SCT200 BKN250 25/M09 A2978 RMK AO2 PK WND 26027/2129 SLP063 T02501094
2026-05-04T20:56:00Z,2026-05-04,2026-05-04,METAR,2026-05-04T22:15:44Z,24.4,75.9,-8.3,17.1,1,200,SSW,13,15.0,24,27.6,10+,10.0,75,25000,FEW12000 SCT20000 BKN25000,1008.9,1006.6,,,,,,VFR,METAR KLAS 042056Z 20013G24KT 10SM FEW120 SCT200 BKN250 24/M08 A2979 RMK AO2 PK WND 18029/2004 SLP066 T02441083 56015
2026-05-04T19:56:00Z,2026-05-04,2026-05-04,METAR,2026-05-04T22:15:44Z,23.9,75.0,-3.9,25.0,1,180,S,14,16.1,27,31.1,10+,10.0,75,25000,FEW12000 FEW20000 BKN25000,1008.9,1006.8,,,,,,VFR,METAR KLAS 041956Z 18014G27KT 10SM FEW120 FEW200 BKN250 24/M04 A2979 RMK AO2 PK WND 19029/1936 SLP068 T02391039
2026-05-04T18:56:00Z,2026-05-04,2026-05-04,METAR,2026-05-04T22:15:44Z,22.8,73.0,-2.8,27.0,1,200,SSW,13,15.0,25,28.8,10+,10.0,75,25000,FEW12000 FEW20000 BKN25000,1009.9,1007.7,,,,,,VFR,METAR KLAS 041856Z 20013G25KT 10SM FEW120 FEW200 BKN250 23/M03 A2982 RMK AO2 SLP077 T02281028
2026-05-05T06:56:00Z,2026-05-05,2026-05-04,METAR,2026-05-05T07:34:05Z,17.2,63.0,1.1,34.0,20,230,SW,10,11.5,,,10+,10.0,,,,1009.9,1008.1,,,,,,VFR,METAR KLAS 050656Z 23010KT 10SM CLR 17/01 A2982 RMK AO2 SLP081 T01720011
2026-05-05T05:56:00Z,2026-05-05,2026-05-04,METAR,2026-05-05T07:34:05Z,18.3,64.9,0.6,33.1,12,230,SW,15,17.3,,,10+,10.0,,,,1009.9,1008.1,,,,,,VFR,METAR KLAS 050556Z 23015KT 10SM CLR 18/01 A2982 RMK AO2 SLP081 T01830006 10244 20183 51019
2026-05-05T04:56:00Z,2026-05-05,2026-05-04,METAR,2026-05-05T07:34:05Z,19.4,66.9,0,32.0,3,240,WSW,9,10.4,19,21.9,10+,10.0,,,,1009.6,1007.9,,,,,,VFR,METAR KLAS 050456Z 24009G19KT 10SM CLR 19/00 A2981 RMK AO2 SLP079 T01940000
2026-05-05T03:56:00Z,2026-05-05,2026-05-04,METAR,2026-05-05T07:34:05Z,20.6,69.1,-1.1,30.0,1,230,SW,12,13.8,19,21.9,10+,10.0,19,,FEW20000 FEW25000,1008.5,1006.9,,,,,,VFR,METAR KLAS 050356Z 23012G19KT 10SM FEW200 FEW250 21/M01 A2978 RMK AO2 SLP069 T02061011
2026-05-05T02:56:00Z,2026-05-05,2026-05-04,METAR,2026-05-05T07:34:05Z,21.7,71.1,-1.7,28.9,1,230,SW,13,15.0,24,27.6,10+,10.0,19,,FEW20000 FEW25000,1007.9,1006,,,,,,VFR,METAR KLAS 050256Z 23013G24KT 10SM FEW200 FEW250 22/M02 A2976 RMK AO2 SLP060 T02171017 53003
2026-05-05T01:56:00Z,2026-05-05,2026-05-04,METAR,2026-05-05T07:34:05Z,22.8,73.0,-4.4,24.1,1,210,SSW,15,17.3,23,26.5,10+,10.0,44,,FEW12000 SCT20000 SCT25000,1007.5,1005.6,,,,,,VFR,METAR KLAS 050156Z 21015G23KT 10SM FEW120 SCT200 SCT250 23/M04 A2975 RMK AO2 PK WND 23028/0103 SLP056 T02281044
2026-05-05T00:56:00Z,2026-05-05,2026-05-04,METAR,2026-05-05T07:34:05Z,23.9,75.0,-4.4,24.1,1,220,SW,14,16.1,24,27.6,10+,10.0,44,,FEW12000 SCT20000 SCT25000,1007.5,1005.5,,,,,,VFR,METAR KLAS 050056Z 22014G24KT 10SM FEW120 SCT200 SCT250 24/M04 A2975 RMK AO2 PK WND 23028/0034 SLP055 T02391044
2026-05-05T10:56:00Z,2026-05-05,2026-05-05,METAR,2026-05-05T11:44:00Z,15,59.0,2.2,36.0,36,190,S,9,10.4,,,10+,10.0,,,,1009.6,1007.8,,,,,,VFR,METAR KLAS 051056Z 19009KT 10SM CLR 15/02 A2981 RMK AO2 SLP078 T01500022
2026-05-05T09:56:00Z,2026-05-05,2026-05-05,METAR,2026-05-05T11:44:00Z,15.6,60.1,1.7,35.1,30,170,S,7,8.1,,,10+,10.0,,,,1009.9,1008,,,,,,VFR,METAR KLAS 050956Z 17007KT 10SM CLR 16/02 A2982 RMK AO2 SLP080 T01560017
2026-05-05T08:56:00Z,2026-05-05,2026-05-05,METAR,2026-05-05T11:44:00Z,16.1,61.0,1.7,35.1,28,180,S,7,8.1,,,10+,10.0,,,,1009.9,1008.1,,,,,,VFR,METAR KLAS 050856Z 18007KT 10SM CLR 16/02 A2982 RMK AO2 SLP081 T01610017 52001
2026-05-05T07:56:00Z,2026-05-05,2026-05-05,METAR,2026-05-05T11:44:00Z,16.7,62.1,1.7,35.1,25,180,S,5,5.8,,,10+,10.0,,,,1009.9,1008,,,,,,VFR,METAR KLAS 050756Z 18005KT 10SM CLR 17/02 A2982 RMK AO2 SLP080 T01670017 402560167
2026-05-05T17:56:00Z,2026-05-05,2026-05-05,METAR,2026-05-05T18:01:53Z,20,68.0,0,32.0,1,210,SSW,7,8.1,,,10+,10.0,75,25000,FEW12000 BKN25000,1010.9,1009.2,,,,,,VFR,METAR KLAS 051756Z 21007KT 160V240 10SM FEW120 BKN250 20/00 A2985 RMK AO2 SLP092 T02000000 10200 20133 50000
2026-05-05T16:56:00Z,2026-05-05,2026-05-05,METAR,2026-05-05T18:01:53Z,18.3,64.9,0.6,33.1,12,VRB,VRB,4,4.6,,,10+,10.0,75,25000,FEW12000 BKN25000,1010.9,1009.4,,,,,,VFR,METAR KLAS 051656Z VRB04KT 10SM FEW120 BKN250 18/01 A2985 RMK AO2 SLP094 T01830006
2026-05-05T15:56:00Z,2026-05-05,2026-05-05,METAR,2026-05-05T18:01:53Z,17.2,63.0,1.7,35.1,22,190,S,7,8.1,16,18.4,10+,10.0,75,25000,FEW12000 FEW15000 BKN25000,1011.3,1009.6,,,,,,VFR,METAR KLAS 051556Z 19007G16KT 10SM FEW120 FEW150 BKN250 17/02 A2986 RMK AO2 SLP096 T01720017
2026-05-05T14:56:00Z,2026-05-05,2026-05-05,METAR,2026-05-05T18:01:53Z,15.6,60.1,2.8,37.0,36,180,S,9,10.4,,,10+,10.0,44,,FEW15000 SCT25000,1010.9,1009.2,,,,,,VFR,METAR KLAS 051456Z 18009KT 10SM FEW150 SCT250 16/03 A2985 RMK AO2 SLP092 T01560028 53009
2026-05-05T13:56:00Z,2026-05-05,2026-05-05,METAR,2026-05-05T18:01:53Z,14.4,57.9,2.8,37.0,42,160,SSE,6,6.9,,,10+,10.0,19,,FEW15000 FEW25000,1010.2,1008.7,,,,,,VFR,METAR KLAS 051356Z 16006KT 10SM FEW150 FEW250 14/03 A2983 RMK AO2 SLP087 T01440028
2026-05-05T13:19:00Z,2026-05-05,2026-05-05,SPECI,2026-05-05T18:01:53Z,13.9,57.0,2.2,36.0,42,180,S,7,8.1,,,10+,10.0,19,,FEW15000 FEW25000,1009.9,,,,,,,VFR,SPECI KLAS 051319Z 18007KT 10SM FEW150 FEW250 14/02 A2982 RMK AO2 T01390022
2026-05-05T12:56:00Z,2026-05-05,2026-05-05,METAR,2026-05-05T18:01:53Z,13.9,57.0,2.2,36.0,42,150,SSE,6,6.9,16,18.4,10+,10.0,19,,FEW15000 FEW25000,1009.9,1008.3,,,,,,VFR,METAR KLAS 051256Z 15006G16KT 10SM FEW150 FEW250 14/02 A2982 RMK AO2 SLP083 T01390022
2026-05-05T11:56:00Z,2026-05-05,2026-05-05,METAR,2026-05-05T18:01:53Z,13.9,57.0,2.2,36.0,42,190,S,8,9.2,,,10+,10.0,19,,FEW25000,1009.9,1008.2,,,,,,VFR,METAR KLAS 051156Z 19008KT 10SM FEW250 14/02 A2982 RMK AO2 SLP082 T01390022 10183 20139 55000
2026-05-05T21:56:00Z,2026-05-05,2026-05-05,METAR,2026-05-05T22:12:33Z,22.8,73.0,-3.9,25.0,1,0,CALM,0,0.0,,,10+,10.0,44,,SCT12000 SCT25000,1009.6,1007.8,,,,,,VFR,METAR KLAS 052156Z 00000KT 10SM SCT120 SCT250 23/M04 A2981 RMK AO2 SLP078 T02281039
2026-05-05T20:56:00Z,2026-05-05,2026-05-05,METAR,2026-05-05T22:12:33Z,22.8,73.0,-2.8,27.0,1,VRB,VRB,3,3.5,,,10+,10.0,75,25000,SCT12000 BKN25000,1009.9,1008.4,,,,,,VFR,METAR KLAS 052056Z VRB03KT 10SM SCT120 BKN250 23/M03 A2982 RMK AO2 SLP084 T02281028 58007
2026-05-05T19:56:00Z,2026-05-05,2026-05-05,METAR,2026-05-05T22:12:33Z,21.7,71.1,-1.7,28.9,1,190,S,6,6.9,,,10+,10.0,75,25000,SCT12000 BKN25000,1010.2,1008.7,,,,,,VFR,METAR KLAS 051956Z 19006KT 10SM SCT120 BKN250 22/M02 A2983 RMK AO2 SLP087 T02171017
2026-05-05T18:56:00Z,2026-05-05,2026-05-05,METAR,2026-05-05T22:12:33Z,20.6,69.1,-0.6,30.9,1,VRB,VRB,4,4.6,,,10+,10.0,75,25000,FEW12000 BKN25000,1010.9,1009.1,,,,,,VFR,METAR KLAS 051856Z VRB04KT 10SM FEW120 BKN250 21/M01 A2985 RMK AO2 SLP091 T02061006
2026-05-06T08:56:00Z,2026-05-06,2026-05-06,METAR,2026-05-06T09:37:09Z,18.3,64.9,1.1,34.0,14,190,S,9,10.4,,,10+,10.0,44,,SCT22000,1012.3,1010.4,,,,,,VFR,METAR KLAS 060856Z 19009KT 10SM SCT220 18/01 A2989 RMK AO2 SLP104 T01830011 50006
2026-05-06T07:56:00Z,2026-05-06,2026-05-06,METAR,2026-05-06T09:37:09Z,18.9,66.0,-1.7,28.9,1,190,S,8,9.2,,,10+,10.0,44,,SCT22000,1012.3,1010.4,,,,,,VFR,METAR KLAS 060756Z 19008KT 10SM SCT220 19/M02 A2989 RMK AO2 SLP104 T01891017 402440133
2026-05-06T06:56:00Z,2026-05-06,2026-05-05,METAR,2026-05-06T09:37:09Z,19.4,66.9,-1.1,30.0,1,200,SSW,6,6.9,,,10+,10.0,19,,FEW25000,1012.3,1010.4,,,,,,VFR,METAR KLAS 060656Z 20006KT 10SM FEW250 19/M01 A2989 RMK AO2 SLP104 T01941011
2026-05-06T05:56:00Z,2026-05-06,2026-05-05,METAR,2026-05-06T09:37:09Z,20,68.0,-1.1,30.0,1,220,SW,7,8.1,,,10+,10.0,19,,FEW12000 FEW25000,1011.6,1009.8,,,,,,VFR,METAR KLAS 060556Z 22007KT 10SM FEW120 FEW250 20/M01 A2987 RMK AO2 SLP098 T02001011 10244 20200 51020
2026-05-06T04:56:00Z,2026-05-06,2026-05-05,METAR,2026-05-06T09:37:09Z,20.6,69.1,-0.6,30.9,1,220,SW,9,10.4,,,10+,10.0,44,,FEW12000 SCT25000,1010.9,1009.5,,,,,,VFR,METAR KLAS 060456Z 22009KT 10SM FEW120 SCT250 21/M01 A2985 RMK AO2 SLP095 T02061006
2026-05-06T03:56:00Z,2026-05-06,2026-05-05,METAR,2026-05-06T09:37:09Z,21.7,71.1,-0.6,30.9,1,220,SW,8,9.2,,,10+,10.0,19,,FEW12000 FEW25000,1010.2,1008.7,,,,,,VFR,METAR KLAS 060356Z 22008KT 10SM FEW120 FEW250 22/M01 A2983 RMK AO2 SLP087 T02171006
2026-05-06T02:56:00Z,2026-05-06,2026-05-05,METAR,2026-05-06T09:37:09Z,22.2,72.0,-1.1,30.0,1,200,SSW,9,10.4,,,10+,10.0,44,,FEW12000 SCT25000,1009.2,1007.7,,,,,,VFR,METAR KLAS 060256Z 20009KT 10SM FEW120 SCT250 22/M01 A2980 RMK AO2 SLP077 T02221011 53011
2026-05-06T11:56:00Z,2026-05-06,2026-05-06,METAR,2026-05-06T12:19:53Z,16.7,62.1,2.2,36.0,28,190,S,7,8.1,,,10+,10.0,19,,FEW22000,1013.6,1012,,,,,,VFR,METAR KLAS 061156Z 19007KT 10SM FEW220 17/02 A2993 RMK AO2 SLP120 T01670022 10200 20167 53014
2026-05-06T10:56:00Z,2026-05-06,2026-05-06,METAR,2026-05-06T12:19:53Z,17.2,63.0,2.2,36.0,25,170,S,6,6.9,,,10+,10.0,19,,FEW22000,1013.3,1011.6,,,,,,VFR,METAR KLAS 061056Z 17006KT 10SM FEW220 17/02 A2992 RMK AO2 SLP116 T01720022
2026-05-06T09:56:00Z,2026-05-06,2026-05-06,METAR,2026-05-06T12:19:53Z,18.3,64.9,1.1,34.0,14,200,SSW,7,8.1,,,10+,10.0,19,,FEW22000,1012.6,1010.7,,,,,,VFR,METAR KLAS 060956Z 20007KT 10SM FEW220 18/01 A2990 RMK AO2 SLP107 T01830011
2026-05-06T17:56:00Z,2026-05-06,2026-05-06,METAR,2026-05-06T18:05:36Z,23.9,75.0,1.1,34.0,1,60,ENE,6,6.9,,,10+,10.0,19,,FEW12000,1016.3,1014.6,,,,,,VFR,METAR KLAS 061756Z 06006KT 10SM FEW120 24/01 A3001 RMK AO2 SLP146 T02390011 10239 20167 51007
2026-05-06T16:56:00Z,2026-05-06,2026-05-06,METAR,2026-05-06T18:05:36Z,22.2,72.0,0,32.0,1,VRB,VRB,3,3.5,,,10+,10.0,19,,FEW12000,1016.3,1014.6,,,,,,VFR,METAR KLAS 061656Z VRB03KT 10SM FEW120 22/00 A3001 RMK AO2 SLP146 T02220000
2026-05-06T15:56:00Z,2026-05-06,2026-05-06,METAR,2026-05-06T18:05:36Z,21.1,70.0,0.6,33.1,1,330,NNW,3,3.5,,,10+,10.0,19,,FEW12000,1016.3,1014.4,,,,,,VFR,METAR KLAS 061556Z 33003KT 10SM FEW120 21/01 A3001 RMK AO2 SLP144 T02110006
2026-05-06T14:56:00Z,2026-05-06,2026-05-06,METAR,2026-05-06T18:05:36Z,19.4,66.9,2.8,37.0,17,180,S,5,5.8,,,10+,10.0,,,,1015.7,1013.9,,,,,,VFR,METAR KLAS 061456Z 18005KT 10SM CLR 19/03 A2999 RMK AO2 SLP139 T01940028 51019
2026-05-06T13:56:00Z,2026-05-06,2026-05-06,METAR,2026-05-06T18:05:36Z,17.2,63.0,2.8,37.0,28,200,SSW,6,6.9,,,10+,10.0,,,,1015.3,1013.5,,,,,,VFR,METAR KLAS 061356Z 20006KT 10SM CLR 17/03 A2998 RMK AO2 SLP135 T01720028
2026-05-06T12:56:00Z,2026-05-06,2026-05-06,METAR,2026-05-06T18:05:36Z,16.7,62.1,2.2,36.0,28,190,S,5,5.8,,,10+,10.0,,,,1014.3,1012.4,,,,,,VFR,METAR KLAS 061256Z 19005KT 10SM CLR 17/02 A2995 RMK AO2 SLP124 T01670022
2026-05-06T21:56:00Z,2026-05-06,2026-05-06,METAR,2026-05-06T22:07:19Z,27.8,82.0,1.1,34.0,1,110,ESE,5,5.8,,,10+,10.0,19,,FEW12000,1014.6,1012.5,,,,,,VFR,METAR KLAS 062156Z 11005KT 10SM FEW120 28/01 A2996 RMK AO2 SLP125 T02780011
2026-05-06T20:56:00Z,2026-05-06,2026-05-06,METAR,2026-05-06T22:07:19Z,26.7,80.1,1.1,34.0,1,70,ENE,5,5.8,,,10+,10.0,19,,FEW12000,1015.3,1013.4,,,,,,VFR,METAR KLAS 062056Z 07005KT 10SM FEW120 27/01 A2998 RMK AO2 SLP134 T02670011 58010
2026-05-06T19:56:00Z,2026-05-06,2026-05-06,METAR,2026-05-06T22:07:19Z,25.6,78.1,1.7,35.1,1,VRB,VRB,3,3.5,,,10+,10.0,19,,FEW12000,1016,1014,,,,,,VFR,METAR KLAS 061956Z VRB03KT 10SM FEW120 26/02 A3000 RMK AO2 SLP140 T02560017
2026-05-06T18:56:00Z,2026-05-06,2026-05-06,METAR,2026-05-06T22:07:19Z,25,77.0,1.1,34.0,1,0,CALM,0,0.0,,,10+,10.0,19,,FEW12000,1016.3,1014.3,,,,,,VFR,METAR KLAS 061856Z 00000KT 10SM FEW120 25/01 A3001 RMK AO2 SLP143 T02500011
2026-05-07T09:56:00Z,2026-05-07,2026-05-07,METAR,2026-05-07T10:07:32Z,21.7,71.1,-0.6,30.9,1,260,W,4,4.6,,,10+,10.0,,,,1016.3,1014.1,,,,,,VFR,METAR KLAS 070956Z 26004KT 10SM CLR 22/M01 A3001 RMK AO2 SLP141 T02171006
2026-05-07T08:56:00Z,2026-05-07,2026-05-07,METAR,2026-05-07T10:07:32Z,22.2,72.0,-3.9,25.0,1,360,N,5,5.8,,,10+,10.0,,,,1016.3,1014.3,,,,,,VFR,METAR KLAS 070856Z 36005KT 10SM CLR 22/M04 A3001 RMK AO2 SLP143 T02221039 51012
2026-05-07T07:56:00Z,2026-05-07,2026-05-07,METAR,2026-05-07T10:07:32Z,25,77.0,-3.3,26.1,1,20,NNE,8,9.2,,,10+,10.0,,,,1016.3,1014.1,,,,,,VFR,METAR KLAS 070756Z 02008KT 10SM CLR 25/M03 A3001 RMK AO2 SLP141 T02501033 402940167
2026-05-07T06:56:00Z,2026-05-07,2026-05-06,METAR,2026-05-07T10:07:32Z,23.9,75.0,0.6,33.1,1,230,SW,4,4.6,,,10+,10.0,,,,1015.7,1013.7,,,,,,VFR,METAR KLAS 070656Z 23004KT 10SM CLR 24/01 A2999 RMK AO2 SLP137 T02390006
2026-05-07T05:56:00Z,2026-05-07,2026-05-06,METAR,2026-05-07T10:07:32Z,25,77.0,0.6,33.1,1,200,SSW,5,5.8,,,10+,10.0,,,,1015.3,1013.1,,,,,,VFR,METAR KLAS 070556Z 20005KT 10SM CLR 25/01 A2998 RMK AO2 SLP131 T02500006 10294 20250 51015
2026-05-07T04:56:00Z,2026-05-07,2026-05-06,METAR,2026-05-07T10:07:32Z,26.1,79.0,0,32.0,1,190,S,3,3.5,,,10+,10.0,,,,1014.6,1012.6,,,,,,VFR,METAR KLAS 070456Z 19003KT 10SM CLR 26/00 A2996 RMK AO2 SLP126 T02610000
2026-05-07T03:56:00Z,2026-05-07,2026-05-06,METAR,2026-05-07T10:07:32Z,27.2,81.0,0.6,33.1,1,0,CALM,0,0.0,,,10+,10.0,,,,1014.3,1012.1,,,,,,VFR,METAR KLAS 070356Z 00000KT 10SM CLR 27/01 A2995 RMK AO2 SLP121 T02720006
2026-05-07T11:56:00Z,2026-05-07,2026-05-07,METAR,2026-05-07T12:22:54Z,19.4,66.9,-3.9,25.0,1,270,W,5,5.8,,,10+,10.0,,,,1016.7,1014.4,,,,,,VFR,METAR KLAS 071156Z 27005KT 10SM CLR 19/M04 A3002 RMK AO2 SLP144 T01941039 10250 20194 53001
2026-05-07T10:56:00Z,2026-05-07,2026-05-07,METAR,2026-05-07T12:22:54Z,21.1,70.0,-3.3,26.1,1,280,W,4,4.6,,,10+,10.0,,,,1016.7,1014.3,,,,,,VFR,METAR KLAS 071056Z 28004KT 10SM CLR 21/M03 A3002 RMK AO2 SLP143 T02111033
2026-05-07T17:56:00Z,2026-05-07,2026-05-07,METAR,2026-05-07T18:15:26Z,27.8,82.0,-8.3,17.1,1,50,NE,5,5.8,,,10+,10.0,,,,1016.7,1014.2,,,,,,VFR,METAR KLAS 071756Z 05005KT 10SM CLR 28/M08 A3002 RMK AO2 SLP142 T02781083 10278 20189 58009
2026-05-07T16:56:00Z,2026-05-07,2026-05-07,METAR,2026-05-07T18:15:26Z,26.1,79.0,-7.2,19.0,1,VRB,VRB,4,4.6,,,10+,10.0,,,,1017,1014.7,,,,,,VFR,METAR KLAS 071656Z VRB04KT 10SM CLR 26/M07 A3003 RMK AO2 SLP147 T02611072
2026-05-07T15:56:00Z,2026-05-07,2026-05-07,METAR,2026-05-07T18:15:26Z,24.4,75.9,-5,23.0,1,110,ESE,3,3.5,,,10+,10.0,,,,1017.4,1015.1,,,,,,VFR,METAR KLAS 071556Z 11003KT 10SM CLR 24/M05 A3004 RMK AO2 SLP151 T02441050
2026-05-07T14:56:00Z,2026-05-07,2026-05-07,METAR,2026-05-07T18:15:26Z,23.3,73.9,-5,23.0,1,0,CALM,0,0.0,,,10+,10.0,,,,1017.7,1015.3,,,,,,VFR,METAR KLAS 071456Z 00000KT 10SM CLR 23/M05 A3005 RMK AO2 SLP153 T02331050 51010
2026-05-07T13:56:00Z,2026-05-07,2026-05-07,METAR,2026-05-07T18:15:26Z,20,68.0,-2.8,27.0,1,200,SSW,4,4.6,,,10+,10.0,,,,1017.4,1015.3,,,,,,VFR,METAR KLAS 071356Z 20004KT 10SM CLR 20/M03 A3004 RMK AO2 SLP153 T02001028
2026-05-07T12:56:00Z,2026-05-07,2026-05-07,METAR,2026-05-07T18:15:26Z,18.9,66.0,-3.3,26.1,1,0,CALM,0,0.0,,,10+,10.0,,,,1016.7,1014.7,,,,,,VFR,METAR KLAS 071256Z 00000KT 10SM CLR 19/M03 A3002 RMK AO2 SLP147 T01891033
2026-05-07T20:56:00Z,2026-05-07,2026-05-07,METAR,2026-05-07T21:41:51Z,31.1,88.0,-5,23.0,1,VRB,VRB,5,5.8,,,10+,10.0,19,,FEW14000,1013.6,1011.2,,,,,,VFR,METAR KLAS 072056Z VRB05KT 10SM FEW140 31/M05 A2993 RMK AO2 SLP112 T03111050 58027
2026-05-07T19:56:00Z,2026-05-07,2026-05-07,METAR,2026-05-07T21:41:51Z,30,86.0,-6.1,21.0,1,160,SSE,4,4.6,,,10+,10.0,,,,1014.6,1012.2,,,,,,VFR,METAR KLAS 071956Z 16004KT 10SM CLR 30/M06 A2996 RMK AO2 SLP122 T03001061
2026-05-07T18:56:00Z,2026-05-07,2026-05-07,METAR,2026-05-07T21:41:51Z,29.4,84.9,-8.3,17.1,1,VRB,VRB,4,4.6,,,10+,10.0,,,,1016,1013.5,,,,,,VFR,METAR KLAS 071856Z VRB04KT 10SM CLR 29/M08 A3000 RMK AO2 SLP135 T02941083
2026-05-08T06:56:00Z,2026-05-08,2026-05-07,METAR,2026-05-08T07:00:47Z,27.2,81.0,-4.4,24.1,1,190,S,5,5.8,,,10+,10.0,,,,1011.3,1008.8,,,,,,VFR,METAR KLAS 080656Z 19005KT 10SM CLR 27/M04 A2986 RMK AO2 SLP088 T02721044
2026-05-08T05:56:00Z,2026-05-08,2026-05-07,METAR,2026-05-08T07:00:47Z,27.8,82.0,-4.4,24.1,1,180,S,4,4.6,,,10+,10.0,19,,FEW25000,1011.3,1008.7,,,,,,VFR,METAR KLAS 080556Z 18004KT 10SM FEW250 28/M04 A2986 RMK AO2 SLP087 T02781044 10333 20278 51007
2026-05-08T04:56:00Z,2026-05-08,2026-05-07,METAR,2026-05-08T07:00:47Z,28.9,84.0,-3.9,25.0,1,220,SW,6,6.9,,,10+,10.0,19,,FEW25000,1011.3,1008.6,,,,,,VFR,METAR KLAS 080456Z 22006KT 10SM FEW250 29/M04 A2986 RMK AO2 SLP086 T02891039
2026-05-08T03:56:00Z,2026-05-08,2026-05-07,METAR,2026-05-08T07:00:47Z,30.6,87.1,-3.9,25.0,1,220,SW,8,9.2,,,10+,10.0,19,,FEW25000,1010.9,1008.3,,,,,,VFR,METAR KLAS 080356Z 22008KT 10SM FEW250 31/M04 A2985 RMK AO2 SLP083 T03061039
2026-05-08T02:56:00Z,2026-05-08,2026-05-07,METAR,2026-05-08T07:00:47Z,31.7,89.1,-2.8,27.0,1,230,SW,6,6.9,,,10+,10.0,19,,FEW25000,1010.6,1007.9,,,,,,VFR,METAR KLAS 080256Z 23006KT 10SM FEW250 32/M03 A2984 RMK AO2 SLP079 T03171028 55003
2026-05-08T01:56:00Z,2026-05-08,2026-05-07,METAR,2026-05-08T07:00:47Z,32.8,91.0,-2.8,27.0,1,130,SE,3,3.5,,,10+,10.0,19,,FEW14000 FEW25000,1010.2,1007.7,,,,,,VFR,METAR KLAS 080156Z 13003KT 10SM FEW140 FEW250 33/M03 A2983 RMK AO2 SLP077 T03281028
2026-05-08T00:56:00Z,2026-05-08,2026-05-07,METAR,2026-05-08T07:00:47Z,32.8,91.0,-3.3,26.1,1,VRB,VRB,3,3.5,,,10+,10.0,19,,FEW14000 FEW25000,1010.2,1008,,,,,,VFR,METAR KLAS 080056Z VRB03KT 10SM FEW140 FEW250 33/M03 A2983 RMK AO2 SLP080 T03281033
2026-05-08T10:56:00Z,2026-05-08,2026-05-08,METAR,2026-05-08T10:58:52Z,23.3,73.9,-2.8,27.0,1,0,CALM,0,0.0,,,10+,10.0,,,,1011.6,1008.9,,,,,,VFR,METAR KLAS 081056Z 00000KT 10SM CLR 23/M03 A2987 RMK AO2 SLP089 T02331028
2026-05-08T09:56:00Z,2026-05-08,2026-05-08,METAR,2026-05-08T10:58:52Z,25.6,78.1,-3.3,26.1,1,220,SW,3,3.5,,,10+,10.0,19,,FEW25000,1011.3,1008.5,,,,,,VFR,METAR KLAS 080956Z 22003KT 10SM FEW250 26/M03 A2986 RMK AO2 SLP085 T02561033
2026-05-08T08:56:00Z,2026-05-08,2026-05-08,METAR,2026-05-08T10:58:52Z,25,77.0,-4.4,24.1,1,180,S,5,5.8,,,10+,10.0,,,,1011.3,1008.5,,,,,,VFR,METAR KLAS 080856Z 18005KT 10SM CLR 25/M04 A2986 RMK AO2 SLP085 T02501044 58002
2026-05-08T07:56:00Z,2026-05-08,2026-05-08,METAR,2026-05-08T10:58:52Z,26.7,80.1,-3.9,25.0,1,200,SSW,5,5.8,,,10+,10.0,,,,1011.3,1008.7,,,,,,VFR,METAR KLAS 080756Z 20005KT 10SM CLR 27/M04 A2986 RMK AO2 SLP087 T02671039 403330189
2026-05-08T15:56:00Z,2026-05-08,2026-05-08,METAR,2026-05-08T16:57:44Z,30,86.0,-0.6,30.9,1,VRB,VRB,3,3.5,,,10+,10.0,,,,1013.3,1010.3,,,,,,VFR,METAR KLAS 081556Z AUTO VRB03KT 10SM CLR 30/M01 A2992 RMK AO2 SLP103 T03001006
2026-05-08T14:56:00Z,2026-05-08,2026-05-08,METAR,2026-05-08T16:57:44Z,26.7,80.1,1.1,34.0,1,VRB,VRB,3,3.5,,,10+,10.0,,,,1013.3,1010.5,,,,,,VFR,METAR KLAS 081456Z AUTO VRB03KT 10SM CLR 27/01 A2992 RMK AO2 SLP105 T02670011 53016
2026-05-08T13:56:00Z,2026-05-08,2026-05-08,METAR,2026-05-08T16:57:44Z,24.4,75.9,-1.1,30.0,1,220,SW,4,4.6,,,10+,10.0,,,,1012.6,1010,,,,,,VFR,METAR KLAS 081356Z AUTO 22004KT 10SM CLR 24/M01 A2990 RMK AO2 SLP100 T02441011
2026-05-08T12:56:00Z,2026-05-08,2026-05-08,METAR,2026-05-08T16:57:44Z,22.8,73.0,-2.8,27.0,1,200,SSW,6,6.9,,,10+,10.0,,,,1011.9,1009.3,,,,,,VFR,METAR KLAS 081256Z 20006KT 10SM CLR 23/M03 A2988 RMK AO2 SLP093 T02281028
2026-05-08T11:56:00Z,2026-05-08,2026-05-08,METAR,2026-05-08T16:57:44Z,23.3,73.9,-2.8,27.0,1,200,SSW,6,6.9,,,10+,10.0,,,,1011.6,1009,,,,,,VFR,METAR KLAS 081156Z 20006KT 10SM CLR 23/M03 A2987 RMK AO2 SLP090 T02331028 10283 20228 51005
2026-05-08T20:56:00Z,2026-05-08,2026-05-08,METAR,2026-05-08T21:44:49Z,36.1,97.0,-3.3,26.1,1,170,S,5,5.8,16,18.4,10+,10.0,,,,1010.9,1008,,,,,,VFR,METAR KLAS 082056Z 17005G16KT 10SM CLR 36/M03 A2985 RMK AO2 SLP080 T03611033 58019
2026-05-08T19:56:00Z,2026-05-08,2026-05-08,METAR,2026-05-08T21:44:49Z,35,95.0,-3.3,26.1,1,300,WNW,5,5.8,,,10+,10.0,,,,1011.9,1008.8,,,,,,VFR,METAR KLAS 081956Z 30005KT 10SM CLR 35/M03 A2988 RMK AO2 SLP088 T03501033
2026-05-08T18:56:00Z,2026-05-08,2026-05-08,METAR,2026-05-08T21:44:49Z,34.4,93.9,-2.8,27.0,1,20,NNE,5,5.8,,,10+,10.0,,,,1012.6,1009.6,,,,,,VFR,METAR KLAS 081856Z 02005KT 10SM CLR 34/M03 A2990 RMK AO2 SLP096 T03441028
2026-05-08T17:56:00Z,2026-05-08,2026-05-08,METAR,2026-05-08T21:44:49Z,32.2,90.0,-2.2,28.0,1,0,CALM,0,0.0,,,10+,10.0,,,,1013,1010.1,,,,,,VFR,METAR KLAS 081756Z 00000KT 10SM CLR 32/M02 A2991 RMK AO2 SLP101 T03221022 10328 20228 58002
2026-05-08T16:56:00Z,2026-05-08,2026-05-08,METAR,2026-05-08T21:44:49Z,31.1,88.0,-1.7,28.9,1,0,CALM,0,0.0,,,10+,10.0,,,,1013.3,1010.5,,,,,,VFR,METAR KLAS 081656Z 00000KT 10SM CLR 31/M02 A2992 RMK AO2 SLP105 T03111017
2026-05-09T06:56:00Z,2026-05-09,2026-05-08,METAR,2026-05-09T07:26:34Z,29.4,84.9,-3.9,25.0,1,210,SSW,7,8.1,,,10+,10.0,,,,1009.9,1006.7,,,,,,VFR,METAR KLAS 090656Z 21007KT 10SM CLR 29/M04 A2982 RMK AO2 SLP067 T02941039
2026-05-09T05:56:00Z,2026-05-09,2026-05-08,METAR,2026-05-09T07:26:34Z,30.6,87.1,-3.3,26.1,1,240,WSW,7,8.1,,,10+,10.0,,,,1009.9,1006.6,,,,,,VFR,METAR KLAS 090556Z 24007KT 10SM CLR 31/M03 A2982 RMK AO2 SLP066 T03061033 10367 20306 51009
2026-05-09T04:56:00Z,2026-05-09,2026-05-08,METAR,2026-05-09T07:26:34Z,31.1,88.0,-3.9,25.0,1,230,SW,8,9.2,,,10+,10.0,,,,1009.6,1006.7,,,,,,VFR,METAR KLAS 090456Z 23008KT 10SM CLR 31/M04 A2981 RMK AO2 SLP067 T03111039
2026-05-09T03:56:00Z,2026-05-09,2026-05-08,METAR,2026-05-09T07:26:34Z,32.2,90.0,-5.6,21.9,1,210,SSW,7,8.1,,,10+,10.0,,,,1009.2,1006.3,,,,,,VFR,METAR KLAS 090356Z 21007KT 10SM CLR 32/M06 A2980 RMK AO2 SLP063 T03221056
2026-05-09T02:56:00Z,2026-05-09,2026-05-08,METAR,2026-05-09T07:26:34Z,34.4,93.9,-5.6,21.9,1,250,WSW,7,8.1,,,10+,10.0,19,,FEW25000,1008.9,1005.8,,,,,,VFR,METAR KLAS 090256Z 25007KT 10SM FEW250 34/M06 A2979 RMK AO2 SLP058 T03441056 53001
2026-05-09T01:56:00Z,2026-05-09,2026-05-08,METAR,2026-05-09T07:26:34Z,35.6,96.1,-4.4,24.1,1,240,WSW,9,10.4,,,10+,10.0,19,,FEW25000,1008.2,1005.4,,,,,,VFR,METAR KLAS 090156Z 24009KT 10SM FEW250 36/M04 A2977 RMK AO2 SLP054 T03561044
2026-05-09T00:56:00Z,2026-05-09,2026-05-08,METAR,2026-05-09T07:26:34Z,36.7,98.1,-4.4,24.1,1,240,WSW,12,13.8,,,10+,10.0,19,,FEW25000,1008.2,1005.4,,,,,,VFR,METAR KLAS 090056Z 24012KT 10SM FEW250 37/M04 A2977 RMK AO2 SLP054 T03671044
2026-05-09T09:56:00Z,2026-05-09,2026-05-09,METAR,2026-05-09T10:17:49Z,27.2,81.0,0,32.0,1,180,S,5,5.8,,,10+,10.0,,,,1010.2,1006.9,,,,,,VFR,METAR KLAS 090956Z 18005KT 10SM CLR 27/00 A2983 RMK AO2 SLP069 T02720000
2026-05-09T08:56:00Z,2026-05-09,2026-05-09,METAR,2026-05-09T10:17:49Z,27.8,82.0,-0.6,30.9,1,190,S,6,6.9,,,10+,10.0,,,,1010.2,1006.9,,,,,,VFR,METAR KLAS 090856Z 19006KT 10SM CLR 28/M01 A2983 RMK AO2 SLP069 T02781006 50003
2026-05-09T07:56:00Z,2026-05-09,2026-05-09,METAR,2026-05-09T10:17:49Z,28.3,82.9,-3.3,26.1,1,180,S,5,5.8,,,10+,10.0,,,,1010.2,1007.2,,,,,,VFR,METAR KLAS 090756Z 18005KT 10SM CLR 28/M03 A2983 RMK AO2 SLP072 T02831033 403780228
2026-05-09T14:56:00Z,2026-05-09,2026-05-09,METAR,2026-05-09T15:37:31Z,27.8,82.0,-5,23.0,1,350,N,4,4.6,,,10+,10.0,,,,1012.6,1009.6,,,,,,VFR,METAR KLAS 091456Z 35004KT 10SM CLR 28/M05 A2990 RMK AO2 SLP096 T02781050 51017
2026-05-09T13:56:00Z,2026-05-09,2026-05-09,METAR,2026-05-09T15:37:31Z,25.6,78.1,0,32.0,1,0,CALM,0,0.0,,,10+,10.0,,,,1011.9,1009.2,,,,,,VFR,METAR KLAS 091356Z 00000KT 10SM CLR 26/00 A2988 RMK AO2 SLP092 T02560000
2026-05-09T12:56:00Z,2026-05-09,2026-05-09,METAR,2026-05-09T15:37:31Z,23.9,75.0,-0.6,30.9,1,10,N,3,3.5,,,10+,10.0,,,,1011.3,1008.4,,,,,,VFR,METAR KLAS 091256Z 01003KT 10SM CLR 24/M01 A2986 RMK AO2 SLP084 T02391006
2026-05-09T11:56:00Z,2026-05-09,2026-05-09,METAR,2026-05-09T15:37:31Z,24.4,75.9,0,32.0,1,270,W,4,4.6,,,10+,10.0,,,,1010.6,1007.7,,,,,,VFR,METAR KLAS 091156Z 27004KT 10SM CLR 24/00 A2984 RMK AO2 SLP077 T02440000 10306 20244 53006
2026-05-09T10:56:00Z,2026-05-09,2026-05-09,METAR,2026-05-09T15:37:31Z,26.1,79.0,-0.6,30.9,1,190,S,7,8.1,,,10+,10.0,,,,1010.2,1007,,,,,,VFR,METAR KLAS 091056Z 19007KT 10SM CLR 26/M01 A2983 RMK AO2 SLP070 T02611006
2026-05-09T20:56:00Z,2026-05-09,2026-05-09,METAR,2026-05-09T21:06:26Z,36.1,97.0,-4.4,24.1,1,20,NNE,5,5.8,,,10+,10.0,19,,FEW12000,1010.9,1007.6,,,,,,VFR,METAR KLAS 092056Z 02005KT 10SM FEW120 36/M04 A2985 RMK AO2 SLP076 T03611044 58016
2026-05-09T19:56:00Z,2026-05-09,2026-05-09,METAR,2026-05-09T21:06:26Z,34.4,93.9,-3.9,25.0,1,0,CALM,0,0.0,,,10+,10.0,19,,FEW12000,1011.6,1008.3,,,,,,VFR,METAR KLAS 091956Z 00000KT 10SM FEW120 34/M04 A2987 RMK AO2 SLP083 T03441039
2026-05-09T18:56:00Z,2026-05-09,2026-05-09,METAR,2026-05-09T21:06:26Z,34.4,93.9,-4.4,24.1,1,100,E,6,6.9,,,10+,10.0,19,,FEW12000,1012.3,1009,,,,,,VFR,METAR KLAS 091856Z 10006KT 10SM FEW120 34/M04 A2989 RMK AO2 SLP090 T03441044
2026-05-09T17:56:00Z,2026-05-09,2026-05-09,METAR,2026-05-09T21:06:26Z,32.2,90.0,-5,23.0,1,170,S,4,4.6,,,10+,10.0,19,,FEW12000,1012.6,1009.5,,,,,,VFR,METAR KLAS 091756Z 17004KT 10SM FEW120 32/M05 A2990 RMK AO2 SLP095 T03221050 10328 20233 54000
2026-05-09T16:56:00Z,2026-05-09,2026-05-09,METAR,2026-05-09T21:06:26Z,31.7,89.1,-5,23.0,1,30,NNE,5,5.8,,,10+,10.0,19,,FEW12000,1012.6,1009.5,,,,,,VFR,METAR KLAS 091656Z 03005KT 10SM FEW120 32/M05 A2990 RMK AO2 SLP095 T03171050
2026-05-09T15:56:00Z,2026-05-09,2026-05-09,METAR,2026-05-09T21:06:26Z,30,86.0,-3.3,26.1,1,VRB,VRB,4,4.6,,,10+,10.0,,,,1012.6,1009.6,,,,,,VFR,METAR KLAS 091556Z VRB04KT 10SM CLR 30/M03 A2990 RMK AO2 SLP096 T03001033
2026-05-10T07:56:00Z,2026-05-10,2026-05-10,METAR,2026-05-10T08:24:28Z,29.4,84.9,-3.9,25.0,1,0,CALM,0,0.0,,,10+,10.0,,,,1010.9,1007.8,,,,,,VFR,METAR KLAS 100756Z 00000KT 10SM CLR 29/M04 A2985 RMK AO2 SLP078 T02941039 403720233
2026-05-10T06:56:00Z,2026-05-10,2026-05-09,METAR,2026-05-10T08:24:28Z,30.6,87.1,-4.4,24.1,1,0,CALM,0,0.0,,,10+,10.0,19,,FEW12000,1010.6,1007.5,,,,,,VFR,METAR KLAS 100656Z 00000KT 10SM FEW120 31/M04 A2984 RMK AO2 SLP075 T03061044
2026-05-10T05:56:00Z,2026-05-10,2026-05-09,METAR,2026-05-10T08:24:28Z,31.7,89.1,-5,23.0,1,190,S,3,3.5,,,10+,10.0,19,,FEW12000,1009.9,1006.7,,,,,,VFR,METAR KLAS 100556Z 19003KT 10SM FEW120 32/M05 A2982 RMK AO2 SLP067 T03171050 10372 20317 51015
2026-05-10T04:56:00Z,2026-05-10,2026-05-09,METAR,2026-05-10T08:24:28Z,32.2,90.0,-4.4,24.1,1,0,CALM,0,0.0,,,10+,10.0,19,,FEW12000,1009.6,1006.5,,,,,,VFR,METAR KLAS 100456Z 00000KT 10SM FEW120 32/M04 A2981 RMK AO2 SLP065 T03221044
2026-05-10T03:56:00Z,2026-05-10,2026-05-09,METAR,2026-05-10T08:24:28Z,33.9,93.0,-6.1,21.0,1,270,W,10,11.5,,,10+,10.0,19,,FEW12000,1009.2,1005.9,,,,,,VFR,METAR KLAS 100356Z 27010KT 10SM FEW120 34/M06 A2980 RMK AO2 SLP059 T03391061
2026-05-10T02:56:00Z,2026-05-10,2026-05-09,METAR,2026-05-10T08:24:28Z,35,95.0,-5,23.0,1,250,WSW,8,9.2,,,10+,10.0,19,,FEW12000 FEW25000,1008.2,1005.2,,,,,,VFR,METAR KLAS 100256Z 25008KT 10SM FEW120 FEW250 35/M05 A2977 RMK AO2 SLP052 T03501050 53001
2026-05-10T01:56:00Z,2026-05-10,2026-05-09,METAR,2026-05-10T08:24:28Z,36.1,97.0,-5,23.0,1,0,CALM,0,0.0,,,10+,10.0,19,,FEW12000,1007.9,1004.9,,,,,,VFR,METAR KLAS 100156Z 00000KT 10SM FEW120 36/M05 A2976 RMK AO2 SLP049 T03611050
2026-05-10T09:56:00Z,2026-05-10,2026-05-10,METAR,2026-05-10T10:47:46Z,28.3,82.9,-7.2,19.0,1,50,NE,8,9.2,,,10+,10.0,,,,1012.3,1009,,,,,,VFR,METAR KLAS 100956Z 05008KT 10SM CLR 28/M07 A2989 RMK AO2 SLP090 T02831072
2026-05-10T08:56:00Z,2026-05-10,2026-05-10,METAR,2026-05-10T10:47:46Z,28.3,82.9,-7.8,18.0,1,60,ENE,7,8.1,,,10+,10.0,,,,1011.3,1008.2,,,,,,VFR,METAR KLAS 100856Z 06007KT 10SM CLR 28/M08 A2986 RMK AO2 SLP082 T02831078 51013
2026-05-10T14:56:00Z,2026-05-10,2026-05-10,METAR,2026-05-10T15:39:07Z,27.2,81.0,-5.6,21.9,1,0,CALM,0,0.0,,,10+,10.0,19,,FEW25000,1015.7,1012.7,,,,,,VFR,METAR KLAS 101456Z 00000KT 10SM FEW250 27/M06 A2999 RMK AO2 SLP127 T02721056 53023
2026-05-10T13:56:00Z,2026-05-10,2026-05-10,METAR,2026-05-10T15:39:07Z,24.4,75.9,-4.4,24.1,1,210,SSW,5,5.8,,,10+,10.0,19,,FEW25000,1015,1012,,,,,,VFR,METAR KLAS 101356Z 21005KT 10SM FEW250 24/M04 A2997 RMK AO2 SLP120 T02441044
2026-05-10T12:56:00Z,2026-05-10,2026-05-10,METAR,2026-05-10T15:39:07Z,23.3,73.9,-6.1,21.0,1,220,SW,4,4.6,,,10+,10.0,,,,1014,1011,,,,,,VFR,METAR KLAS 101256Z 22004KT 10SM CLR 23/M06 A2994 RMK AO2 SLP110 T02331061
2026-05-10T11:56:00Z,2026-05-10,2026-05-10,METAR,2026-05-10T15:39:07Z,26.7,80.1,-6.7,19.9,1,120,ESE,3,3.5,,,10+,10.0,,,,1013.3,1010,,,,,,VFR,METAR KLAS 101156Z 12003KT 10SM CLR 27/M07 A2992 RMK AO2 SLP100 T02671067 10317 20267 51017
2026-05-10T10:56:00Z,2026-05-10,2026-05-10,METAR,2026-05-10T15:39:07Z,27.2,81.0,-6.7,19.9,1,60,ENE,5,5.8,,,10+,10.0,,,,1012.6,1009.5,,,,,,VFR,METAR KLAS 101056Z 06005KT 10SM CLR 27/M07 A2990 RMK AO2 SLP095 T02721067
2026-05-10T20:56:00Z,2026-05-10,2026-05-10,METAR,2026-05-10T21:10:47Z,35.6,96.1,-8.9,16.0,1,90,E,5,5.8,,,10+,10.0,19,,FEW25000,1014.3,1011.1,,,,,,VFR,METAR KLAS 102056Z 09005KT 10SM FEW250 36/M09 A2995 RMK AO2 SLP111 T03561089 58016
2026-05-10T19:56:00Z,2026-05-10,2026-05-10,METAR,2026-05-10T21:10:47Z,35,95.0,-9.4,15.1,1,VRB,VRB,3,3.5,,,10+,10.0,19,,FEW25000,1015,1011.7,,,,,,VFR,METAR KLAS 101956Z VRB03KT 10SM FEW250 35/M09 A2997 RMK AO2 SLP117 T03501094
2026-05-10T18:56:00Z,2026-05-10,2026-05-10,METAR,2026-05-10T21:10:47Z,33.9,93.0,-10,14.0,1,50,NE,7,8.1,15,17.3,10+,10.0,19,,FEW25000,1015.7,1012.4,,,,,,VFR,METAR KLAS 101856Z 05007G15KT 10SM FEW250 34/M10 A2999 RMK AO2 SLP124 T03391100
2026-05-10T18:01:00Z,2026-05-10,2026-05-10,SPECI,2026-05-10T21:10:47Z,32.8,91.0,-10,14.0,1,30,NNE,6,6.9,,,10+,10.0,,,,1016,,,,,,,VFR,SPECI KLAS 101801Z 03006KT 10SM CLR 33/M10 A3000 RMK AO2 T03281100
2026-05-10T17:56:00Z,2026-05-10,2026-05-10,METAR,2026-05-10T21:10:47Z,32.8,91.0,-10,14.0,1,40,NE,9,10.4,15,17.3,10+,10.0,,,,1016,1012.8,,,,,,VFR,METAR KLAS 101756Z 04009G15KT 010V090 10SM CLR 33/M10 A3000 RMK AO2 SLP128 T03281100 10333 20233 53003
2026-05-10T17:08:00Z,2026-05-10,2026-05-10,SPECI,2026-05-10T21:10:47Z,32.2,90.0,-10.6,12.9,1,30,NNE,11,12.7,,,10+,10.0,19,,FEW25000,1016,,,,,,,VFR,SPECI KLAS 101708Z 03011KT 10SM FEW250 32/M11 A3000 RMK AO2 T03221106
2026-05-10T16:56:00Z,2026-05-10,2026-05-10,METAR,2026-05-10T21:10:47Z,32.2,90.0,-10.6,12.9,1,60,ENE,13,15.0,20,23.0,10+,10.0,19,,FEW25000,1016,1012.8,,,,,,VFR,METAR KLAS 101656Z 06013G20KT 10SM FEW250 32/M11 A3000 RMK AO2 SLP128 T03221106
2026-05-10T15:56:00Z,2026-05-10,2026-05-10,METAR,2026-05-10T21:10:47Z,28.9,84.0,-6.1,21.0,1,350,N,5,5.8,,,10+,10.0,19,,FEW25000,1015.7,1012.6,,,,,,VFR,METAR KLAS 101556Z 35005KT 10SM FEW250 29/M06 A2999 RMK AO2 SLP126 T02891061
2026-05-11T11:56:00Z,2026-05-11,2026-05-11,METAR,2026-05-11T12:26:41Z,23.9,75.0,-5,23.0,1,0,CALM,0,0.0,,,10+,10.0,19,,FEW25000,1014,1011.2,,,,,,VFR,METAR KLAS 111156Z 00000KT 10SM FEW250 24/M05 A2994 RMK AO2 SLP112 T02391050 10300 20239 53005
2026-05-11T10:56:00Z,2026-05-11,2026-05-11,METAR,2026-05-11T12:26:41Z,25,77.0,-6.1,21.0,1,0,CALM,0,0.0,,,10+,10.0,,,,1013.6,1010.7,,,,,,VFR,METAR KLAS 111056Z 00000KT 10SM CLR 25/M06 A2993 RMK AO2 SLP107 T02501061
2026-05-11T09:56:00Z,2026-05-11,2026-05-11,METAR,2026-05-11T12:26:41Z,26.1,79.0,-5.6,21.9,1,0,CALM,0,0.0,,,10+,10.0,,,,1013.6,1010.6,,,,,,VFR,METAR KLAS 110956Z 00000KT 10SM CLR 26/M06 A2993 RMK AO2 SLP106 T02611056
2026-05-11T08:56:00Z,2026-05-11,2026-05-11,METAR,2026-05-11T12:26:41Z,26.7,80.1,-6.1,21.0,1,210,SSW,5,5.8,,,10+,10.0,,,,1013.6,1010.5,,,,,,VFR,METAR KLAS 110856Z 21005KT 10SM CLR 27/M06 A2993 RMK AO2 SLP105 T02671061 50005
2026-05-11T07:56:00Z,2026-05-11,2026-05-11,METAR,2026-05-11T12:26:41Z,27.8,82.0,-6.1,21.0,1,230,SW,7,8.1,,,10+,10.0,,,,1013.6,1010.5,,,,,,VFR,METAR KLAS 110756Z 23007KT 10SM CLR 28/M06 A2993 RMK AO2 SLP105 T02781061 403780233
2026-05-11T06:56:00Z,2026-05-11,2026-05-10,METAR,2026-05-11T12:26:41Z,28.9,84.0,-5,23.0,1,240,WSW,5,5.8,,,10+,10.0,,,,1013.3,1010.4,,,,,,VFR,METAR KLAS 110656Z COR 24005KT 10SM CLR 29/M05 A2992 RMK AO2 SLP104 T02891050
2026-05-11T05:56:00Z,2026-05-11,2026-05-10,METAR,2026-05-11T12:26:41Z,29.4,84.9,-2.2,28.0,1,290,WNW,5,5.8,,,10+,10.0,,,,1013,1010,,,,,,VFR,METAR KLAS 110556Z 29005KT 10SM CLR 29/M02 A2991 RMK AO2 SLP100 T02941022 10372 20294 51011
2026-05-11T15:56:00Z,2026-05-11,2026-05-11,METAR,2026-05-11T16:20:20Z,30,86.0,-5,23.0,1,90,E,4,4.6,,,10+,10.0,,,,1016.7,1013.6,,,,,,VFR,METAR KLAS 111556Z 09004KT 10SM CLR 30/M05 A3002 RMK AO2 SLP136 T03001050
2026-05-11T14:56:00Z,2026-05-11,2026-05-11,METAR,2026-05-11T16:20:20Z,27.8,82.0,-6.1,21.0,1,0,CALM,0,0.0,,,10+,10.0,,,,1016.3,1013.1,,,,,,VFR,METAR KLAS 111456Z 00000KT 10SM CLR 28/M06 A3001 RMK AO2 SLP131 T02781061 51020
2026-05-11T13:56:00Z,2026-05-11,2026-05-11,METAR,2026-05-11T16:20:20Z,26.1,79.0,-2.2,28.0,1,0,CALM,0,0.0,,,10+,10.0,19,,FEW25000,1016,1012.9,,,,,,VFR,METAR KLAS 111356Z 00000KT 10SM FEW250 26/M02 A3000 RMK AO2 SLP129 T02611022
2026-05-11T12:56:00Z,2026-05-11,2026-05-11,METAR,2026-05-11T16:20:20Z,24.4,75.9,-3.9,25.0,1,190,S,3,3.5,,,10+,10.0,19,,FEW25000,1015,1012.1,,,,,,VFR,METAR KLAS 111256Z 19003KT 10SM FEW250 24/M04 A2997 RMK AO2 SLP121 T02441039
2026-05-11T18:56:00Z,2026-05-11,2026-05-11,METAR,2026-05-11T19:16:58Z,35.6,96.1,-5,23.0,1,VRB,VRB,5,5.8,,,10+,10.0,,,,1016,1012.7,,,,,,VFR,METAR KLAS 111856Z VRB05KT 10SM CLR 36/M05 A3000 RMK AO2 SLP127 T03561050
2026-05-11T17:56:00Z,2026-05-11,2026-05-11,METAR,2026-05-11T19:16:58Z,33.9,93.0,-4.4,24.1,1,40,NE,3,3.5,,,10+,10.0,,,,1016.3,1013.5,,,,,,VFR,METAR KLAS 111756Z 04003KT 10SM CLR 34/M04 A3001 RMK AO2 SLP135 T03391044 10339 20233 50003
2026-05-11T16:56:00Z,2026-05-11,2026-05-11,METAR,2026-05-11T19:16:58Z,32.2,90.0,-5.6,21.9,1,40,NE,4,4.6,,,10+,10.0,,,,1016.7,1013.7,,,,,,VFR,METAR KLAS 111656Z 04004KT 10SM CLR 32/M06 A3002 RMK AO2 SLP137 T03221056
2026-05-11T21:56:00Z,2026-05-11,2026-05-11,METAR,2026-05-11T22:32:53Z,38.9,102.0,-7.2,19.0,1,210,SSW,8,9.2,,,10+,10.0,19,,FEW25000,1013,1009.8,,,,,,VFR,METAR KLAS 112156Z 21008KT 170V260 10SM FEW250 39/M07 A2991 RMK AO2 SLP098 T03891072
2026-05-11T20:56:00Z,2026-05-11,2026-05-11,METAR,2026-05-11T22:32:53Z,38.3,100.9,-5,23.0,1,70,ENE,8,9.2,,,10+,10.0,,,,1014,1010.9,,,,,,VFR,METAR KLAS 112056Z 07008KT 10SM CLR 38/M05 A2994 RMK AO2 SLP109 T03831050 58023
2026-05-11T19:56:00Z,2026-05-11,2026-05-11,METAR,2026-05-11T22:32:53Z,36.7,98.1,-5.6,21.9,1,20,NNE,4,4.6,,,10+,10.0,,,,1015,1011.9,,,,,,VFR,METAR KLAS 111956Z 02004KT 10SM CLR 37/M06 A2997 RMK AO2 SLP119 T03671056
2026-05-12T03:56:00Z,2026-05-12,2026-05-11,METAR,2026-05-12T04:48:25Z,34.4,93.9,-7.2,19.0,1,240,WSW,9,10.4,,,10+,10.0,19,,FEW25000,1013.3,1010,,,,,,VFR,METAR KLAS 120356Z 24009KT 10SM FEW250 34/M07 A2992 RMK AO2 SLP100 T03441072
2026-05-12T02:56:00Z,2026-05-12,2026-05-11,METAR,2026-05-12T04:48:25Z,36.1,97.0,-7.8,18.0,1,250,WSW,8,9.2,,,10+,10.0,19,,FEW25000,1012.6,1009.5,,,,,,VFR,METAR KLAS 120256Z 25008KT 10SM FEW250 36/M08 A2990 RMK AO2 SLP095 T03611078 53004
2026-05-12T01:56:00Z,2026-05-12,2026-05-11,METAR,2026-05-12T04:48:25Z,37.2,99.0,-8.3,17.1,1,260,W,11,12.7,19,21.9,10+,10.0,19,,FEW25000,1012.3,1009,,,,,,VFR,METAR KLAS 120156Z 26011G19KT 10SM FEW250 37/M08 A2989 RMK AO2 SLP090 T03721083
2026-05-12T00:56:00Z,2026-05-12,2026-05-11,METAR,2026-05-12T04:48:25Z,38.3,100.9,-8.3,17.1,1,240,WSW,12,13.8,,,10+,10.0,19,,FEW25000,1012.3,1009.1,,,,,,VFR,METAR KLAS 120056Z 24012KT 10SM FEW250 38/M08 A2989 RMK AO2 SLP091 T03831083
2026-05-11T23:56:00Z,2026-05-11,2026-05-11,METAR,2026-05-12T04:48:25Z,38.9,102.0,-9.4,15.1,1,250,WSW,12,13.8,26,29.9,10+,10.0,19,,FEW25000,1012.3,1009.2,,,,,,VFR,METAR KLAS 112356Z 25012G26KT 10SM FEW250 39/M09 A2989 RMK AO2 PK WND 26026/2352 SLP092 T03891094 10400 20333 56017
2026-05-11T22:56:00Z,2026-05-11,2026-05-11,METAR,2026-05-12T04:48:25Z,40,104.0,-10.6,12.9,1,210,SSW,14,16.1,24,27.6,10+,10.0,19,,FEW25000,1012.6,1009.3,,,,,,VFR,METAR KLAS 112256Z 21014G24KT 10SM FEW250 40/M11 A2990 RMK AO2 PK WND 20026/2208 SLP093 T04001106
2026-05-12T09:56:00Z,2026-05-12,2026-05-12,METAR,2026-05-12T10:16:17Z,27.8,82.0,-5.6,21.9,1,210,SSW,7,8.1,,,10+,10.0,,,,1013.6,1010.4,,,,,,VFR,METAR KLAS 120956Z 21007KT 10SM CLR 28/M06 A2993 RMK AO2 SLP104 T02781056
2026-05-12T08:56:00Z,2026-05-12,2026-05-12,METAR,2026-05-12T10:16:17Z,28.9,84.0,-6.1,21.0,1,190,S,7,8.1,,,10+,10.0,,,,1013.6,1010.5,,,,,,VFR,METAR KLAS 120856Z 19007KT 10SM CLR 29/M06 A2993 RMK AO2 SLP105 T02891061 58001
2026-05-12T07:56:00Z,2026-05-12,2026-05-12,METAR,2026-05-12T10:16:17Z,30.6,87.1,-6.1,21.0,1,190,S,6,6.9,,,10+,10.0,,,,1014,1010.7,,,,,,VFR,METAR KLAS 120756Z 19006KT 10SM CLR 31/M06 A2994 RMK AO2 SLP107 T03061061 404000233
2026-05-12T06:56:00Z,2026-05-12,2026-05-11,METAR,2026-05-12T10:16:17Z,31.1,88.0,-6.7,19.9,1,210,SSW,8,9.2,,,10+,10.0,,,,1014,1010.7,,,,,,VFR,METAR KLAS 120656Z 21008KT 10SM CLR 31/M07 A2994 RMK AO2 SLP107 T03111067
2026-05-12T05:56:00Z,2026-05-12,2026-05-11,METAR,2026-05-12T10:16:17Z,30.6,87.1,-6.7,19.9,1,220,SW,7,8.1,,,10+,10.0,,,,1014,1010.7,,,,,,VFR,METAR KLAS 120556Z 22007KT 10SM CLR 31/M07 A2994 RMK AO2 SLP107 T03061067 10389 20306 51011
2026-05-12T04:56:00Z,2026-05-12,2026-05-11,METAR,2026-05-12T10:16:17Z,32.8,91.0,-6.7,19.9,1,190,S,6,6.9,,,10+,10.0,19,,FEW25000,1014,1010.7,,,,,,VFR,METAR KLAS 120456Z 19006KT 10SM FEW250 33/M07 A2994 RMK AO2 SLP107 T03281067
2026-05-12T12:56:00Z,2026-05-12,2026-05-12,METAR,2026-05-12T13:23:14Z,25.6,78.1,-3.9,25.0,1,200,SSW,4,4.6,,,10+,10.0,,,,1014.3,1011,,,,,,VFR,METAR KLAS 121256Z 20004KT 10SM CLR 26/M04 A2995 RMK AO2 SLP110 T02561039
2026-05-12T11:56:00Z,2026-05-12,2026-05-12,METAR,2026-05-12T13:23:14Z,26.7,80.1,-4.4,24.1,1,0,CALM,0,0.0,,,10+,10.0,,,,1013.6,1010.5,,,,,,VFR,METAR KLAS 121156Z 00000KT 10SM CLR 27/M04 A2993 RMK AO2 SLP105 T02671044 10311 20261 55000
2026-05-12T10:56:00Z,2026-05-12,2026-05-12,METAR,2026-05-12T13:23:14Z,27.2,81.0,-5.6,21.9,1,0,CALM,0,0.0,,,10+,10.0,,,,1013.6,1010.4,,,,,,VFR,METAR KLAS 121056Z 00000KT 10SM CLR 27/M06 A2993 RMK AO2 SLP104 T02721056
2026-05-12T18:56:00Z,2026-05-12,2026-05-12,METAR,2026-05-12T19:20:29Z,36.1,97.0,-5.6,21.9,1,VRB,VRB,4,4.6,,,10+,10.0,19,,FEW12000 FEW25000,1015,1011.8,,,,,,VFR,METAR KLAS 121856Z VRB04KT 10SM FEW120 FEW250 36/M06 A2997 RMK AO2 SLP118 T03611056
2026-05-12T17:56:00Z,2026-05-12,2026-05-12,METAR,2026-05-12T19:20:29Z,34.4,93.9,-6.1,21.0,1,330,NNW,3,3.5,,,10+,10.0,19,,FEW12000 FEW25000,1015.7,1012.5,,,,,,VFR,METAR KLAS 121756Z 33003KT 10SM FEW120 FEW250 34/M06 A2999 RMK AO2 SLP125 T03441061 10350 20244 50000
2026-05-12T16:56:00Z,2026-05-12,2026-05-12,METAR,2026-05-12T19:20:29Z,32.8,91.0,-5.6,21.9,1,VRB,VRB,6,6.9,,,10+,10.0,19,,FEW25000,1015.7,1012.6,,,,,,VFR,METAR KLAS 121656Z VRB06KT 10SM FEW250 33/M06 A2999 RMK AO2 SLP126 T03281056
2026-05-12T15:56:00Z,2026-05-12,2026-05-12,METAR,2026-05-12T19:20:29Z,31.7,89.1,-5,23.0,1,70,ENE,4,4.6,,,10+,10.0,,,,1016,1012.6,,,,,,VFR,METAR KLAS 121556Z 07004KT 10SM CLR 32/M05 A3000 RMK AO2 SLP126 T03171050
2026-05-12T14:56:00Z,2026-05-12,2026-05-12,METAR,2026-05-12T19:20:29Z,28.3,82.9,-1.7,28.9,1,30,NNE,7,8.1,,,10+,10.0,,,,1015.7,1012.5,,,,,,VFR,METAR KLAS 121456Z 03007KT 10SM CLR 28/M02 A2999 RMK AO2 SLP125 T02831017 53018
2026-05-12T13:56:00Z,2026-05-12,2026-05-12,METAR,2026-05-12T19:20:29Z,26.7,80.1,-3.9,25.0,1,250,WSW,4,4.6,,,10+,10.0,,,,1015,1012,,,,,,VFR,METAR KLAS 121356Z 25004KT 10SM CLR 27/M04 A2997 RMK AO2 SLP120 T02671039
2026-05-12T21:56:00Z,2026-05-12,2026-05-12,METAR,2026-05-12T22:42:56Z,39.4,102.9,-5.6,21.9,1,140,SE,8,9.2,15,17.3,10+,10.0,19,,FEW12000 FEW25000,1012.3,1008.9,,,,,,VFR,METAR KLAS 122156Z 14008G15KT 10SM FEW120 FEW250 39/M06 A2989 RMK AO2 SLP089 T03941056
2026-05-12T20:56:00Z,2026-05-12,2026-05-12,METAR,2026-05-12T22:42:56Z,38.3,100.9,-6.1,21.0,1,320,NW,6,6.9,,,10+,10.0,19,,FEW12000 FEW25000,1013,1009.8,,,,,,VFR,METAR KLAS 122056Z 32006KT 10SM FEW120 FEW250 38/M06 A2991 RMK AO2 SLP098 T03831061 58024
2026-05-12T20:04:00Z,2026-05-12,2026-05-12,SPECI,2026-05-12T22:42:56Z,37.2,99.0,-5.6,21.9,1,VRB,VRB,3,3.5,,,10+,10.0,19,,FEW12000 FEW25000,1014,,,,,,,VFR,SPECI KLAS 122004Z COR VRB03KT 10SM FEW120 FEW250 37/M06 A2994 RMK AO2 T03721056
2026-05-12T19:56:00Z,2026-05-12,2026-05-12,METAR,2026-05-12T22:42:56Z,38.3,100.9,-5.6,21.9,1,70,ENE,7,8.1,14,16.1,10+,10.0,19,,FEW12000 FEW25000,1014.3,1010.8,,,,,,VFR,METAR KLAS 121956Z 07007G14KT 10SM FEW120 FEW250 38/M06 A2995 RMK AO2 SLP108 T03831056
2026-05-13T09:56:00Z,2026-05-13,2026-05-13,METAR,2026-05-13T10:07:43Z,27.2,81.0,-6.7,19.9,1,200,SSW,3,3.5,,,10+,10.0,75,25000,FEW18000 BKN25000,1013,1009.6,,,,,,VFR,METAR KLAS 130956Z 20003KT 10SM FEW180 BKN250 27/M07 A2991 RMK AO2 SLP096 T02721067
2026-05-13T08:56:00Z,2026-05-13,2026-05-13,METAR,2026-05-13T10:07:43Z,30,86.0,-7.2,19.0,1,200,SSW,3,3.5,,,10+,10.0,44,,SCT18000,1013.3,1009.8,,,,,,VFR,METAR KLAS 130856Z 20003KT 10SM SCT180 30/M07 A2992 RMK AO2 SLP098 T03001072 51005
2026-05-13T07:56:00Z,2026-05-13,2026-05-13,METAR,2026-05-13T10:07:43Z,30.6,87.1,-4.4,24.1,1,190,S,5,5.8,,,10+,10.0,44,,SCT18000,1013.3,1009.8,,,,,,VFR,METAR KLAS 130756Z 19005KT 10SM SCT180 31/M04 A2992 RMK AO2 SLP098 T03061044 404000244
2026-05-13T06:56:00Z,2026-05-13,2026-05-12,METAR,2026-05-13T10:07:43Z,31.7,89.1,-2.2,28.0,1,190,S,5,5.8,,,10+,10.0,44,,FEW12000 SCT18000,1013,1009.8,,,,,,VFR,METAR KLAS 130656Z 19005KT 10SM FEW120 SCT180 32/M02 A2991 RMK AO2 SLP098 T03171022
2026-05-13T05:56:00Z,2026-05-13,2026-05-12,METAR,2026-05-13T10:07:43Z,32.8,91.0,-1.1,30.0,1,190,S,4,4.6,,,10+,10.0,44,,FEW12000 SCT22000,1012.6,1009.4,,,,,,VFR,METAR KLAS 130556Z 19004KT 10SM FEW120 SCT220 33/M01 A2990 RMK AO2 SLP094 T03281011 10400 20328 51012
2026-05-13T04:56:00Z,2026-05-13,2026-05-12,METAR,2026-05-13T10:07:43Z,33.9,93.0,-0.6,30.9,1,170,S,6,6.9,,,10+,10.0,44,,FEW12000 SCT22000,1012.3,1009.1,,,,,,VFR,METAR KLAS 130456Z COR 17006KT 10SM FEW120 SCT220 34/M01 A2989 RMK AO2 SLP091 T03391006
2026-05-13T03:56:00Z,2026-05-13,2026-05-12,METAR,2026-05-13T10:07:43Z,35.6,96.1,-0.6,30.9,1,190,S,10,11.5,17,19.6,10+,10.0,44,,SCT12000 SCT22000,1011.9,1008.7,,,,,,VFR,METAR KLAS 130356Z 19010G17KT 10SM SCT120 SCT220 36/M01 A2988 RMK AO2 SLP087 T03561006
2026-05-13T15:56:00Z,2026-05-13,2026-05-13,METAR,2026-05-13T16:08:41Z,29.4,84.9,-4.4,24.1,1,190,S,8,9.2,,,10+,10.0,75,25000,BKN25000,1014.3,1011.3,,,,,,VFR,METAR KLAS 131556Z 19008KT 10SM BKN250 29/M04 A2995 RMK AO2 SLP113 T02941044
2026-05-13T14:56:00Z,2026-05-13,2026-05-13,METAR,2026-05-13T16:08:41Z,28.9,84.0,-3.3,26.1,1,190,S,7,8.1,,,10+,10.0,75,25000,FEW16000 BKN25000,1014.3,1011.1,,,,,,VFR,METAR KLAS 131456Z 19007KT 10SM FEW160 BKN250 29/M03 A2995 RMK AO2 SLP111 T02891033 53010
2026-05-13T13:56:00Z,2026-05-13,2026-05-13,METAR,2026-05-13T16:08:41Z,25.6,78.1,-2.8,27.0,1,210,SSW,6,6.9,,,10+,10.0,75,25000,SCT16000 BKN25000,1013.6,1010.7,,,,,,VFR,METAR KLAS 131356Z 21006KT 10SM SCT160 BKN250 26/M03 A2993 RMK AO2 SLP107 T02561028
2026-05-13T12:56:00Z,2026-05-13,2026-05-13,METAR,2026-05-13T16:08:41Z,25,77.0,-4.4,24.1,1,180,S,6,6.9,,,10+,10.0,75,25000,FEW16000 BKN25000,1013.3,1010.2,,,,,,VFR,METAR KLAS 131256Z 18006KT 10SM FEW160 BKN250 25/M04 A2992 RMK AO2 SLP102 T02501044
2026-05-13T11:56:00Z,2026-05-13,2026-05-13,METAR,2026-05-13T16:08:41Z,26.1,79.0,-5.6,21.9,1,160,SSE,5,5.8,,,10+,10.0,75,25000,BKN25000,1013.3,1010,,,,,,VFR,METAR KLAS 131156Z 16005KT 10SM BKN250 26/M06 A2992 RMK AO2 SLP100 T02611056 10322 20261 53001
2026-05-13T10:56:00Z,2026-05-13,2026-05-13,METAR,2026-05-13T16:08:41Z,26.7,80.1,-6.7,19.9,1,220,SW,5,5.8,,,10+,10.0,75,25000,BKN25000,1013.3,1009.9,,,,,,VFR,METAR KLAS 131056Z 22005KT 10SM BKN250 27/M07 A2992 RMK AO2 SLP099 T02671067
2026-05-13T18:56:00Z,2026-05-13,2026-05-13,METAR,2026-05-13T19:22:23Z,33.3,91.9,-1.7,28.9,1,200,SSW,8,9.2,20,23.0,10+,10.0,19,,FEW25000,1013.6,1010.3,,,,,,VFR,METAR KLAS 131856Z 20008G20KT 10SM FEW250 33/M02 A2993 RMK AO2 PK WND 23026/1811 SLP103 T03331017
2026-05-13T17:56:00Z,2026-05-13,2026-05-13,METAR,2026-05-13T19:22:23Z,32.2,90.0,-1.7,28.9,1,220,SW,13,15.0,23,26.5,10+,10.0,19,,FEW25000,1014.3,1011,,,,,,VFR,METAR KLAS 131756Z 22013G23KT 10SM FEW250 32/M02 A2995 RMK AO2 SLP110 T03221017 10322 20244 58001
2026-05-13T16:56:00Z,2026-05-13,2026-05-13,METAR,2026-05-13T19:22:23Z,31.7,89.1,-1.1,30.0,1,180,S,8,9.2,16,18.4,10+,10.0,19,,FEW25000,1014.3,1011.1,,,,,,VFR,METAR KLAS 131656Z 18008G16KT 10SM FEW250 32/M01 A2995 RMK AO2 SLP111 T03171011
2026-05-13T21:56:00Z,2026-05-13,2026-05-13,METAR,2026-05-13T22:48:17Z,34.4,93.9,-1.1,30.0,1,210,SSW,8,9.2,18,20.7,10+,10.0,19,,FEW12000 FEW25000,1011.3,1008.1,,,,,,VFR,METAR KLAS 132156Z 21008G18KT 140V260 10SM FEW120 FEW250 34/M01 A2986 RMK AO2 SLP081 T03441011
2026-05-13T20:56:00Z,2026-05-13,2026-05-13,METAR,2026-05-13T22:48:17Z,34.4,93.9,-1.1,30.0,1,260,W,8,9.2,18,20.7,10+,10.0,19,,FEW25000,1011.9,1008.7,,,,,,VFR,METAR KLAS 132056Z 26008G18KT 10SM FEW250 34/M01 A2988 RMK AO2 SLP087 T03441011 58022
2026-05-13T19:56:00Z,2026-05-13,2026-05-13,METAR,2026-05-13T22:48:17Z,34.4,93.9,-1.1,30.0,1,190,S,10,11.5,17,19.6,10+,10.0,19,,FEW12000 FEW25000,1012.6,1009.4,,,,,,VFR,METAR KLAS 131956Z 19010G17KT 10SM FEW120 FEW250 34/M01 A2990 RMK AO2 SLP094 T03441011
2026-05-14T08:56:00Z,2026-05-14,2026-05-14,METAR,2026-05-14T09:42:20Z,26.7,80.1,-0.6,30.9,1,190,S,9,10.4,,,10+,10.0,,,,1011.3,1008.3,,,,,,VFR,METAR KLAS 140856Z 19009KT 10SM CLR 27/M01 A2986 RMK AO2 SLP083 T02671006 51003
2026-05-14T07:56:00Z,2026-05-14,2026-05-14,METAR,2026-05-14T09:42:20Z,27.2,81.0,-0.6,30.9,1,210,SSW,12,13.8,23,26.5,10+,10.0,,,,1011.3,1008.1,,,,,,VFR,METAR KLAS 140756Z 21012G23KT 10SM CLR 27/M01 A2986 RMK AO2 SLP081 T02721006 403500244
2026-05-14T06:56:00Z,2026-05-14,2026-05-13,METAR,2026-05-14T09:42:20Z,28.3,82.9,-0.6,30.9,1,200,SSW,10,11.5,17,19.6,10+,10.0,19,,FEW25000,1011.3,1008.1,,,,,,VFR,METAR KLAS 140656Z 20010G17KT 10SM FEW250 28/M01 A2986 RMK AO2 SLP081 T02831006
2026-05-14T05:56:00Z,2026-05-14,2026-05-13,METAR,2026-05-14T09:42:20Z,28.9,84.0,-2.2,28.0,1,210,SSW,9,10.4,,,10+,10.0,19,,FEW25000,1010.9,1007.9,,,,,,VFR,METAR KLAS 140556Z 21009KT 10SM FEW250 29/M02 A2985 RMK AO2 SLP079 T02891022 10344 20289 50007
2026-05-14T04:56:00Z,2026-05-14,2026-05-13,METAR,2026-05-14T09:42:20Z,29.4,84.9,-3.3,26.1,1,210,SSW,8,9.2,,,10+,10.0,19,,FEW25000,1010.9,1008,,,,,,VFR,METAR KLAS 140456Z 21008KT 10SM FEW250 29/M03 A2985 RMK AO2 SLP080 T02941033
2026-05-14T03:56:00Z,2026-05-14,2026-05-13,METAR,2026-05-14T09:42:20Z,30.6,87.1,-3.9,25.0,1,220,SW,12,13.8,,,10+,10.0,19,,FEW25000,1010.6,1007.6,,,,,,VFR,METAR KLAS 140356Z 22012KT 10SM FEW250 31/M04 A2984 RMK AO2 SLP076 T03061039
2026-05-14T02:56:00Z,2026-05-14,2026-05-13,METAR,2026-05-14T09:42:20Z,31.7,89.1,-1.7,28.9,1,220,SW,8,9.2,,,10+,10.0,19,,FEW25000,1010.2,1007.2,,,,,,VFR,METAR KLAS 140256Z 22008KT 10SM FEW250 32/M02 A2983 RMK AO2 SLP072 T03171017 55003
2026-05-14T11:56:00Z,2026-05-14,2026-05-14,METAR,2026-05-14T12:19:18Z,23.3,73.9,0.6,33.1,1,190,S,7,8.1,,,10+,10.0,,,,1011.9,1009.1,,,,,,VFR,METAR KLAS 141156Z 19007KT 10SM CLR 23/01 A2988 RMK AO2 SLP091 T02330006 10289 20233 53006
2026-05-14T10:56:00Z,2026-05-14,2026-05-14,METAR,2026-05-14T12:19:18Z,23.9,75.0,0,32.0,1,180,S,7,8.1,,,10+,10.0,,,,1011.6,1008.8,,,,,,VFR,METAR KLAS 141056Z 18007KT 10SM CLR 24/00 A2987 RMK AO2 SLP088 T02390000
2026-05-14T09:56:00Z,2026-05-14,2026-05-14,METAR,2026-05-14T12:19:18Z,25,77.0,0,32.0,1,180,S,8,9.2,,,10+,10.0,,,,1011.3,1008.3,,,,,,VFR,METAR KLAS 140956Z 18008KT 10SM CLR 25/00 A2986 RMK AO2 SLP083 T02500000
2026-05-14T18:56:00Z,2026-05-14,2026-05-14,METAR,2026-05-14T19:22:09Z,31.1,88.0,-0.6,30.9,1,VRB,VRB,4,4.6,,,10+,10.0,19,,FEW12000,1013.3,1010.5,,,,,,VFR,METAR KLAS 141856Z VRB04KT 10SM FEW120 31/M01 A2992 RMK AO2 SLP105 T03111006
2026-05-14T17:56:00Z,2026-05-14,2026-05-14,METAR,2026-05-14T19:22:09Z,30,86.0,0,32.0,1,350,N,5,5.8,,,10+,10.0,,,,1014,1011.1,,,,,,VFR,METAR KLAS 141756Z 35005KT 10SM CLR 30/00 A2994 RMK AO2 SLP111 T03000000 10306 20228 50000
2026-05-14T16:56:00Z,2026-05-14,2026-05-14,METAR,2026-05-14T19:22:09Z,28.3,82.9,0,32.0,1,VRB,VRB,3,3.5,,,10+,10.0,,,,1014,1011.3,,,,,,VFR,METAR KLAS 141656Z VRB03KT 10SM CLR 28/00 A2994 RMK AO2 SLP113 T02830000
2026-05-14T15:56:00Z,2026-05-14,2026-05-14,METAR,2026-05-14T19:22:09Z,26.7,80.1,0.6,33.1,1,VRB,VRB,3,3.5,,,10+,10.0,,,,1014.3,1011.5,,,,,,VFR,METAR KLAS 141556Z VRB03KT 10SM CLR 27/01 A2995 RMK AO2 SLP115 T02670006
2026-05-14T14:56:00Z,2026-05-14,2026-05-14,METAR,2026-05-14T19:22:09Z,25.6,78.1,0,32.0,1,310,NW,5,5.8,,,10+,10.0,,,,1014,1011.1,,,,,,VFR,METAR KLAS 141456Z 31005KT 10SM CLR 26/00 A2994 RMK AO2 SLP111 T02560000 53019
2026-05-14T13:56:00Z,2026-05-14,2026-05-14,METAR,2026-05-14T19:22:09Z,23.9,75.0,-0.6,30.9,1,220,SW,4,4.6,,,10+,10.0,,,,1013.3,1010.5,,,,,,VFR,METAR KLAS 141356Z 22004KT 10SM CLR 24/M01 A2992 RMK AO2 SLP105 T02391006
2026-05-14T12:56:00Z,2026-05-14,2026-05-14,METAR,2026-05-14T19:22:09Z,22.8,73.0,0.6,33.1,1,220,SW,8,9.2,,,10+,10.0,19,,FEW25000,1012.3,1009.7,,,,,,VFR,METAR KLAS 141256Z 22008KT 10SM FEW250 23/01 A2989 RMK AO2 SLP097 T02280006
2026-05-14T21:56:00Z,2026-05-14,2026-05-14,METAR,2026-05-14T22:37:56Z,34.4,93.9,-1.7,28.9,1,110,ESE,4,4.6,,,10+,10.0,19,,FEW12000,1010.9,1007.9,,,,,,VFR,METAR KLAS 142156Z 11004KT 10SM FEW120 34/M02 A2985 RMK AO2 SLP079 T03441017
2026-05-14T20:56:00Z,2026-05-14,2026-05-14,METAR,2026-05-14T22:37:56Z,33.3,91.9,-1.7,28.9,1,110,ESE,4,4.6,,,10+,10.0,19,,FEW12000,1011.9,1008.9,,,,,,VFR,METAR KLAS 142056Z 11004KT 10SM FEW120 33/M02 A2988 RMK AO2 SLP089 T03331017 58019
2026-05-14T19:56:00Z,2026-05-14,2026-05-14,METAR,2026-05-14T22:37:56Z,32.8,91.0,-2.2,28.0,1,VRB,VRB,3,3.5,,,10+,10.0,19,,FEW12000,1012.6,1009.7,,,,,,VFR,METAR KLAS 141956Z VRB03KT 10SM FEW120 33/M02 A2990 RMK AO2 SLP097 T03281022
2026-05-15T09:56:00Z,2026-05-15,2026-05-15,METAR,2026-05-15T10:04:37Z,26.7,80.1,-1.1,30.0,1,190,S,5,5.8,,,10+,10.0,,,,1009.2,1006.2,,,,,,VFR,METAR KLAS 150956Z 19005KT 10SM CLR 27/M01 A2980 RMK AO2 SLP062 T02671011
2026-05-15T08:56:00Z,2026-05-15,2026-05-15,METAR,2026-05-15T10:04:37Z,27.2,81.0,-2.8,27.0,1,190,S,7,8.1,,,10+,10.0,,,,1009.2,1006.4,,,,,,VFR,METAR KLAS 150856Z 19007KT 10SM CLR 27/M03 A2980 RMK AO2 SLP064 T02721028 58005
2026-05-15T07:56:00Z,2026-05-15,2026-05-15,METAR,2026-05-15T10:04:37Z,28.9,84.0,-3.3,26.1,1,200,SSW,5,5.8,,,10+,10.0,,,,1009.6,1006.6,,,,,,VFR,METAR KLAS 150756Z 20005KT 10SM CLR 29/M03 A2981 RMK AO2 SLP066 T02891033 403500228
2026-05-15T06:56:00Z,2026-05-15,2026-05-14,METAR,2026-05-15T10:04:37Z,29.4,84.9,-3.3,26.1,1,200,SSW,5,5.8,,,10+,10.0,,,,1009.9,1006.8,,,,,,VFR,METAR KLAS 150656Z 20005KT 10SM CLR 29/M03 A2982 RMK AO2 SLP068 T02941033
2026-05-15T05:56:00Z,2026-05-15,2026-05-14,METAR,2026-05-15T10:04:37Z,30.6,87.1,-3.3,26.1,1,200,SSW,7,8.1,,,10+,10.0,,,,1009.9,1006.9,,,,,,VFR,METAR KLAS 150556Z 20007KT 10SM CLR 31/M03 A2982 RMK AO2 SLP069 T03061033 10350 20306 51010
2026-05-15T04:56:00Z,2026-05-15,2026-05-14,METAR,2026-05-15T10:04:37Z,31.1,88.0,-2.2,28.0,1,180,S,7,8.1,,,10+,10.0,,,,1009.9,1006.9,,,,,,VFR,METAR KLAS 150456Z 18007KT 160V220 10SM CLR 31/M02 A2982 RMK AO2 SLP069 T03111022
2026-05-15T03:56:00Z,2026-05-15,2026-05-14,METAR,2026-05-15T10:04:37Z,32.2,90.0,-2.8,27.0,1,170,S,8,9.2,,,10+,10.0,,,,1009.2,1006.4,,,,,,VFR,METAR KLAS 150356Z 17008KT 10SM CLR 32/M03 A2980 RMK AO2 SLP064 T03221028
2026-05-15T11:56:00Z,2026-05-15,2026-05-15,METAR,2026-05-15T12:27:11Z,24.4,75.9,-1.1,30.0,1,200,SSW,3,3.5,,,10+,10.0,,,,1009.2,1006.4,,,,,,VFR,METAR KLAS 151156Z 20003KT 10SM CLR 24/M01 A2980 RMK AO2 SLP064 T02441011 10306 20244 53001
2026-05-15T10:56:00Z,2026-05-15,2026-05-15,METAR,2026-05-15T12:27:11Z,26.1,79.0,-0.6,30.9,1,230,SW,6,6.9,,,10+,10.0,,,,1009.2,1006.3,,,,,,VFR,METAR KLAS 151056Z 23006KT 10SM CLR 26/M01 A2980 RMK AO2 SLP063 T02611006
2026-05-15T17:56:00Z,2026-05-15,2026-05-15,METAR,2026-05-15T18:12:48Z,32.2,90.0,2.2,36.0,1,90,E,3,3.5,,,10+,10.0,19,,FEW12000,1010.2,1007.2,,,,,,VFR,METAR KLAS 151756Z 09003KT 10SM FEW120 32/02 A2983 RMK AO2 SLP072 T03220022 10328 20239 58003
2026-05-15T16:56:00Z,2026-05-15,2026-05-15,METAR,2026-05-15T18:12:48Z,30.6,87.1,2.2,36.0,1,50,NE,4,4.6,,,10+,10.0,,,,1010.6,1007.5,,,,,,VFR,METAR KLAS 151656Z 05004KT 10SM CLR 31/02 A2984 RMK AO2 SLP075 T03060022
2026-05-15T15:56:00Z,2026-05-15,2026-05-15,METAR,2026-05-15T18:12:48Z,28.9,84.0,2.8,37.0,1,0,CALM,0,0.0,,,10+,10.0,,,,1010.9,1007.9,,,,,,VFR,METAR KLAS 151556Z 00000KT 10SM CLR 29/03 A2985 RMK AO2 SLP079 T02890028
2026-05-15T14:56:00Z,2026-05-15,2026-05-15,METAR,2026-05-15T18:12:48Z,27.2,81.0,2.8,37.0,1,0,CALM,0,0.0,,,10+,10.0,,,,1010.6,1007.7,,,,,,VFR,METAR KLAS 151456Z 00000KT 10SM CLR 27/03 A2984 RMK AO2 SLP077 T02720028 52012
2026-05-15T13:56:00Z,2026-05-15,2026-05-15,METAR,2026-05-15T18:12:48Z,25.6,78.1,3.3,37.9,1,0,CALM,0,0.0,,,10+,10.0,,,,1010.2,1007.3,,,,,,VFR,METAR KLAS 151356Z 00000KT 10SM CLR 26/03 A2983 RMK AO2 SLP073 T02560033
2026-05-15T12:56:00Z,2026-05-15,2026-05-15,METAR,2026-05-15T18:12:48Z,23.9,75.0,1.1,34.0,1,180,S,3,3.5,,,10+,10.0,,,,1009.6,1006.9,,,,,,VFR,METAR KLAS 151256Z 18003KT 10SM CLR 24/01 A2981 RMK AO2 SLP069 T02390011
2026-05-15T20:56:00Z,2026-05-15,2026-05-15,METAR,2026-05-15T21:43:38Z,36.1,97.0,-2.2,28.0,1,190,S,10,11.5,20,23.0,10+,10.0,19,,FEW12000,1008.2,1004.9,,,,,,VFR,METAR KLAS 152056Z 19010G20KT 10SM FEW120 36/M02 A2977 RMK AO2 SLP049 T03611022 58021
2026-05-15T19:56:00Z,2026-05-15,2026-05-15,METAR,2026-05-15T21:43:38Z,36.1,97.0,-2.2,28.0,1,170,S,6,6.9,15,17.3,10+,10.0,19,,FEW12000,1008.9,1005.6,,,,,,VFR,METAR KLAS 151956Z 17006G15KT 10SM FEW120 36/M02 A2979 RMK AO2 SLP056 T03611022
2026-05-15T18:56:00Z,2026-05-15,2026-05-15,METAR,2026-05-15T21:43:38Z,34.4,93.9,0.6,33.1,1,VRB,VRB,6,6.9,,,10+,10.0,19,,FEW12000,1009.6,1006.5,,,,,,VFR,METAR KLAS 151856Z VRB06KT 10SM FEW120 34/01 A2981 RMK AO2 SLP065 T03440006
2026-05-16T06:56:00Z,2026-05-16,2026-05-15,METAR,2026-05-16T07:33:39Z,28.9,84.0,-1.1,30.0,1,200,SSW,15,17.3,23,26.5,10+,10.0,,,,1006.2,1003.1,,,,,,VFR,METAR KLAS 160656Z 20015G23KT 10SM CLR 29/M01 A2971 RMK AO2 PK WND 22029/0619 SLP031 T02891011
2026-05-16T05:56:00Z,2026-05-16,2026-05-15,METAR,2026-05-16T07:33:39Z,30.6,87.1,-2.8,27.0,1,210,SSW,13,15.0,20,23.0,10+,10.0,,,,1006.5,1003.2,,,,,,VFR,METAR KLAS 160556Z 21013G20KT 10SM CLR 31/M03 A2972 RMK AO2 SLP032 T03061028 10372 20306 51010
2026-05-16T04:56:00Z,2026-05-16,2026-05-15,METAR,2026-05-16T07:33:39Z,31.7,89.1,-3.9,25.0,1,190,S,6,6.9,,,10+,10.0,19,,FEW20000,1006.2,1003.2,,,,,,VFR,METAR KLAS 160456Z 19006KT 10SM FEW200 32/M04 A2971 RMK AO2 SLP032 T03171039
2026-05-16T03:56:00Z,2026-05-16,2026-05-15,METAR,2026-05-16T07:33:39Z,32.8,91.0,-4.4,24.1,1,200,SSW,6,6.9,,,10+,10.0,19,,FEW12000,1005.8,1002.7,,,,,,VFR,METAR KLAS 160356Z 20006KT 10SM FEW120 33/M04 A2970 RMK AO2 SLP027 T03281044
2026-05-16T02:56:00Z,2026-05-16,2026-05-15,METAR,2026-05-16T07:33:39Z,33.3,91.9,-3.9,25.0,1,210,SSW,14,16.1,,,10+,10.0,19,,FEW12000,1005.5,1002.4,,,,,,VFR,METAR KLAS 160256Z 21014KT 10SM FEW120 33/M04 A2969 RMK AO2 SLP024 T03331039 55003
2026-05-16T01:56:00Z,2026-05-16,2026-05-15,METAR,2026-05-16T07:33:39Z,34.4,93.9,-3.9,25.0,1,230,SW,16,18.4,24,27.6,10+,10.0,19,,FEW12000,1005.5,1002.4,,,,,,VFR,METAR KLAS 160156Z 23016G24KT 10SM FEW120 34/M04 A2969 RMK AO2 SLP024 T03441039
2026-05-16T00:56:00Z,2026-05-16,2026-05-15,METAR,2026-05-16T07:33:39Z,36.1,97.0,-3.9,25.0,1,220,SW,13,15.0,20,23.0,10+,10.0,44,,SCT12000,1005.5,1002.5,,,,,,VFR,METAR KLAS 160056Z 22013G20KT 10SM SCT120 36/M04 A2969 RMK AO2 SLP025 T03611039
2026-05-16T09:56:00Z,2026-05-16,2026-05-16,METAR,2026-05-16T10:47:36Z,25.6,78.1,-0.6,30.9,1,180,S,9,10.4,20,23.0,10+,10.0,,,,1006.5,1003.3,,,,,,VFR,METAR KLAS 160956Z 18009G20KT 10SM CLR 26/M01 A2972 RMK AO2 SLP033 T02561006
2026-05-16T08:56:00Z,2026-05-16,2026-05-16,METAR,2026-05-16T10:47:36Z,26.7,80.1,-1.1,30.0,1,190,S,15,17.3,22,25.3,10+,10.0,,,,1006.5,1003.4,,,,,,VFR,METAR KLAS 160856Z 19015G22KT 10SM CLR 27/M01 A2972 RMK AO2 SLP034 T02671011 50002
2026-05-16T07:56:00Z,2026-05-16,2026-05-16,METAR,2026-05-16T10:47:36Z,27.8,82.0,-1.7,28.9,1,200,SSW,12,13.8,18,20.7,10+,10.0,,,,1006.9,1003.5,,,,,,VFR,METAR KLAS 160756Z 20012G18KT 10SM CLR 28/M02 A2973 RMK AO2 PK WND 21026/0658 SLP035 T02781017 403780239
2026-05-16T14:56:00Z,2026-05-16,2026-05-16,METAR,2026-05-16T15:44:12Z,25,77.0,-3.3,26.1,1,170,S,9,10.4,18,20.7,10+,10.0,,,,1006.9,1004,,,,,,VFR,METAR KLAS 161456Z 17009G18KT 10SM CLR 25/M03 A2973 RMK AO2 SLP040 T02501033 53009
2026-05-16T13:56:00Z,2026-05-16,2026-05-16,METAR,2026-05-16T15:44:12Z,23.9,75.0,-3.9,25.0,1,170,S,10,11.5,,,10+,10.0,,,,1006.5,1003.7,,,,,,VFR,METAR KLAS 161356Z 17010KT 10SM CLR 24/M04 A2972 RMK AO2 SLP037 T02391039
2026-05-16T12:56:00Z,2026-05-16,2026-05-16,METAR,2026-05-16T15:44:12Z,23.9,75.0,-4.4,24.1,1,180,S,12,13.8,19,21.9,10+,10.0,,,,1005.8,1003,,,,,,VFR,METAR KLAS 161256Z 18012G19KT 10SM CLR 24/M04 A2970 RMK AO2 SLP030 T02391044
2026-05-16T11:56:00Z,2026-05-16,2026-05-16,METAR,2026-05-16T15:44:12Z,23.9,75.0,-3.3,26.1,1,180,S,13,15.0,21,24.2,10+,10.0,,,,1005.8,1002.9,,,,,,VFR,METAR KLAS 161156Z 18013G21KT 10SM CLR 24/M03 A2970 RMK AO2 SLP029 T02391033 10306 20239 57007
2026-05-16T10:56:00Z,2026-05-16,2026-05-16,METAR,2026-05-16T15:44:12Z,25,77.0,-2.2,28.0,1,200,SSW,12,13.8,19,21.9,10+,10.0,,,,1006.2,1003,,,,,,VFR,METAR KLAS 161056Z 20012G19KT 10SM CLR 25/M02 A2971 RMK AO2 SLP030 T02501022
2026-05-16T20:56:00Z,2026-05-16,2026-05-16,METAR,2026-05-16T21:08:43Z,32.8,91.0,-3.3,26.1,1,230,SW,11,12.7,18,20.7,10+,10.0,19,,FEW12000,1003.8,1000.9,,,,,,VFR,METAR KLAS 162056Z 23011G18KT 200V270 10SM FEW120 33/M03 A2964 RMK AO2 SLP009 T03281033 56022
2026-05-16T19:56:00Z,2026-05-16,2026-05-16,METAR,2026-05-16T21:08:43Z,32.2,90.0,-4.4,24.1,1,220,SW,14,16.1,23,26.5,10+,10.0,,,,1004.5,1001.5,,,,,,VFR,METAR KLAS 161956Z 22014G23KT 10SM CLR 32/M04 A2966 RMK AO2 SLP015 T03221044
2026-05-16T18:56:00Z,2026-05-16,2026-05-16,METAR,2026-05-16T21:08:43Z,31.1,88.0,-4.4,24.1,1,210,SSW,9,10.4,16,18.4,10+,10.0,,,,1005.5,1002.5,,,,,,VFR,METAR KLAS 161856Z 21009G16KT 10SM CLR 31/M04 A2969 RMK AO2 SLP025 T03111044
2026-05-16T18:04:00Z,2026-05-16,2026-05-16,SPECI,2026-05-16T21:08:43Z,30.6,87.1,-2.8,27.0,1,170,S,6,6.9,16,18.4,10+,10.0,,,,1006.2,,,,,,,VFR,SPECI KLAS 161804Z 17006G16KT 10SM CLR 31/M03 A2971 RMK AO2 T03061028
2026-05-16T17:56:00Z,2026-05-16,2026-05-16,METAR,2026-05-16T21:08:43Z,30.6,87.1,-2.8,27.0,1,150,SSE,6,6.9,18,20.7,10+,10.0,,,,1006.2,1003.3,,,,,,VFR,METAR KLAS 161756Z 15006G18KT 10SM CLR 31/M03 A2971 RMK AO2 SLP033 T03061028 10306 20239 58006
2026-05-16T16:56:00Z,2026-05-16,2026-05-16,METAR,2026-05-16T21:08:43Z,28.9,84.0,-2.8,27.0,1,VRB,VRB,5,5.8,16,18.4,10+,10.0,,,,1006.9,1003.9,,,,,,VFR,METAR KLAS 161656Z VRB05G16KT 10SM CLR 29/M03 A2973 RMK AO2 SLP039 T02891028
2026-05-16T15:56:00Z,2026-05-16,2026-05-16,METAR,2026-05-16T21:08:43Z,27.2,81.0,-2.8,27.0,1,170,S,10,11.5,16,18.4,10+,10.0,,,,1007.2,1004.1,,,,,,VFR,METAR KLAS 161556Z 17010G16KT 10SM CLR 27/M03 A2974 RMK AO2 SLP041 T02721028
2026-05-17T07:56:00Z,2026-05-17,2026-05-17,METAR,2026-05-17T08:37:36Z,25,77.0,-5.6,21.9,1,190,S,6,6.9,,,10+,10.0,,,,1003.8,1000.9,,,,,,VFR,METAR KLAS 170756Z 19006KT 10SM CLR 25/M06 A2964 RMK AO2 SLP009 T02501056 403390239
2026-05-17T06:56:00Z,2026-05-17,2026-05-16,METAR,2026-05-17T08:37:36Z,26.1,79.0,-6.1,21.0,1,240,WSW,9,10.4,,,10+,10.0,,,,1003.8,1001.1,,,,,,VFR,METAR KLAS 170656Z 24009KT 10SM CLR 26/M06 A2964 RMK AO2 SLP011 T02611061
2026-05-17T05:56:00Z,2026-05-17,2026-05-16,METAR,2026-05-17T08:37:36Z,27.2,81.0,-6.1,21.0,1,220,SW,9,10.4,,,10+,10.0,19,,FEW12000,1003.8,1001,,,,,,VFR,METAR KLAS 170556Z 22009KT 10SM FEW120 27/M06 A2964 RMK AO2 SLP010 T02721061 10339 20272 51022
2026-05-17T04:56:00Z,2026-05-17,2026-05-16,METAR,2026-05-17T08:37:36Z,29.4,84.9,-10.6,12.9,1,290,WNW,5,5.8,17,19.6,10+,10.0,19,,FEW12000 FEW20000,1003.5,1000.5,,,,,,VFR,METAR KLAS 170456Z 29005G17KT 10SM FEW120 FEW200 29/M11 A2963 RMK AO2 PK WND 33026/0441 SLP005 T02941106
2026-05-17T03:56:00Z,2026-05-17,2026-05-16,METAR,2026-05-17T08:37:36Z,30.6,87.1,-8.9,16.0,1,310,NW,9,10.4,,,10+,10.0,19,,FEW12000 FEW20000,1002.5,999.7,,,,,,VFR,METAR KLAS 170356Z 31009KT 10SM FEW120 FEW200 31/M09 A2960 RMK AO2 SLP997 T03061089
2026-05-17T02:56:00Z,2026-05-17,2026-05-16,METAR,2026-05-17T08:37:36Z,31.7,89.1,-6.1,21.0,1,270,W,16,18.4,22,25.3,10+,10.0,19,,FEW12000 FEW20000,1001.4,998.8,,,,,,VFR,METAR KLAS 170256Z 27016G22KT 10SM FEW120 FEW200 32/M06 A2957 RMK AO2 SLP988 T03171061 55001
2026-05-17T01:56:00Z,2026-05-17,2026-05-16,METAR,2026-05-17T08:37:36Z,32.8,91.0,-7.8,18.0,1,240,WSW,11,12.7,21,24.2,10+,10.0,19,,FEW12000,1000.8,997.9,,,,,,VFR,METAR KLAS 170156Z 24011G21KT 10SM FEW120 33/M08 A2955 RMK AO2 SLP979 T03281078
2026-05-17T09:56:00Z,2026-05-17,2026-05-17,METAR,2026-05-17T10:55:59Z,22.8,73.0,-3.9,25.0,1,160,SSE,8,9.2,,,10+,10.0,,,,1003.8,1001.2,,,,,,VFR,METAR KLAS 170956Z 16008KT 10SM CLR 23/M04 A2964 RMK AO2 SLP012 T02281039
2026-05-17T08:56:00Z,2026-05-17,2026-05-17,METAR,2026-05-17T10:55:59Z,24.4,75.9,-5,23.0,1,180,S,6,6.9,,,10+,10.0,,,,1003.8,1001,,,,,,VFR,METAR KLAS 170856Z 18006KT 10SM CLR 24/M05 A2964 RMK AO2 SLP010 T02441050 55000
2026-05-17T15:56:00Z,2026-05-17,2026-05-17,METAR,2026-05-17T16:12:28Z,25.6,78.1,-5,23.0,1,VRB,VRB,3,3.5,,,10+,10.0,19,,FEW15000 FEW20000,1003.8,1001.1,,,,,,VFR,METAR KLAS 171556Z VRB03KT 10SM FEW150 FEW200 26/M05 A2964 RMK AO2 SLP011 T02561050
2026-05-17T14:56:00Z,2026-05-17,2026-05-17,METAR,2026-05-17T16:12:28Z,23.9,75.0,-2.2,28.0,1,140,SE,3,3.5,,,10+,10.0,19,,FEW15000 FEW20000,1004.1,1001.5,,,,,,VFR,METAR KLAS 171456Z 14003KT 10SM FEW150 FEW200 24/M02 A2965 RMK AO2 SLP015 T02391022 50000
2026-05-17T13:56:00Z,2026-05-17,2026-05-17,METAR,2026-05-17T16:12:28Z,21.7,71.1,-2.2,28.0,1,160,SSE,4,4.6,,,10+,10.0,19,,FEW15000 FEW20000,1004.5,1001.9,,,,,,VFR,METAR KLAS 171356Z 16004KT 10SM FEW150 FEW200 22/M02 A2966 RMK AO2 SLP019 T02171022
2026-05-17T12:56:00Z,2026-05-17,2026-05-17,METAR,2026-05-17T16:12:28Z,21.1,70.0,-3.3,26.1,1,200,SSW,7,8.1,,,10+,10.0,19,,FEW13000 FEW20000,1004.5,1001.7,,,,,,VFR,METAR KLAS 171256Z 20007KT 10SM FEW130 FEW200 21/M03 A2966 RMK AO2 SLP017 T02111033
2026-05-17T11:56:00Z,2026-05-17,2026-05-17,METAR,2026-05-17T16:12:28Z,21.7,71.1,-3.3,26.1,1,220,SW,5,5.8,,,10+,10.0,19,,FEW13000 FEW20000,1004.1,1001.4,,,,,,VFR,METAR KLAS 171156Z 22005KT 10SM FEW130 FEW200 22/M03 A2965 RMK AO2 SLP014 T02171033 10272 20217 53003
2026-05-17T10:56:00Z,2026-05-17,2026-05-17,METAR,2026-05-17T16:12:28Z,22.2,72.0,-2.8,27.0,1,200,SSW,7,8.1,,,10+,10.0,19,,FEW20000,1003.8,1001.2,,,,,,VFR,METAR KLAS 171056Z 20007KT 10SM FEW200 22/M03 A2964 RMK AO2 SLP012 T02221028
2026-05-17T20:56:00Z,2026-05-17,2026-05-17,METAR,2026-05-17T21:40:29Z,32.8,91.0,-6.1,21.0,1,220,SW,24,27.6,33,38.0,9,9.0,19,,FEW15000 FEW20000,997.4,994.6,,,,,,VFR,METAR KLAS 172056Z 22024G33KT 9SM FEW150 FEW200 33/M06 A2945 RMK AO2 PK WND 21033/2048 PRESFR SLP946 T03281061 58044
2026-05-17T19:56:00Z,2026-05-17,2026-05-17,METAR,2026-05-17T21:40:29Z,31.1,88.0,-5,23.0,1,200,SSW,14,16.1,24,27.6,10+,10.0,19,,FEW20000,999.4,996.5,,,,,,VFR,METAR KLAS 171956Z 20014G24KT 10SM FEW200 31/M05 A2951 RMK AO2 PK WND 20027/1935 SLP965 T03111050
2026-05-17T18:56:00Z,2026-05-17,2026-05-17,METAR,2026-05-17T21:40:29Z,30,86.0,-6.7,19.9,1,190,S,8,9.2,21,24.2,10+,10.0,19,,FEW15000 FEW20000,1000.8,998,,,,,,VFR,METAR KLAS 171856Z 19008G21KT 160V220 10SM FEW150 FEW200 30/M07 A2955 RMK AO2 SLP980 T03001067
2026-05-17T17:56:00Z,2026-05-17,2026-05-17,METAR,2026-05-17T21:40:29Z,28.3,82.9,-5,23.0,1,130,SE,7,8.1,,,10+,10.0,19,,FEW15000 FEW20000,1002.1,999.5,,,,,,VFR,METAR KLAS 171756Z 13007KT 10SM FEW150 FEW200 28/M05 A2959 RMK AO2 SLP995 T02831050 10283 20206 58019
2026-05-17T16:56:00Z,2026-05-17,2026-05-17,METAR,2026-05-17T21:40:29Z,26.7,80.1,-5,23.0,1,210,SSW,5,5.8,,,10+,10.0,19,,FEW15000 FEW20000,1003.1,1000.5,,,,,,VFR,METAR KLAS 171656Z 21005KT 10SM FEW150 FEW200 27/M05 A2962 RMK AO2 SLP005 T02671050
2026-05-18T11:56:00Z,2026-05-18,2026-05-18,METAR,2026-05-18T12:56:31Z,14.4,57.9,-5.6,21.9,1,350,N,15,17.3,27,31.1,10+,10.0,,,,1011.6,1009.4,,,,,,VFR,METAR KLAS 181156Z 35015G27KT 10SM CLR 14/M06 A2987 RMK AO2 PK WND 35032/1058 SLP094 T01441056 10178 20144 53019
2026-05-18T10:56:00Z,2026-05-18,2026-05-18,METAR,2026-05-18T12:56:31Z,15,59.0,-5,23.0,1,340,NNW,19,21.9,31,35.7,10+,10.0,,,,1010.9,1008.7,,,,,,VFR,METAR KLAS 181056Z 34019G31KT 10SM CLR 15/M05 A2985 RMK AO2 PK WND 32032/0959 SLP087 T01501050
2026-05-18T09:56:00Z,2026-05-18,2026-05-18,METAR,2026-05-18T12:56:31Z,15,59.0,-5,23.0,1,340,NNW,21,24.2,31,35.7,10+,10.0,19,,FEW20000,1009.9,1007.6,,,,,,VFR,METAR KLAS 180956Z 34021G31KT 10SM FEW200 15/M05 A2982 RMK AO2 PK WND 33037/0901 SLP076 T01501050
2026-05-18T08:56:00Z,2026-05-18,2026-05-18,METAR,2026-05-18T12:56:31Z,15.6,60.1,-5,23.0,1,340,NNW,25,28.8,40,46.0,10+,10.0,44,,FEW11000 SCT20000,1009.6,1007.3,,,,,,VFR,METAR KLAS 180856Z 34025G40KT 10SM FEW110 SCT200 16/M05 A2981 RMK AO2 PK WND 34043/0825 SLP073 T01561050 51026
2026-05-18T17:04:00Z,2026-05-18,2026-05-18,SPECI,2026-05-18T17:18:18Z,18.3,64.9,-6.7,19.9,1,40,NE,15,17.3,22,25.3,10+,10.0,19,,FEW12000,1015,,,,,,,VFR,SPECI KLAS 181704Z 04015G22KT 10SM FEW120 18/M07 A2997 RMK AO2 WSHFT 1644 T01831067
2026-05-18T16:56:00Z,2026-05-18,2026-05-18,METAR,2026-05-18T17:18:18Z,18.9,66.0,-6.7,19.9,1,30,NNE,15,17.3,21,24.2,10+,10.0,19,,FEW12000,1015,1013.3,,,,,,VFR,METAR KLAS 181656Z 03015G21KT 10SM FEW120 19/M07 A2997 RMK AO2 SLP133 T01891067
2026-05-18T15:56:00Z,2026-05-18,2026-05-18,METAR,2026-05-18T17:18:18Z,16.7,62.1,-6.1,21.0,1,360,N,9,10.4,20,23.0,10+,10.0,,,,1014.6,1013.2,,,,,,VFR,METAR KLAS 181556Z 36009G20KT 10SM CLR 17/M06 A2996 RMK AO2 SLP132 T01671061
2026-05-18T14:56:00Z,2026-05-18,2026-05-18,METAR,2026-05-18T17:18:18Z,16.1,61.0,-6.1,21.0,1,340,NNW,14,16.1,24,27.6,10+,10.0,,,,1014,1012.5,,,,,,VFR,METAR KLAS 181456Z 34014G24KT 10SM CLR 16/M06 A2994 RMK AO2 PK WND 35026/1401 SLP125 T01611061 53024
2026-05-18T13:56:00Z,2026-05-18,2026-05-18,METAR,2026-05-18T17:18:18Z,15.6,60.1,-6.1,21.0,1,340,NNW,14,16.1,23,26.5,10+,10.0,,,,1013,1011,,,,,,VFR,METAR KLAS 181356Z 34014G23KT 10SM CLR 16/M06 A2991 RMK AO2 SLP110 T01561061
2026-05-18T12:56:00Z,2026-05-18,2026-05-18,METAR,2026-05-18T17:18:18Z,15,59.0,-6.1,21.0,1,340,NNW,13,15.0,21,24.2,10+,10.0,,,,1012.3,1010.2,,,,,,VFR,METAR KLAS 181256Z 34013G21KT 10SM CLR 15/M06 A2989 RMK AO2 SLP102 T01501061
2026-05-18T17:56:00Z,2026-05-18,2026-05-18,METAR,2026-05-18T18:27:13Z,20,68.0,-6.7,19.9,1,60,ENE,15,17.3,23,26.5,10+,10.0,19,,FEW12000,1015.3,1013.7,,,,,,VFR,METAR KLAS 181756Z 06015G23KT 10SM FEW120 20/M07 A2998 RMK AO2 WSHFT 1644 SLP137 T02001067 10200 20144 51011
2026-05-18T21:56:00Z,2026-05-18,2026-05-18,METAR,2026-05-18T22:13:49Z,22.8,73.0,-8.3,17.1,1,VRB,VRB,3,3.5,,,10+,10.0,19,,FEW12000,1013.6,1012.1,,,,,,VFR,METAR KLAS 182156Z VRB03KT 10SM FEW120 23/M08 A2993 RMK AO2 SLP121 T02281083
2026-05-18T20:56:00Z,2026-05-18,2026-05-18,METAR,2026-05-18T22:13:49Z,21.1,70.0,-7.8,18.0,1,VRB,VRB,3,3.5,,,10+,10.0,19,,FEW12000,1014.3,1012.8,,,,,,VFR,METAR KLAS 182056Z VRB03KT 10SM FEW120 21/M08 A2995 RMK AO2 SLP128 T02111078 58009
2026-05-18T19:56:00Z,2026-05-18,2026-05-18,METAR,2026-05-18T22:13:49Z,20.6,69.1,-7.2,19.0,1,350,N,7,8.1,16,18.4,10+,10.0,19,,FEW12000,1015,1013.5,,,,,,VFR,METAR KLAS 181956Z 35007G16KT 10SM FEW120 21/M07 A2997 RMK AO2 SLP135 T02061072
2026-05-18T18:56:00Z,2026-05-18,2026-05-18,METAR,2026-05-18T22:13:49Z,20.6,69.1,-6.7,19.9,1,30,NNE,17,19.6,23,26.5,10+,10.0,19,,FEW12000,1015.3,1013.9,,,,,,VFR,METAR KLAS 181856Z 03017G23KT 10SM FEW120 21/M07 A2998 RMK AO2 PK WND 06026/1830 SLP139 T02061067
2026-05-19T11:56:00Z,2026-05-19,2026-05-19,METAR,2026-05-19T12:23:19Z,16.7,62.1,-6.1,21.0,1,300,WNW,6,6.9,,,10+,10.0,,,,1017.7,1015.8,,,,,,VFR,METAR KLAS 191156Z 30006KT 10SM CLR 17/M06 A3005 RMK AO2 SLP158 T01671061 10200 20167 55001
2026-05-19T10:56:00Z,2026-05-19,2026-05-19,METAR,2026-05-19T12:23:19Z,17.8,64.0,-6.7,19.9,1,330,NNW,7,8.1,,,10+,10.0,,,,1017.4,1015.8,,,,,,VFR,METAR KLAS 191056Z 33007KT 10SM CLR 18/M07 A3004 RMK AO2 SLP158 T01781067
2026-05-19T09:56:00Z,2026-05-19,2026-05-19,METAR,2026-05-19T12:23:19Z,18.3,64.9,-6.7,19.9,1,30,NNE,8,9.2,,,10+,10.0,,,,1017.7,1015.8,,,,,,VFR,METAR KLAS 190956Z 03008KT 10SM CLR 18/M07 A3005 RMK AO2 SLP158 T01831067
2026-05-19T08:56:00Z,2026-05-19,2026-05-19,METAR,2026-05-19T12:23:19Z,18.3,64.9,-6.1,21.0,1,10,N,8,9.2,,,10+,10.0,,,,1017.7,1016,,,,,,VFR,METAR KLAS 190856Z 01008KT 10SM CLR 18/M06 A3005 RMK AO2 SLP160 T01831061 50007
2026-05-19T07:56:00Z,2026-05-19,2026-05-19,METAR,2026-05-19T12:23:19Z,18.9,66.0,-6.1,21.0,1,30,NNE,7,8.1,,,10+,10.0,,,,1017.7,1016.2,,,,,,VFR,METAR KLAS 190756Z 03007KT 10SM CLR 19/M06 A3005 RMK AO2 SLP162 T01891061 402440144
2026-05-19T06:56:00Z,2026-05-19,2026-05-18,METAR,2026-05-19T12:23:19Z,19.4,66.9,-6.7,19.9,1,30,NNE,11,12.7,,,10+,10.0,,,,1017.4,1015.8,,,,,,VFR,METAR KLAS 190656Z 03011KT 10SM CLR 19/M07 A3004 RMK AO2 SLP158 T01941067
2026-05-19T05:56:00Z,2026-05-19,2026-05-18,METAR,2026-05-19T12:23:19Z,20,68.0,-6.1,21.0,1,40,NE,7,8.1,,,10+,10.0,,,,1017,1015.2,,,,,,VFR,METAR KLAS 190556Z 04007KT 10SM CLR 20/M06 A3003 RMK AO2 SLP152 T02001061 10244 20200 51026
2026-05-19T16:56:00Z,2026-05-19,2026-05-19,METAR,2026-05-19T17:29:05Z,22.8,73.0,-12.8,9.0,1,40,NE,19,21.9,27,31.1,10+,10.0,,,,1019,1017,,,,,,VFR,METAR KLAS 191656Z 04019G27KT 10SM CLR 23/M13 A3009 RMK AO2 PK WND 05027/1648 SLP170 T02281128
2026-05-19T15:56:00Z,2026-05-19,2026-05-19,METAR,2026-05-19T17:29:05Z,20.6,69.1,-9.4,15.1,1,20,NNE,9,10.4,,,10+,10.0,,,,1019.4,1017.5,,,,,,VFR,METAR KLAS 191556Z 02009KT 10SM CLR 21/M09 A3010 RMK AO2 SLP175 T02061094
2026-05-19T14:56:00Z,2026-05-19,2026-05-19,METAR,2026-05-19T17:29:05Z,18.3,64.9,-7.2,19.0,1,30,NNE,6,6.9,,,10+,10.0,,,,1019,1017.5,,,,,,VFR,METAR KLAS 191456Z 03006KT 10SM CLR 18/M07 A3009 RMK AO2 SLP175 T01831072 51015
2026-05-19T13:56:00Z,2026-05-19,2026-05-19,METAR,2026-05-19T17:29:05Z,17.8,64.0,-6.7,19.9,1,50,NE,8,9.2,,,10+,10.0,,,,1018.7,1017,,,,,,VFR,METAR KLAS 191356Z 05008KT 10SM CLR 18/M07 A3008 RMK AO2 SLP170 T01781067
2026-05-19T12:56:00Z,2026-05-19,2026-05-19,METAR,2026-05-19T17:29:05Z,16.1,61.0,-5,23.0,1,110,ESE,4,4.6,,,10+,10.0,19,,FEW25000,1018,1016.5,,,,,,VFR,METAR KLAS 191256Z 11004KT 10SM FEW250 16/M05 A3006 RMK AO2 SLP165 T01611050
2026-05-19T18:56:00Z,2026-05-19,2026-05-19,METAR,2026-05-19T19:28:30Z,23.9,75.0,-13.3,8.1,1,10,N,9,10.4,24,27.6,10+,10.0,19,,FEW25000,1018,1016.2,,,,,,VFR,METAR KLAS 191856Z 01009G24KT 10SM FEW250 24/M13 A3006 RMK AO2 PK WND 02030/1826 SLP162 T02391133
2026-05-19T17:56:00Z,2026-05-19,2026-05-19,METAR,2026-05-19T19:28:30Z,23.3,73.9,-12.2,10.0,1,30,NNE,14,16.1,25,28.8,10+,10.0,19,,FEW25000,1018.7,1016.9,,,,,,VFR,METAR KLAS 191756Z 03014G25KT 10SM FEW250 23/M12 A3008 RMK AO2 PK WND 04027/1713 SLP169 T02331122 10233 20161 58004
2026-05-19T20:03:00Z,2026-05-19,2026-05-19,SPECI,2026-05-19T20:18:23Z,25,77.0,-13.3,8.1,1,60,ENE,7,8.1,18,20.7,10+,10.0,19,,FEW25000,1017.4,,,,,,,VFR,SPECI KLAS 192003Z 06007G18KT 10SM FEW250 25/M13 A3004 RMK AO2 T02501133
2026-05-19T19:56:00Z,2026-05-19,2026-05-19,METAR,2026-05-19T20:18:23Z,24.4,75.9,-13.3,8.1,1,350,N,5,5.8,22,25.3,10+,10.0,19,,FEW25000,1017.4,1015.5,,,,,,VFR,METAR KLAS 191956Z 35005G22KT 10SM FEW250 24/M13 A3004 RMK AO2 SLP155 T02441133
2026-05-20T03:56:00Z,2026-05-20,2026-05-19,METAR,2026-05-20T04:53:33Z,25,77.0,-12.2,10.0,1,50,NE,6,6.9,,,10+,10.0,,,,1014.6,1012.7,,,,,,VFR,METAR KLAS 200356Z 05006KT 10SM CLR 25/M12 A2996 RMK AO2 SLP127 T02501122
2026-05-20T02:56:00Z,2026-05-20,2026-05-19,METAR,2026-05-20T04:53:33Z,25.6,78.1,-12.8,9.0,1,30,NNE,6,6.9,,,10+,10.0,,,,1014.3,1012.5,,,,,,VFR,METAR KLAS 200256Z 03006KT 10SM CLR 26/M13 A2995 RMK AO2 SLP125 T02561128 55002
2026-05-20T01:56:00Z,2026-05-20,2026-05-19,METAR,2026-05-20T04:53:33Z,26.1,79.0,-12.8,9.0,1,60,ENE,8,9.2,,,10+,10.0,,,,1014.3,1012.3,,,,,,VFR,METAR KLAS 200156Z 06008KT 10SM CLR 26/M13 A2995 RMK AO2 SLP123 T02611128
2026-05-20T00:56:00Z,2026-05-20,2026-05-19,METAR,2026-05-20T04:53:33Z,26.7,80.1,-12.8,9.0,1,20,NNE,7,8.1,,,10+,10.0,19,,FEW25000,1014.3,1012.5,,,,,,VFR,METAR KLAS 200056Z 02007KT 10SM FEW250 27/M13 A2995 RMK AO2 SLP125 T02671128
2026-05-19T23:56:00Z,2026-05-19,2026-05-19,METAR,2026-05-20T04:53:33Z,26.1,79.0,-12.8,9.0,1,VRB,VRB,6,6.9,,,10+,10.0,19,,FEW25000,1014.6,1012.7,,,,,,VFR,METAR KLAS 192356Z VRB06KT 10SM FEW250 26/M13 A2996 RMK AO2 SLP127 T02611128 10272 20228 56019
2026-05-19T22:56:00Z,2026-05-19,2026-05-19,METAR,2026-05-20T04:53:33Z,25.6,78.1,-13.9,7.0,1,30,NNE,5,5.8,,,10+,10.0,19,,FEW25000,1015,1013.1,,,,,,VFR,METAR KLAS 192256Z 03005KT 10SM FEW250 26/M14 A2997 RMK AO2 PK WND 04026/2220 WSHFT 2214 SLP131 T02561139
2026-05-19T22:34:00Z,2026-05-19,2026-05-19,SPECI,2026-05-20T04:53:33Z,26.1,79.0,-13.9,7.0,1,40,NE,7,8.1,,,10+,10.0,19,,FEW25000,1015.3,,,,,,,VFR,SPECI KLAS 192234Z 04007KT 10SM FEW250 26/M14 A2998 RMK AO2 PK WND 04026/2220 WSHFT 2214 T02611139
2026-05-19T21:56:00Z,2026-05-19,2026-05-19,METAR,2026-05-20T04:53:33Z,26.1,79.0,-13.3,8.1,1,330,NNW,7,8.1,,,10+,10.0,19,,FEW25000,1015.7,1013.9,,,,,,VFR,METAR KLAS 192156Z 33007KT 10SM FEW250 26/M13 A2999 RMK AO2 SLP139 T02611133
2026-05-20T09:56:00Z,2026-05-20,2026-05-20,METAR,2026-05-20T10:03:22Z,18.3,64.9,-10,14.0,1,210,SSW,4,4.6,,,10+,10.0,,,,1016,1014,,,,,,VFR,METAR KLAS 200956Z 21004KT 10SM CLR 18/M10 A3000 RMK AO2 SLP140 T01831100
2026-05-20T08:56:00Z,2026-05-20,2026-05-20,METAR,2026-05-20T10:03:22Z,18.9,66.0,-8.9,16.0,1,0,CALM,0,0.0,,,10+,10.0,,,,1016,1014,,,,,,VFR,METAR KLAS 200856Z 00000KT 10SM CLR 19/M09 A3000 RMK AO2 SLP140 T01891089 50001
2026-05-20T07:56:00Z,2026-05-20,2026-05-20,METAR,2026-05-20T10:03:22Z,21.7,71.1,-11.7,10.9,1,60,ENE,3,3.5,,,10+,10.0,,,,1016,1014,,,,,,VFR,METAR KLAS 200756Z 06003KT 10SM CLR 22/M12 A3000 RMK AO2 SLP140 T02171117 402720161
2026-05-20T06:56:00Z,2026-05-20,2026-05-19,METAR,2026-05-20T10:03:22Z,22.2,72.0,-11,12.2,1,10,N,6,6.9,,,10+,10.0,,,,1016,1013.9,,,,,,VFR,METAR KLAS 200656Z 01006KT 10SM CLR 22/M11 A3000 RMK SLP139 T02222222
2026-05-20T05:56:00Z,2026-05-20,2026-05-19,METAR,2026-05-20T10:03:22Z,23.3,73.9,-8.9,16.0,1,30,NNE,7,8.1,,,10+,10.0,,,,1015.7,1013.8,,,,,,VFR,METAR KLAS 200556Z 03007KT 10SM CLR 23/M09 A2999 RMK SLP138 T02331089 10272 20228 52013
2026-05-20T04:56:00Z,2026-05-20,2026-05-19,METAR,2026-05-20T10:03:22Z,23.9,75.0,-10,14.0,1,30,NNE,7,8.1,,,10+,10.0,,,,1015.3,1013.4,,,,,,VFR,METAR KLAS 200456Z 03007KT 10SM CLR 24/M10 A2998 RMK SLP134 T02391100KLAS
2026-05-20T15:56:00Z,2026-05-20,2026-05-20,METAR,2026-05-20T16:19:18Z,23.3,73.9,-9.4,15.1,1,100,E,6,6.9,,,10+,10.0,,,,1016.7,1014.5,,,,,,VFR,METAR KLAS 201556Z 10006KT 10SM CLR 23/M09 A3002 RMK AO2 SLP145 T02331094
2026-05-20T14:56:00Z,2026-05-20,2026-05-20,METAR,2026-05-20T16:19:18Z,21.1,70.0,-10,14.0,1,0,CALM,0,0.0,,,10+,10.0,,,,1016.7,1014.8,,,,,,VFR,METAR KLAS 201456Z 00000KT 10SM CLR 21/M10 A3002 RMK AO2 SLP148 T02111100 53007
2026-05-20T13:56:00Z,2026-05-20,2026-05-20,METAR,2026-05-20T16:19:18Z,18.9,66.0,-8.9,16.0,1,230,SW,3,3.5,,,10+,10.0,,,,1016.7,1014.6,,,,,,VFR,METAR KLAS 201356Z 23003KT 10SM CLR 19/M09 A3002 RMK AO2 SLP146 T01891089
2026-05-20T12:56:00Z,2026-05-20,2026-05-20,METAR,2026-05-20T16:19:18Z,18.3,64.9,-9.4,15.1,1,300,WNW,8,9.2,,,10+,10.0,,,,1016,1014.1,,,,,,VFR,METAR KLAS 201256Z 30008KT 10SM CLR 18/M09 A3000 RMK AO2 SLP141 T01831094
2026-05-20T11:56:00Z,2026-05-20,2026-05-20,METAR,2026-05-20T16:19:18Z,16.1,61.0,-10,14.0,1,220,SW,5,5.8,,,10+,10.0,,,,1016,1014.3,,,,,,VFR,METAR KLAS 201156Z 22005KT 10SM CLR 16/M10 A3000 RMK AO2 SLP143 T01611100 10233 20161 50001
2026-05-20T10:56:00Z,2026-05-20,2026-05-20,METAR,2026-05-20T16:19:18Z,17.8,64.0,-10,14.0,1,270,W,3,3.5,,,10+,10.0,,,,1016,1014.3,,,,,,VFR,METAR KLAS 201056Z 27003KT 10SM CLR 18/M10 A3000 RMK AO2 SLP143 T01781100
2026-05-20T19:56:00Z,2026-05-20,2026-05-20,METAR,2026-05-20T20:37:44Z,27.8,82.0,-10.6,12.9,1,60,ENE,6,6.9,17,19.6,10+,10.0,19,,FEW25000,1014.3,1012.2,,,,,,VFR,METAR KLAS 201956Z 06006G17KT 10SM FEW250 28/M11 A2995 RMK AO2 SLP122 T02781106
2026-05-20T18:56:00Z,2026-05-20,2026-05-20,METAR,2026-05-20T20:37:44Z,27.2,81.0,-11.1,12.0,1,60,ENE,9,10.4,21,24.2,10+,10.0,,,,1015.3,1013.2,,,,,,VFR,METAR KLAS 201856Z 06009G21KT 10SM CLR 27/M11 A2998 RMK AO2 SLP132 T02721111
2026-05-20T17:56:00Z,2026-05-20,2026-05-20,METAR,2026-05-20T20:37:44Z,26.1,79.0,-10.6,12.9,1,70,ENE,8,9.2,,,10+,10.0,,,,1016,1013.6,,,,,,VFR,METAR KLAS 201756Z 07008KT 10SM CLR 26/M11 A3000 RMK AO2 SLP136 T02611106 10261 20161 58009
2026-05-20T16:56:00Z,2026-05-20,2026-05-20,METAR,2026-05-20T20:37:44Z,24.4,75.9,-10,14.0,1,80,E,8,9.2,,,10+,10.0,,,,1016.3,1014.1,,,,,,VFR,METAR KLAS 201656Z 08008KT 10SM CLR 24/M10 A3001 RMK AO2 SLP141 T02441100
2026-05-21T03:56:00Z,2026-05-21,2026-05-20,METAR,2026-05-21T05:00:04Z,27.8,82.0,-10,14.0,1,0,CALM,0,0.0,,,10+,10.0,75,25000,BKN25000,1010.9,1008.5,,,,,,VFR,METAR KLAS 210356Z 00000KT 10SM BKN250 28/M10 A2985 RMK AO2 SLP085 T02781100
2026-05-21T02:56:00Z,2026-05-21,2026-05-20,METAR,2026-05-21T05:00:04Z,28.3,82.9,-10.6,12.9,1,0,CALM,0,0.0,,,10+,10.0,75,25000,BKN25000,1010.6,1008.3,,,,,,VFR,METAR KLAS 210256Z 00000KT 10SM BKN250 28/M11 A2984 RMK AO2 SLP083 T02831106 55004
2026-05-21T01:56:00Z,2026-05-21,2026-05-20,METAR,2026-05-21T05:00:04Z,28.9,84.0,-11.1,12.0,1,80,E,5,5.8,,,10+,10.0,75,25000,BKN25000,1010.2,1008,,,,,,VFR,METAR KLAS 210156Z 08005KT 10SM BKN250 29/M11 A2983 RMK AO2 SLP080 T02891111
2026-05-21T00:56:00Z,2026-05-21,2026-05-20,METAR,2026-05-21T05:00:04Z,29.4,84.9,-10.6,12.9,1,0,CALM,0,0.0,,,10+,10.0,44,,SCT25000,1010.6,1008.3,,,,,,VFR,METAR KLAS 210056Z 00000KT 10SM SCT250 29/M11 A2984 RMK AO2 SLP083 T02941106
2026-05-20T23:56:00Z,2026-05-20,2026-05-20,METAR,2026-05-21T05:00:04Z,29.4,84.9,-10.6,12.9,1,VRB,VRB,3,3.5,,,10+,10.0,44,,SCT25000,1010.9,1008.9,,,,,,VFR,METAR KLAS 202356Z VRB03KT 10SM SCT250 29/M11 A2985 RMK AO2 SLP089 T02941106 10306 20261 56025
2026-05-20T22:56:00Z,2026-05-20,2026-05-20,METAR,2026-05-21T05:00:04Z,29.4,84.9,-10.6,12.9,1,20,NNE,6,6.9,14,16.1,10+,10.0,19,,FEW25000,1011.6,1009.5,,,,,,VFR,METAR KLAS 202256Z 02006G14KT 10SM FEW250 29/M11 A2987 RMK AO2 SLP095 T02941106
2026-05-21T09:56:00Z,2026-05-21,2026-05-21,METAR,2026-05-21T10:24:13Z,21.1,70.0,-8.3,17.1,1,240,WSW,3,3.5,,,10+,10.0,44,,SCT25000,1011.3,1008.9,,,,,,VFR,METAR KLAS 210956Z 24003KT 10SM SCT250 21/M08 A2986 RMK AO2 SLP089 T02111083
2026-05-21T08:56:00Z,2026-05-21,2026-05-21,METAR,2026-05-21T10:24:13Z,21.1,70.0,-9.4,15.1,1,200,SSW,3,3.5,,,10+,10.0,44,,SCT25000,1011.3,1009,,,,,,VFR,METAR KLAS 210856Z 20003KT 10SM SCT250 21/M09 A2986 RMK AO2 SLP090 T02111094 50001
2026-05-21T07:56:00Z,2026-05-21,2026-05-21,METAR,2026-05-21T10:24:13Z,22.8,73.0,-10,14.0,1,0,CALM,0,0.0,,,10+,10.0,75,25000,BKN25000,1011.3,1009,,,,,,VFR,METAR KLAS 210756Z 00000KT 10SM BKN250 23/M10 A2986 RMK AO2 SLP090 T02281100 403060161
2026-05-21T06:56:00Z,2026-05-21,2026-05-20,METAR,2026-05-21T10:24:13Z,23.3,73.9,-10,14.0,1,220,SW,6,6.9,,,10+,10.0,75,25000,BKN25000,1011.3,1009,,,,,,VFR,METAR KLAS 210656Z 22006KT 10SM BKN250 23/M10 A2986 RMK AO2 SLP090 T02331100
2026-05-21T05:56:00Z,2026-05-21,2026-05-20,METAR,2026-05-21T10:24:13Z,23.9,75.0,-9.4,15.1,1,220,SW,5,5.8,,,10+,10.0,75,25000,BKN25000,1011.3,1008.9,,,,,,VFR,METAR KLAS 210556Z 22005KT 10SM BKN250 24/M09 A2986 RMK AO2 SLP089 T02391094 10306 20239 51006
2026-05-21T04:56:00Z,2026-05-21,2026-05-20,METAR,2026-05-21T10:24:13Z,26.7,80.1,-9.4,15.1,1,210,SSW,4,4.6,,,10+,10.0,44,,SCT25000,1010.9,1008.7,,,,,,VFR,METAR KLAS 210456Z 21004KT 10SM SCT250 27/M09 A2985 RMK AO2 SLP087 T02671094
2026-05-21T15:56:00Z,2026-05-21,2026-05-21,METAR,2026-05-21T16:02:26Z,25.6,78.1,-10,14.0,1,VRB,VRB,4,4.6,,,10+,10.0,19,,FEW25000,1012.6,1010.3,,,,,,VFR,METAR KLAS 211556Z VRB04KT 10SM FEW250 26/M10 A2990 RMK AO2 SLP103 T02561100
2026-05-21T14:56:00Z,2026-05-21,2026-05-21,METAR,2026-05-21T16:02:26Z,23.3,73.9,-8.9,16.0,1,VRB,VRB,3,3.5,,,10+,10.0,44,,SCT25000,1012.6,1010.2,,,,,,VFR,METAR KLAS 211456Z VRB03KT 10SM SCT250 23/M09 A2990 RMK AO2 SLP102 T02331089 53009
2026-05-21T13:56:00Z,2026-05-21,2026-05-21,METAR,2026-05-21T16:02:26Z,21.1,70.0,-8.9,16.0,1,220,SW,3,3.5,,,10+,10.0,75,25000,BKN25000,1012.3,1010.1,,,,,,VFR,METAR KLAS 211356Z 22003KT 10SM BKN250 21/M09 A2989 RMK AO2 SLP101 T02111089
2026-05-21T12:56:00Z,2026-05-21,2026-05-21,METAR,2026-05-21T16:02:26Z,19.4,66.9,-9.4,15.1,1,200,SSW,5,5.8,,,10+,10.0,75,25000,BKN25000,1011.9,1009.6,,,,,,VFR,METAR KLAS 211256Z 20005KT 10SM BKN250 19/M09 A2988 RMK AO2 SLP096 T01941094
2026-05-21T11:56:00Z,2026-05-21,2026-05-21,METAR,2026-05-21T16:02:26Z,18.9,66.0,-8.3,17.1,1,230,SW,3,3.5,,,10+,10.0,44,,SCT25000,1011.6,1009.4,,,,,,VFR,METAR KLAS 211156Z 23003KT 10SM SCT250 19/M08 A2987 RMK AO2 SLP094 T01891083 10239 20189 53003
2026-05-21T10:56:00Z,2026-05-21,2026-05-21,METAR,2026-05-21T16:02:26Z,20,68.0,-8.9,16.0,1,200,SSW,4,4.6,,,10+,10.0,44,,SCT25000,1011.3,1009,,,,,,VFR,METAR KLAS 211056Z 20004KT 10SM SCT250 20/M09 A2986 RMK AO2 SLP090 T02001089
2026-05-21T19:56:00Z,2026-05-21,2026-05-21,METAR,2026-05-21T20:25:26Z,31.7,89.1,-9.4,15.1,1,VRB,VRB,4,4.6,,,10+,10.0,,,,1010.9,1008.2,,,,,,VFR,METAR KLAS 211956Z VRB04KT 10SM CLR 32/M09 A2985 RMK AO2 SLP082 T03171094
2026-05-21T18:56:00Z,2026-05-21,2026-05-21,METAR,2026-05-21T20:25:26Z,30.6,87.1,-8.9,16.0,1,VRB,VRB,4,4.6,,,10+,10.0,19,,FEW25000,1011.6,1009,,,,,,VFR,METAR KLAS 211856Z VRB04KT 10SM FEW250 31/M09 A2987 RMK AO2 SLP090 T03061089
2026-05-21T17:56:00Z,2026-05-21,2026-05-21,METAR,2026-05-21T20:25:26Z,28.3,82.9,-9.4,15.1,1,VRB,VRB,3,3.5,,,10+,10.0,19,,FEW25000,1012.3,1009.8,,,,,,VFR,METAR KLAS 211756Z VRB03KT 10SM FEW250 28/M09 A2989 RMK AO2 SLP098 T02831094 10289 20189 58004
2026-05-21T16:56:00Z,2026-05-21,2026-05-21,METAR,2026-05-21T20:25:26Z,27.2,81.0,-8.9,16.0,1,70,ENE,5,5.8,,,10+,10.0,19,,FEW25000,1012.6,1010.1,,,,,,VFR,METAR KLAS 211656Z 07005KT 10SM FEW250 27/M09 A2990 RMK AO2 SLP101 T02721089
2026-05-22T03:56:00Z,2026-05-22,2026-05-21,METAR,2026-05-22T04:49:32Z,30.6,87.1,-10.6,12.9,1,180,S,9,10.4,14,16.1,10+,10.0,19,,FEW17000,1007.2,1004.4,,,,,,VFR,METAR KLAS 220356Z 18009G14KT 10SM FEW170 31/M11 A2974 RMK AO2 SLP044 T03061106
2026-05-22T02:56:00Z,2026-05-22,2026-05-21,METAR,2026-05-22T04:49:32Z,32.2,90.0,-10,14.0,1,190,S,3,3.5,,,10+,10.0,19,,FEW17000,1006.9,1004.2,,,,,,VFR,METAR KLAS 220256Z 19003KT 10SM FEW170 32/M10 A2973 RMK AO2 SLP042 T03221100 55005
2026-05-22T01:56:00Z,2026-05-22,2026-05-21,METAR,2026-05-22T04:49:32Z,32.8,91.0,-10,14.0,1,190,S,7,8.1,,,10+,10.0,19,,FEW17000,1006.5,1004.1,,,,,,VFR,METAR KLAS 220156Z 19007KT 10SM FEW170 33/M10 A2972 RMK AO2 SLP041 T03281100
2026-05-22T00:56:00Z,2026-05-22,2026-05-21,METAR,2026-05-22T04:49:32Z,33.3,91.9,-10.6,12.9,1,VRB,VRB,6,6.9,,,10+,10.0,19,,FEW12000,1006.9,1004.3,,,,,,VFR,METAR KLAS 220056Z VRB06KT 10SM FEW120 33/M11 A2973 RMK AO2 SLP043 T03331106
2026-05-21T23:56:00Z,2026-05-21,2026-05-21,METAR,2026-05-22T04:49:32Z,33.3,91.9,-10,14.0,1,160,SSE,8,9.2,,,10+,10.0,19,,FEW12000,1007.5,1005,,,,,,VFR,METAR KLAS 212356Z 16008KT 110V190 10SM FEW120 33/M10 A2975 RMK AO2 SLP050 T03331100 10339 20283 56023
2026-05-21T22:56:00Z,2026-05-21,2026-05-21,METAR,2026-05-22T04:49:32Z,33.3,91.9,-8.9,16.0,1,180,S,7,8.1,,,10+,10.0,19,,FEW12000,1007.9,1005.5,,,,,,VFR,METAR KLAS 212256Z 18007KT 10SM FEW120 33/M09 A2976 RMK AO2 SLP055 T03331089
2026-05-21T21:56:00Z,2026-05-21,2026-05-21,METAR,2026-05-22T04:49:32Z,33.3,91.9,-9.4,15.1,1,30,NNE,8,9.2,14,16.1,10+,10.0,19,,FEW12000,1009.2,1006.5,,,,,,VFR,METAR KLAS 212156Z 03008G14KT 10SM FEW120 33/M09 A2980 RMK AO2 SLP065 T03331094
2026-05-22T08:56:00Z,2026-05-22,2026-05-22,METAR,2026-05-22T09:59:36Z,25,77.0,-8.9,16.0,1,180,S,6,6.9,,,10+,10.0,,,,1006.9,1004,,,,,,VFR,METAR KLAS 220856Z 18006KT 10SM CLR 25/M09 A2973 RMK AO2 SLP040 T02501089 56002
2026-05-22T07:56:00Z,2026-05-22,2026-05-22,METAR,2026-05-22T09:59:36Z,26.1,79.0,-8.9,16.0,1,190,S,5,5.8,,,10+,10.0,,,,1006.9,1004,,,,,,VFR,METAR KLAS 220756Z 19005KT 10SM CLR 26/M09 A2973 RMK AO2 SLP040 T02611089 403390189
2026-05-22T06:56:00Z,2026-05-22,2026-05-21,METAR,2026-05-22T09:59:36Z,27.2,81.0,-9.4,15.1,1,200,SSW,5,5.8,,,10+,10.0,,,,1006.9,1004,,,,,,VFR,METAR KLAS 220656Z 20005KT 10SM CLR 27/M09 A2973 RMK AO2 SLP040 T02721094
2026-05-22T05:56:00Z,2026-05-22,2026-05-21,METAR,2026-05-22T09:59:36Z,27.8,82.0,-10,14.0,1,220,SW,6,6.9,,,10+,10.0,19,,FEW17000,1007.2,1004.3,,,,,,VFR,METAR KLAS 220556Z 22006KT 10SM FEW170 28/M10 A2974 RMK AO2 SLP043 T02781100 10339 20278 50001
2026-05-22T04:56:00Z,2026-05-22,2026-05-21,METAR,2026-05-22T09:59:36Z,29.4,84.9,-10.6,12.9,1,190,S,7,8.1,,,10+,10.0,19,,FEW17000,1007.2,1004.5,,,,,,VFR,METAR KLAS 220456Z 19007KT 10SM FEW170 29/M11 A2974 RMK AO2 SLP045 T02941106
2026-05-22T14:56:00Z,2026-05-22,2026-05-22,METAR,2026-05-22T15:40:53Z,25,77.0,-5.6,21.9,1,10,N,4,4.6,,,10+,10.0,44,,FEW8000 FEW15000 SCT22000,1009.6,1006.8,,,,,,VFR,METAR KLAS 221456Z 01004KT 10SM FEW080 FEW150 SCT220 25/M06 A2981 RMK AO2 SLP068 FU FEW080 T02501056 53021
2026-05-22T13:56:00Z,2026-05-22,2026-05-22,METAR,2026-05-22T15:40:53Z,23.9,75.0,-5.6,21.9,1,310,NW,5,5.8,,,10+,10.0,44,,FEW14000 FEW17000 SCT22000,1008.9,1006.2,,,,,,VFR,METAR KLAS 221356Z 31005KT 10SM FEW140 FEW170 SCT220 24/M06 A2979 RMK AO2 SLP062 T02391056
2026-05-22T12:56:00Z,2026-05-22,2026-05-22,METAR,2026-05-22T15:40:53Z,22.8,73.0,-6.7,19.9,1,290,WNW,3,3.5,,,10+,10.0,75,17000,FEW14000 BKN17000 BKN21000,1008.2,1005.4,,,,,,VFR,METAR KLAS 221256Z 29003KT 10SM FEW140 BKN170 BKN210 23/M07 A2977 RMK AO2 SLP054 T02281067
2026-05-22T11:56:00Z,2026-05-22,2026-05-22,METAR,2026-05-22T15:40:53Z,24.4,75.9,-8.3,17.1,1,280,W,5,5.8,,,10+,10.0,75,17000,BKN17000,1007.5,1004.6,,,,,,VFR,METAR KLAS 221156Z 28005KT 10SM BKN170 24/M08 A2975 RMK AO2 SLP046 T02441083 10278 20233 53006
2026-05-22T10:56:00Z,2026-05-22,2026-05-22,METAR,2026-05-22T15:40:53Z,23.9,75.0,-6.1,21.0,1,220,SW,4,4.6,,,10+,10.0,75,17000,BKN17000,1007.2,1004.3,,,,,,VFR,METAR KLAS 221056Z COR 22004KT 10SM BKN170 24/M06 A2974 RMK AO2 SLP043 T02391061
2026-05-22T09:56:00Z,2026-05-22,2026-05-22,METAR,2026-05-22T15:40:53Z,24.4,75.9,-7.2,19.0,1,190,S,7,8.1,,,10+,10.0,,,,1006.5,1003.9,,,,,,VFR,METAR KLAS 220956Z 19007KT 10SM CLR 24/M07 A2972 RMK AO2 SLP039 T02441072
2026-05-22T19:56:00Z,2026-05-22,2026-05-22,METAR,2026-05-22T20:23:56Z,31.1,88.0,-5.6,21.9,1,VRB,VRB,3,3.5,,,10+,10.0,44,,FEW15000 SCT25000,1008.9,1006.1,,,,,,VFR,METAR KLAS 221956Z COR VRB03KT 10SM FEW150 SCT250 31/M06 A2979 RMK AO2 SLP061 T03111056
2026-05-22T18:56:00Z,2026-05-22,2026-05-22,METAR,2026-05-22T20:23:56Z,29.4,84.9,-5.6,21.9,1,0,CALM,0,0.0,,,10+,10.0,44,,FEW15000 SCT25000,1009.6,1006.9,,,,,,VFR,METAR KLAS 221856Z 00000KT 10SM FEW150 SCT250 29/M06 A2981 RMK AO2 SLP069 T02941056
2026-05-22T17:56:00Z,2026-05-22,2026-05-22,METAR,2026-05-22T20:23:56Z,30,86.0,-6.7,19.9,1,50,NE,7,8.1,,,10+,10.0,75,25000,FEW15000 BKN25000,1009.9,1007.1,,,,,,VFR,METAR KLAS 221756Z COR 05007KT 10SM FEW150 BKN250 30/M07 A2982 RMK AO2 SLP071 T03001067 10300 20228 50003
2026-05-22T16:56:00Z,2026-05-22,2026-05-22,METAR,2026-05-22T20:23:56Z,28.3,82.9,-6.7,19.9,1,70,ENE,7,8.1,,,10+,10.0,75,25000,FEW15000 BKN25000,1010.2,1007.4,,,,,,VFR,METAR KLAS 221656Z 07007KT 10SM FEW150 BKN250 28/M07 A2983 RMK AO2 SLP074 T02831067
2026-05-22T15:56:00Z,2026-05-22,2026-05-22,METAR,2026-05-22T20:23:56Z,26.1,79.0,-4.4,24.1,1,60,ENE,3,3.5,,,10+,10.0,44,,FEW15000 SCT22000,1010.2,1007.6,,,,,,VFR,METAR KLAS 221556Z 06003KT 10SM FEW150 SCT220 26/M04 A2983 RMK AO2 SLP076 T02611044
2026-05-23T04:26:00Z,2026-05-23,2026-05-22,SPECI,2026-05-23T04:29:02Z,31.1,88.0,-6.7,19.9,1,160,SSE,10,11.5,18,20.7,10+,10.0,19,,FEW15000,1007.2,,,,,,,VFR,SPECI KLAS 230426Z 16010G18KT 10SM FEW150 31/M07 A2974 RMK AO2 T03111067
2026-05-23T03:56:00Z,2026-05-23,2026-05-22,METAR,2026-05-23T04:29:02Z,31.1,88.0,-6.1,21.0,1,160,SSE,9,10.4,19,21.9,10+,10.0,19,,FEW15000,1006.9,1004.1,,,,,,VFR,METAR KLAS 230356Z 16009G19KT 10SM FEW150 31/M06 A2973 RMK AO2 SLP041 T03111061
2026-05-23T02:56:00Z,2026-05-23,2026-05-22,METAR,2026-05-23T04:29:02Z,32.2,90.0,-6.1,21.0,1,140,SE,9,10.4,17,19.6,10+,10.0,19,,FEW15000,1006.5,1003.6,,,,,,VFR,METAR KLAS 230256Z 14009G17KT 10SM FEW150 32/M06 A2972 RMK AO2 SLP036 T03221061 53003
2026-05-23T01:56:00Z,2026-05-23,2026-05-22,METAR,2026-05-23T04:29:02Z,33.3,91.9,-6.1,21.0,1,130,SE,10,11.5,19,21.9,10+,10.0,19,,FEW15000,1006.2,1003.2,,,,,,VFR,METAR KLAS 230156Z 13010G19KT 10SM FEW150 33/M06 A2971 RMK AO2 SLP032 T03331061
2026-05-23T01:06:00Z,2026-05-23,2026-05-22,SPECI,2026-05-23T04:29:02Z,33.9,93.0,-7.2,19.0,1,110,ESE,9,10.4,16,18.4,10+,10.0,19,,FEW15000,1005.8,,,,,,,VFR,SPECI KLAS 230106Z 11009G16KT 080V140 10SM FEW150 34/M07 A2970 RMK AO2 T03391072
2026-05-23T00:56:00Z,2026-05-23,2026-05-22,METAR,2026-05-23T04:29:02Z,34.4,93.9,-7.2,19.0,1,100,E,11,12.7,,,10+,10.0,19,,FEW15000,1005.8,1003.2,,,,,,VFR,METAR KLAS 230056Z 10011KT 10SM FEW150 34/M07 A2970 RMK AO2 SLP032 T03441072
2026-05-22T23:56:00Z,2026-05-22,2026-05-22,METAR,2026-05-23T04:29:02Z,35,95.0,-6.7,19.9,1,90,E,8,9.2,,,10+,10.0,19,,FEW15000 FEW25000,1006.2,1003.1,,,,,,VFR,METAR KLAS 222356Z 09008KT 050V150 10SM FEW150 FEW250 35/M07 A2971 RMK AO2 SLP031 T03501067 10350 20294 56019
2026-05-22T22:59:00Z,2026-05-22,2026-05-22,SPECI,2026-05-23T04:29:02Z,33.9,93.0,-6.1,21.0,1,0,CALM,0,0.0,,,10+,10.0,19,,FEW15000 FEW25000,1006.5,,,,,,,VFR,SPECI KLAS 222259Z 00000KT 10SM FEW150 FEW250 34/M06 A2972 RMK AO2 T03391061
2026-05-22T22:56:00Z,2026-05-22,2026-05-22,METAR,2026-05-23T04:29:02Z,33.9,93.0,-6.1,21.0,1,VRB,VRB,4,4.6,16,18.4,10+,10.0,19,,FEW15000 FEW25000,1006.5,1003.7,,,,,,VFR,METAR KLAS 222256Z VRB04G16KT 10SM FEW150 FEW250 34/M06 A2972 RMK AO2 SLP037 T03391061
2026-05-22T21:56:00Z,2026-05-22,2026-05-22,METAR,2026-05-23T04:29:02Z,33.9,93.0,-6.1,21.0,1,210,SSW,6,6.9,,,10+,10.0,44,,FEW15000 SCT25000,1007.2,1004.4,,,,,,VFR,METAR KLAS 222156Z 21006KT 10SM FEW150 SCT250 34/M06 A2974 RMK AO2 SLP044 T03391061
2026-05-23T07:56:00Z,2026-05-23,2026-05-23,METAR,2026-05-23T08:36:48Z,27.8,82.0,-5.6,21.9,1,190,S,7,8.1,,,10+,10.0,,,,1008.9,1006,,,,,,VFR,METAR KLAS 230756Z 19007KT 10SM CLR 28/M06 A2979 RMK AO2 SLP060 T02781056 403500228
2026-05-23T06:56:00Z,2026-05-23,2026-05-22,METAR,2026-05-23T08:36:48Z,28.9,84.0,-6.1,21.0,1,200,SSW,8,9.2,,,10+,10.0,,,,1008.2,1005.5,,,,,,VFR,METAR KLAS 230656Z 20008KT 10SM CLR 29/M06 A2977 RMK AO2 SLP055 T02891061
2026-05-23T05:56:00Z,2026-05-23,2026-05-22,METAR,2026-05-23T08:36:48Z,29.4,84.9,-6.7,19.9,1,190,S,11,12.7,18,20.7,10+,10.0,,,,1007.9,1004.9,,,,,,VFR,METAR KLAS 230556Z 19011G18KT 10SM CLR 29/M07 A2976 RMK AO2 SLP049 T02941067 10350 20294 51014
2026-05-23T04:56:00Z,2026-05-23,2026-05-22,METAR,2026-05-23T08:36:48Z,30,86.0,-6.7,19.9,1,180,S,12,13.8,18,20.7,10+,10.0,19,,FEW15000,1007.5,1004.7,,,,,,VFR,METAR KLAS 230456Z 18012G18KT 10SM FEW150 30/M07 A2975 RMK AO2 SLP047 T03001067
2026-05-23T13:56:00Z,2026-05-23,2026-05-23,METAR,2026-05-23T14:16:12Z,25.6,78.1,1.7,35.1,1,230,SW,3,3.5,,,10+,10.0,19,,FEW20000,1011.6,1008.9,,,,,,VFR,METAR KLAS 231356Z 23003KT 10SM FEW200 26/02 A2987 RMK AO2 SLP089 T02560017
2026-05-23T12:56:00Z,2026-05-23,2026-05-23,METAR,2026-05-23T14:16:12Z,23.9,75.0,1.1,34.0,1,180,S,6,6.9,,,10+,10.0,19,,FEW20000,1010.6,1007.8,,,,,,VFR,METAR KLAS 231256Z 18006KT 10SM FEW200 24/01 A2984 RMK AO2 SLP078 T02390011
2026-05-23T11:56:00Z,2026-05-23,2026-05-23,METAR,2026-05-23T14:16:12Z,25,77.0,0,32.0,1,190,S,8,9.2,,,10+,10.0,,,,1009.9,1007,,,,,,VFR,METAR KLAS 231156Z 19008KT 10SM CLR 25/00 A2982 RMK AO2 SLP070 T02500000 10294 20244 53008
2026-05-23T10:56:00Z,2026-05-23,2026-05-23,METAR,2026-05-23T14:16:12Z,25,77.0,-0.6,30.9,1,180,S,7,8.1,,,10+,10.0,,,,1009.6,1006.8,,,,,,VFR,METAR KLAS 231056Z 18007KT 10SM CLR 25/M01 A2981 RMK AO2 SLP068 T02501006
2026-05-23T09:56:00Z,2026-05-23,2026-05-23,METAR,2026-05-23T14:16:12Z,26.1,79.0,-0.6,30.9,1,190,S,7,8.1,,,10+,10.0,,,,1009.2,1006.3,,,,,,VFR,METAR KLAS 230956Z 19007KT 10SM CLR 26/M01 A2980 RMK AO2 SLP063 T02611006
2026-05-23T08:56:00Z,2026-05-23,2026-05-23,METAR,2026-05-23T14:16:12Z,26.7,80.1,-2.8,27.0,1,180,S,6,6.9,,,10+,10.0,,,,1009.2,1006.1,,,,,,VFR,METAR KLAS 230856Z 18006KT 10SM CLR 27/M03 A2980 RMK AO2 SLP061 T02671028 51011
2026-05-23T19:08:00Z,2026-05-23,2026-05-23,SPECI,2026-05-23T19:46:23Z,32.8,91.0,-4.4,24.1,1,VRB,VRB,3,3.5,,,10+,10.0,19,,FEW20000,1012.3,,,,,,,VFR,SPECI KLAS 231908Z VRB03KT 10SM FEW200 33/M04 A2989 RMK AO2 T03281044
2026-05-23T18:56:00Z,2026-05-23,2026-05-23,METAR,2026-05-23T19:46:23Z,33.3,91.9,-3.9,25.0,1,VRB,VRB,5,5.8,16,18.4,10+,10.0,19,,FEW20000,1012.3,1009.4,,,,,,VFR,METAR KLAS 231856Z VRB05G16KT 10SM FEW200 33/M04 A2989 RMK AO2 SLP094 T03331039
2026-05-23T17:56:00Z,2026-05-23,2026-05-23,METAR,2026-05-23T19:46:23Z,31.7,89.1,-1.7,28.9,1,VRB,VRB,3,3.5,,,10+,10.0,19,,FEW20000,1012.6,1009.8,,,,,,VFR,METAR KLAS 231756Z COR VRB03KT 10SM FEW200 32/M02 A2990 RMK AO2 SLP098 T03171017 10317 20239 50003
2026-05-23T16:56:00Z,2026-05-23,2026-05-23,METAR,2026-05-23T19:46:23Z,31.1,88.0,-1.1,30.0,1,210,SSW,6,6.9,,,10+,10.0,19,,FEW20000,1012.6,1009.9,,,,,,VFR,METAR KLAS 231656Z 21006KT 10SM FEW200 31/M01 A2990 RMK AO2 SLP099 T03111011
2026-05-23T15:56:00Z,2026-05-23,2026-05-23,METAR,2026-05-23T19:46:23Z,28.9,84.0,2.2,36.0,1,100,E,4,4.6,,,10+,10.0,19,,FEW20000,1013,1009.9,,,,,,VFR,METAR KLAS 231556Z 10004KT 10SM FEW200 29/02 A2991 RMK AO2 SLP099 T02890022
2026-05-23T14:56:00Z,2026-05-23,2026-05-23,METAR,2026-05-23T19:46:23Z,27.2,81.0,2.2,36.0,1,180,S,6,6.9,,,10+,10.0,19,,FEW20000,1012.3,1009.5,,,,,,VFR,METAR KLAS 231456Z 18006KT 10SM FEW200 27/02 A2989 RMK AO2 SLP095 T02720022 51023
2026-05-24T03:56:00Z,2026-05-24,2026-05-23,METAR,2026-05-24T04:53:29Z,30.6,87.1,-1.1,30.0,1,190,S,8,9.2,,,10+,10.0,,,,1011.6,1008.7,,,,,,VFR,METAR KLAS 240356Z 19008KT 10SM CLR 31/M01 A2987 RMK AO2 SLP087 T03061011
2026-05-24T02:56:00Z,2026-05-24,2026-05-23,METAR,2026-05-24T04:53:29Z,31.7,89.1,-2.2,28.0,1,190,S,9,10.4,18,20.7,10+,10.0,,,,1010.9,1008.1,,,,,,VFR,METAR KLAS 240256Z 19009G18KT 10SM CLR 32/M02 A2985 RMK AO2 SLP081 T03171022 53007
2026-05-24T01:56:00Z,2026-05-24,2026-05-23,METAR,2026-05-24T04:53:29Z,32.8,91.0,-2.2,28.0,1,190,S,9,10.4,23,26.5,10+,10.0,,,,1010.2,1007.4,,,,,,VFR,METAR KLAS 240156Z 19009G23KT 10SM CLR 33/M02 A2983 RMK AO2 SLP074 T03281022
2026-05-24T00:56:00Z,2026-05-24,2026-05-23,METAR,2026-05-24T04:53:29Z,33.9,93.0,-3.3,26.1,1,210,SSW,13,15.0,,,10+,10.0,,,,1010.2,1007.3,,,,,,VFR,METAR KLAS 240056Z 21013KT 10SM CLR 34/M03 A2983 RMK AO2 SLP073 T03391033
2026-05-23T23:56:00Z,2026-05-23,2026-05-23,METAR,2026-05-24T04:53:29Z,35,95.0,-3.9,25.0,1,210,SSW,14,16.1,24,27.6,10+,10.0,19,,FEW15000,1010.2,1007.2,,,,,,VFR,METAR KLAS 232356Z 21014G24KT 10SM FEW150 35/M04 A2983 RMK AO2 SLP072 T03501039 10350 20317 56011
2026-05-23T22:56:00Z,2026-05-23,2026-05-23,METAR,2026-05-24T04:53:29Z,33.9,93.0,-4.4,24.1,1,230,SW,5,5.8,18,20.7,10+,10.0,19,,FEW15000,1010.2,1007.5,,,,,,VFR,METAR KLAS 232256Z 23005G18KT 10SM FEW150 34/M04 A2983 RMK AO2 PK WND 20028/2238 SLP075 T03391044
2026-05-23T21:56:00Z,2026-05-23,2026-05-23,METAR,2026-05-24T04:53:29Z,34.4,93.9,-4.4,24.1,1,220,SW,9,10.4,23,26.5,10+,10.0,19,,FEW18000,1010.9,1007.9,,,,,,VFR,METAR KLAS 232156Z 22009G23KT 10SM FEW180 34/M04 A2985 RMK AO2 SLP079 T03441044
2026-05-24T08:56:00Z,2026-05-24,2026-05-24,METAR,2026-05-24T09:08:02Z,26.1,79.0,1.7,35.1,1,200,SSW,8,9.2,,,10+,10.0,,,,1013,1010,,,,,,VFR,METAR KLAS 240856Z 20008KT 10SM CLR 26/02 A2991 RMK AO2 SLP100 T02610017 53005
2026-05-24T07:56:00Z,2026-05-24,2026-05-24,METAR,2026-05-24T09:08:02Z,26.7,80.1,2.2,36.0,1,210,SSW,10,11.5,,,10+,10.0,,,,1012.6,1009.8,,,,,,VFR,METAR KLAS 240756Z 21010KT 10SM CLR 27/02 A2990 RMK AO2 SLP098 T02670022 403500239
2026-05-24T06:56:00Z,2026-05-24,2026-05-23,METAR,2026-05-24T09:08:02Z,27.2,81.0,2.2,36.0,1,210,SSW,9,10.4,,,10+,10.0,,,,1012.6,1009.6,,,,,,VFR,METAR KLAS 240656Z 21009KT 10SM CLR 27/02 A2990 RMK AO2 SLP096 T02720022
2026-05-24T05:56:00Z,2026-05-24,2026-05-23,METAR,2026-05-24T09:08:02Z,28.3,82.9,1.1,34.0,1,200,SSW,12,13.8,,,10+,10.0,,,,1012.3,1009.5,,,,,,VFR,METAR KLAS 240556Z 20012KT 10SM CLR 28/01 A2989 RMK AO2 SLP095 T02830011 10350 20283 51014
2026-05-24T04:56:00Z,2026-05-24,2026-05-23,METAR,2026-05-24T09:08:02Z,29.4,84.9,1.1,34.0,1,200,SSW,9,10.4,,,10+,10.0,,,,1012.3,1009.3,,,,,,VFR,METAR KLAS 240456Z 20009KT 10SM CLR 29/01 A2989 RMK AO2 SLP093 T02940011
2026-05-24T13:56:00Z,2026-05-24,2026-05-24,METAR,2026-05-24T14:11:38Z,24.4,75.9,1.1,34.0,1,0,CALM,0,0.0,,,10+,10.0,,,,1015.3,1012.7,,,,,,VFR,METAR KLAS 241356Z 00000KT 10SM CLR 24/01 A2998 RMK AO2 SLP127 T02440011
2026-05-24T12:56:00Z,2026-05-24,2026-05-24,METAR,2026-05-24T14:11:38Z,22.8,73.0,0.6,33.1,1,160,SSE,5,5.8,,,10+,10.0,,,,1014.3,1011.8,,,,,,VFR,METAR KLAS 241256Z 16005KT 10SM CLR 23/01 A2995 RMK AO2 SLP118 T02280006
2026-05-24T11:56:00Z,2026-05-24,2026-05-24,METAR,2026-05-24T14:11:38Z,23.9,75.0,0.6,33.1,1,190,S,7,8.1,,,10+,10.0,,,,1013.6,1010.9,,,,,,VFR,METAR KLAS 241156Z 19007KT 10SM CLR 24/01 A2993 RMK AO2 SLP109 T02390006 10283 20233 53007
2026-05-24T10:56:00Z,2026-05-24,2026-05-24,METAR,2026-05-24T14:11:38Z,23.9,75.0,0.6,33.1,1,170,S,7,8.1,,,10+,10.0,,,,1013.3,1010.7,,,,,,VFR,METAR KLAS 241056Z 17007KT 10SM CLR 24/01 A2992 RMK AO2 SLP107 T02390006
2026-05-24T09:56:00Z,2026-05-24,2026-05-24,METAR,2026-05-24T14:11:38Z,25.6,78.1,1.1,34.0,1,180,S,5,5.8,,,10+,10.0,,,,1013.3,1010.3,,,,,,VFR,METAR KLAS 240956Z 18005KT 10SM CLR 26/01 A2992 RMK AO2 SLP103 T02560011
2026-05-24T18:56:00Z,2026-05-24,2026-05-24,METAR,2026-05-24T19:48:42Z,31.7,89.1,2.2,36.0,1,160,SSE,10,11.5,18,20.7,10+,10.0,19,,FEW13000 FEW25000,1014.6,1012,,,,,,VFR,METAR KLAS 241856Z 16010G18KT 10SM FEW130 FEW250 32/02 A2996 RMK AO2 SLP120 T03170022
2026-05-24T17:56:00Z,2026-05-24,2026-05-24,METAR,2026-05-24T19:48:42Z,30.6,87.1,2.2,36.0,1,60,ENE,5,5.8,,,10+,10.0,19,,FEW13000 FEW25000,1015.3,1012.4,,,,,,VFR,METAR KLAS 241756Z 06005KT 10SM FEW130 FEW250 31/02 A2998 RMK AO2 SLP124 T03060022 10306 20228 58006
2026-05-24T16:56:00Z,2026-05-24,2026-05-24,METAR,2026-05-24T19:48:42Z,29.4,84.9,0.6,33.1,1,30,NNE,6,6.9,,,10+,10.0,19,,FEW13000 FEW25000,1015.7,1012.9,,,,,,VFR,METAR KLAS 241656Z 03006KT 10SM FEW130 FEW250 29/01 A2999 RMK AO2 SLP129 T02940006
2026-05-24T15:56:00Z,2026-05-24,2026-05-24,METAR,2026-05-24T19:48:42Z,27.8,82.0,0,32.0,1,VRB,VRB,4,4.6,,,10+,10.0,,,,1016,1013.2,,,,,,VFR,METAR KLAS 241556Z VRB04KT 10SM CLR 28/00 A3000 RMK AO2 SLP132 T02780000
2026-05-24T14:56:00Z,2026-05-24,2026-05-24,METAR,2026-05-24T19:48:42Z,26.7,80.1,0,32.0,1,160,SSE,7,8.1,,,10+,10.0,,,,1016,1013.1,,,,,,VFR,METAR KLAS 241456Z 16007KT 10SM CLR 27/00 A3000 RMK AO2 SLP131 T02670000 51020
2026-05-25T04:56:00Z,2026-05-25,2026-05-24,METAR,2026-05-25T05:11:26Z,28.3,82.9,-8.3,17.1,1,200,SSW,7,8.1,,,10+,10.0,,,,1011.3,1008.6,,,,,,VFR,METAR KLAS 250456Z 20007KT 10SM CLR 28/M08 A2986 RMK AO2 SLP086 T02831083
2026-05-25T03:56:00Z,2026-05-25,2026-05-24,METAR,2026-05-25T05:11:26Z,30,86.0,-7.8,18.0,1,180,S,6,6.9,,,10+,10.0,,,,1010.9,1008.1,,,,,,VFR,METAR KLAS 250356Z 18006KT 10SM CLR 30/M08 A2985 RMK AO2 SLP081 T03001078
2026-05-25T02:56:00Z,2026-05-25,2026-05-24,METAR,2026-05-25T05:11:26Z,31.1,88.0,-3.9,25.0,1,170,S,5,5.8,,,10+,10.0,19,,FEW25000,1010.6,1007.7,,,,,,VFR,METAR KLAS 250256Z 17005KT 10SM FEW250 31/M04 A2984 RMK AO2 SLP077 T03111039 55004
2026-05-25T01:56:00Z,2026-05-25,2026-05-24,METAR,2026-05-25T05:11:26Z,32.2,90.0,-3.3,26.1,1,170,S,6,6.9,15,17.3,10+,10.0,19,,FEW25000,1010.2,1007.6,,,,,,VFR,METAR KLAS 250156Z 17006G15KT 10SM FEW250 32/M03 A2983 RMK AO2 SLP076 T03221033
2026-05-25T00:56:00Z,2026-05-25,2026-05-24,METAR,2026-05-25T05:11:26Z,32.8,91.0,-3.3,26.1,1,160,SSE,7,8.1,17,19.6,10+,10.0,44,,FEW13000 SCT25000,1010.2,1007.6,,,,,,VFR,METAR KLAS 250056Z 16007G17KT 10SM FEW130 SCT250 33/M03 A2983 RMK AO2 SLP076 T03281033
2026-05-24T23:56:00Z,2026-05-24,2026-05-24,METAR,2026-05-25T05:11:26Z,32.8,91.0,-1.1,30.0,1,160,SSE,9,10.4,20,23.0,10+,10.0,44,,FEW13000 SCT25000,1010.9,1008.2,,,,,,VFR,METAR KLAS 242356Z 16009G20KT 10SM FEW130 SCT250 33/M01 A2985 RMK AO2 SLP082 T03281011 10344 20300 56022
2026-05-24T22:56:00Z,2026-05-24,2026-05-24,METAR,2026-05-25T05:11:26Z,34.4,93.9,1.1,34.0,1,170,S,11,12.7,18,20.7,10+,10.0,19,,FEW13000 FEW25000,1011.6,1008.6,,,,,,VFR,METAR KLAS 242256Z 17011G18KT 10SM FEW130 FEW250 34/01 A2987 RMK AO2 SLP086 T03440011
2026-05-24T22:36:00Z,2026-05-24,2026-05-24,SPECI,2026-05-25T05:11:26Z,33.3,91.9,1.1,34.0,1,150,SSE,9,10.4,19,21.9,10+,10.0,19,,FEW13000 FEW25000,1011.9,,,,,,,VFR,SPECI KLAS 242236Z 15009G19KT 10SM FEW130 FEW250 33/01 A2988 RMK AO2 T03330011
2026-05-25T09:56:00Z,2026-05-25,2026-05-25,METAR,2026-05-25T10:58:36Z,23.3,73.9,-5,23.0,1,170,S,5,5.8,,,10+,10.0,19,,FEW25000,1010.9,1008.2,,,,,,VFR,METAR KLAS 250956Z 17005KT 10SM FEW250 23/M05 A2985 RMK AO2 SLP082 T02331050
2026-05-25T08:56:00Z,2026-05-25,2026-05-25,METAR,2026-05-25T10:58:36Z,23.9,75.0,-5,23.0,1,210,SSW,5,5.8,,,10+,10.0,19,,FEW25000,1010.9,1008.3,,,,,,VFR,METAR KLAS 250856Z 21005KT 10SM FEW250 24/M05 A2985 RMK AO2 SLP083 T02391050 56003
2026-05-25T07:56:00Z,2026-05-25,2026-05-25,METAR,2026-05-25T10:58:36Z,25,77.0,-5.6,21.9,1,170,S,4,4.6,,,10+,10.0,19,,FEW25000,1011.3,1008.4,,,,,,VFR,METAR KLAS 250756Z 17004KT 10SM FEW250 25/M06 A2986 RMK AO2 SLP084 T02501056 403440228
2026-05-25T06:56:00Z,2026-05-25,2026-05-24,METAR,2026-05-25T10:58:36Z,25.6,78.1,-6.7,19.9,1,200,SSW,5,5.8,,,10+,10.0,,,,1011.3,1008.5,,,,,,VFR,METAR KLAS 250656Z 20005KT 10SM CLR 26/M07 A2986 RMK AO2 SLP085 T02561067
2026-05-25T05:56:00Z,2026-05-25,2026-05-24,METAR,2026-05-25T10:58:36Z,27.8,82.0,-8.9,16.0,1,170,S,5,5.8,,,10+,10.0,,,,1011.3,1008.5,,,,,,VFR,METAR KLAS 250556Z 17005KT 10SM CLR 28/M09 A2986 RMK AO2 SLP085 T02781089 10333 20278 51009
2026-05-25T14:56:00Z,2026-05-25,2026-05-25,METAR,2026-05-25T15:41:29Z,25,77.0,0.6,33.1,1,210,SSW,4,4.6,,,10+,10.0,19,,FEW25000,1012.3,1009.5,,,,,,VFR,METAR KLAS 251456Z 21004KT 10SM FEW250 25/01 A2989 RMK AO2 SLP095 T02500006 50009
2026-05-25T13:56:00Z,2026-05-25,2026-05-25,METAR,2026-05-25T15:41:29Z,23.3,73.9,-1.7,28.9,1,0,CALM,0,0.0,,,10+,10.0,19,,FEW12000 FEW25000,1012.3,1009.5,,,,,,VFR,METAR KLAS 251356Z 00000KT 10SM FEW120 FEW250 23/M02 A2989 RMK AO2 SLP095 T02331017
2026-05-25T12:56:00Z,2026-05-25,2026-05-25,METAR,2026-05-25T15:41:29Z,21.1,70.0,-3.9,25.0,1,230,SW,6,6.9,,,10+,10.0,19,,FEW12000 FEW25000,1011.6,1009.2,,,,,,VFR,METAR KLAS 251256Z 23006KT 10SM FEW120 FEW250 21/M04 A2987 RMK AO2 SLP092 T02111039
2026-05-25T11:56:00Z,2026-05-25,2026-05-25,METAR,2026-05-25T15:41:29Z,22.2,72.0,-4.4,24.1,1,190,S,5,5.8,,,10+,10.0,19,,FEW12000 FEW20000,1011.3,1008.5,,,,,,VFR,METAR KLAS 251156Z 19005KT 10SM FEW120 FEW200 22/M04 A2986 RMK AO2 SLP085 T02221044 10278 20217 53001
2026-05-25T10:56:00Z,2026-05-25,2026-05-25,METAR,2026-05-25T15:41:29Z,22.2,72.0,-5.6,21.9,1,220,SW,5,5.8,,,10+,10.0,19,,FEW25000,1010.9,1008.4,,,,,,VFR,METAR KLAS 251056Z 22005KT 10SM FEW250 22/M06 A2985 RMK AO2 SLP084 T02221056
2026-05-25T19:56:00Z,2026-05-25,2026-05-25,METAR,2026-05-25T20:13:20Z,32.2,90.0,-0.6,30.9,1,VRB,VRB,4,4.6,,,10+,10.0,19,,FEW12000 FEW25000,1009.2,1006.4,,,,,,VFR,METAR KLAS 251956Z VRB04KT 10SM FEW120 FEW250 32/M01 A2980 RMK AO2 SLP064 T03221006
2026-05-25T19:06:00Z,2026-05-25,2026-05-25,SPECI,2026-05-25T20:13:20Z,32.2,90.0,0.6,33.1,1,190,S,5,5.8,16,18.4,10+,10.0,19,,FEW12000 FEW25000,1010.2,,,,,,,VFR,SPECI KLAS 251906Z 19005G16KT 10SM FEW120 FEW250 32/01 A2983 RMK AO2 T03220006
2026-05-25T18:56:00Z,2026-05-25,2026-05-25,METAR,2026-05-25T20:13:20Z,32.2,90.0,0,32.0,1,100,E,8,9.2,15,17.3,10+,10.0,19,,FEW12000 FEW25000,1010.6,1007.7,,,,,,VFR,METAR KLAS 251856Z 10008G15KT 10SM FEW120 FEW250 32/00 A2984 RMK AO2 SLP077 T03220000
2026-05-25T17:56:00Z,2026-05-25,2026-05-25,METAR,2026-05-25T20:13:20Z,31.1,88.0,0,32.0,1,VRB,VRB,3,3.5,,,10+,10.0,19,,FEW12000 FEW25000,1011.3,1008.5,,,,,,VFR,METAR KLAS 251756Z VRB03KT 10SM FEW120 FEW250 31/00 A2986 RMK AO2 SLP085 T03110000 10311 20211 58008
2026-05-25T16:56:00Z,2026-05-25,2026-05-25,METAR,2026-05-25T20:13:20Z,28.9,84.0,0,32.0,1,0,CALM,0,0.0,,,10+,10.0,19,,FEW12000 FEW25000,1011.9,1009.1,,,,,,VFR,METAR KLAS 251656Z 00000KT 10SM FEW120 FEW250 29/00 A2988 RMK AO2 SLP091 T02890000
2026-05-25T15:56:00Z,2026-05-25,2026-05-25,METAR,2026-05-25T20:13:20Z,27.8,82.0,1.1,34.0,1,90,E,3,3.5,,,10+,10.0,19,,FEW25000,1012.3,1009.4,,,,,,VFR,METAR KLAS 251556Z 09003KT 10SM FEW250 28/01 A2989 RMK AO2 SLP094 T02780011
2026-05-26T03:56:00Z,2026-05-26,2026-05-25,METAR,2026-05-26T04:49:50Z,30.6,87.1,-2.2,28.0,1,230,SW,10,11.5,,,10+,10.0,19,,FEW15000 FEW25000,1005.2,1002.2,,,,,,VFR,METAR KLAS 260356Z 23010KT 10SM FEW150 FEW250 31/M02 A2968 RMK AO2 SLP022 T03061022
2026-05-26T02:56:00Z,2026-05-26,2026-05-25,METAR,2026-05-26T04:49:50Z,31.7,89.1,-2.2,28.0,1,230,SW,13,15.0,21,24.2,10+,10.0,19,,FEW15000 FEW25000,1004.8,1002,,,,,,VFR,METAR KLAS 260256Z 23013G21KT 10SM FEW150 FEW250 32/M02 A2967 RMK AO2 SLP020 T03171022 55003
2026-05-26T01:56:00Z,2026-05-26,2026-05-25,METAR,2026-05-26T04:49:50Z,33.3,91.9,-2.8,27.0,1,230,SW,15,17.3,20,23.0,10+,10.0,19,,FEW15000 FEW25000,1004.5,1001.8,,,,,,VFR,METAR KLAS 260156Z 23015G20KT 10SM FEW150 FEW250 33/M03 A2966 RMK AO2 SLP018 T03331028
2026-05-26T00:56:00Z,2026-05-26,2026-05-25,METAR,2026-05-26T04:49:50Z,33.9,93.0,-2.8,27.0,1,210,SSW,14,16.1,25,28.8,10+,10.0,19,,FEW12000 FEW25000,1004.8,1001.9,,,,,,VFR,METAR KLAS 260056Z 21014G25KT 10SM FEW120 FEW250 34/M03 A2967 RMK AO2 WSHFT 2355 SLP019 T03391028
2026-05-26T00:15:00Z,2026-05-26,2026-05-25,SPECI,2026-05-26T04:49:50Z,34.4,93.9,-2.8,27.0,1,230,SW,12,13.8,18,20.7,10+,10.0,19,,FEW12000 FEW25000,1004.8,,,,,,,VFR,SPECI KLAS 260015Z 23012G18KT 10SM FEW120 FEW250 34/M03 A2967 RMK AO2 WSHFT 2355 T03441028
2026-05-25T23:56:00Z,2026-05-25,2026-05-25,METAR,2026-05-26T04:49:50Z,34.4,93.9,-3.3,26.1,1,220,SW,13,15.0,18,20.7,10+,10.0,19,,FEW12000 FEW25000,1005.2,1002.3,,,,,,VFR,METAR KLAS 252356Z 22013G18KT 10SM FEW120 FEW250 34/M03 A2968 RMK AO2 SLP023 T03441033 10350 20300 56026
2026-05-25T22:56:00Z,2026-05-25,2026-05-25,METAR,2026-05-26T04:49:50Z,34.4,93.9,-3.9,25.0,1,VRB,VRB,3,3.5,,,10+,10.0,19,,FEW12000 FEW25000,1005.8,1003.1,,,,,,VFR,METAR KLAS 252256Z VRB03KT 10SM FEW120 FEW250 34/M04 A2970 RMK AO2 SLP031 T03441039
2026-05-25T21:56:00Z,2026-05-25,2026-05-25,METAR,2026-05-26T04:49:50Z,34.4,93.9,-2.8,27.0,1,VRB,VRB,6,6.9,,,10+,10.0,19,,FEW12000 FEW25000,1006.9,1004,,,,,,VFR,METAR KLAS 252156Z VRB06KT 10SM FEW120 FEW250 34/M03 A2973 RMK AO2 SLP040 T03441028
2026-05-26T09:56:00Z,2026-05-26,2026-05-26,METAR,2026-05-26T10:36:28Z,24.4,75.9,0,32.0,1,150,SSE,6,6.9,,,10+,10.0,19,,FEW25000,1004.8,1001.9,,,,,,VFR,METAR KLAS 260956Z 15006KT 10SM FEW250 24/00 A2967 RMK AO2 SLP019 T02440000
2026-05-26T08:56:00Z,2026-05-26,2026-05-26,METAR,2026-05-26T10:36:28Z,25.6,78.1,-0.6,30.9,1,150,SSE,6,6.9,,,10+,10.0,19,,FEW25000,1005.2,1002.2,,,,,,VFR,METAR KLAS 260856Z 15006KT 10SM FEW250 26/M01 A2968 RMK AO2 SLP022 T02561006 58001
2026-05-26T07:56:00Z,2026-05-26,2026-05-26,METAR,2026-05-26T10:36:28Z,27.2,81.0,-1.1,30.0,1,190,S,5,5.8,16,18.4,10+,10.0,19,,FEW25000,1005.2,1002.1,,,,,,VFR,METAR KLAS 260756Z 19005G16KT 10SM FEW250 27/M01 A2968 RMK AO2 SLP021 T02721011 403500211
2026-05-26T06:56:00Z,2026-05-26,2026-05-25,METAR,2026-05-26T10:36:28Z,28.3,82.9,-2.8,27.0,1,220,SW,12,13.8,20,23.0,10+,10.0,19,,FEW25000,1005.5,1002.4,,,,,,VFR,METAR KLAS 260656Z 22012G20KT 10SM FEW250 28/M03 A2969 RMK AO2 SLP024 T02831028
2026-05-26T05:56:00Z,2026-05-26,2026-05-25,METAR,2026-05-26T10:36:28Z,28.9,84.0,-2.8,27.0,1,200,SSW,5,5.8,,,10+,10.0,19,,FEW15000 FEW25000,1005.2,1002.2,,,,,,VFR,METAR KLAS 260556Z 20005KT 10SM FEW150 FEW250 29/M03 A2968 RMK AO2 SLP022 T02891028 10350 20289 50004
2026-05-26T04:56:00Z,2026-05-26,2026-05-25,METAR,2026-05-26T10:36:28Z,30,86.0,-2.8,27.0,1,190,S,6,6.9,,,10+,10.0,19,,FEW15000 FEW25000,1005.5,1002.5,,,,,,VFR,METAR KLAS 260456Z 19006KT 10SM FEW150 FEW250 30/M03 A2969 RMK AO2 SLP025 T03001028
2026-05-26T15:56:00Z,2026-05-26,2026-05-26,METAR,2026-05-26T16:35:29Z,26.1,79.0,3.3,37.9,1,180,S,13,15.0,21,24.2,10+,10.0,19,,FEW25000,1005.2,1002.5,,,,,,VFR,METAR KLAS 261556Z 18013G21KT 10SM FEW250 26/03 A2968 RMK AO2 SLP025 T02610033
2026-05-26T14:56:00Z,2026-05-26,2026-05-26,METAR,2026-05-26T16:35:29Z,25.6,78.1,3.9,39.0,1,190,S,13,15.0,21,24.2,10+,10.0,19,,FEW25000,1005.2,1002.2,,,,,,VFR,METAR KLAS 261456Z 19013G21KT 10SM FEW250 26/04 A2968 RMK AO2 SLP022 T02560039 51003
2026-05-26T13:56:00Z,2026-05-26,2026-05-26,METAR,2026-05-26T16:35:29Z,23.9,75.0,4.4,39.9,2,180,S,10,11.5,18,20.7,10+,10.0,44,,SCT25000,1004.8,1002.2,,,,,,VFR,METAR KLAS 261356Z 18010G18KT 10SM SCT250 24/04 A2967 RMK AO2 SLP022 T02390044
2026-05-26T12:56:00Z,2026-05-26,2026-05-26,METAR,2026-05-26T16:35:29Z,23.3,73.9,3.3,37.9,1,170,S,9,10.4,16,18.4,10+,10.0,44,,FEW15000 SCT25000,1004.8,1002.1,,,,,,VFR,METAR KLAS 261256Z 17009G16KT 10SM FEW150 SCT250 23/03 A2967 RMK AO2 SLP021 T02330033
2026-05-26T11:56:00Z,2026-05-26,2026-05-26,METAR,2026-05-26T16:35:29Z,23.3,73.9,2.2,36.0,1,0,CALM,0,0.0,,,10+,10.0,19,,FEW25000,1004.8,1001.8,,,,,,VFR,METAR KLAS 261156Z 00000KT 10SM FEW250 23/02 A2967 RMK AO2 SLP018 T02330022 10289 20233 55004
2026-05-26T10:56:00Z,2026-05-26,2026-05-26,METAR,2026-05-26T16:35:29Z,24.4,75.9,0.6,33.1,1,170,S,6,6.9,,,10+,10.0,19,,FEW25000,1004.5,1001.6,,,,,,VFR,METAR KLAS 261056Z 17006KT 10SM FEW250 24/01 A2966 RMK AO2 SLP016 T02440006
2026-05-26T19:56:00Z,2026-05-26,2026-05-26,METAR,2026-05-26T20:33:16Z,31.7,89.1,-4.4,24.1,1,200,SSW,15,17.3,33,38.0,10+,10.0,75,25000,BKN25000,1001.8,998.9,,,,,,VFR,METAR KLAS 261956Z 20015G33KT 10SM BKN250 32/M04 A2958 RMK AO2 PK WND 20038/1929 SLP989 T03171044
2026-05-26T18:56:00Z,2026-05-26,2026-05-26,METAR,2026-05-26T20:33:16Z,30.6,87.1,-1.7,28.9,1,200,SSW,19,21.9,31,35.7,7,7.0,75,25000,BKN25000,1003.1,1000.2,,,,,,VFR,METAR KLAS 261856Z 20019G31KT 7SM BKN250 31/M02 A2962 RMK AO2 PK WND 21031/1855 SLP002 T03061017
2026-05-26T17:56:00Z,2026-05-26,2026-05-26,METAR,2026-05-26T20:33:16Z,28.9,84.0,1.7,35.1,1,200,SSW,17,19.6,28,32.2,10+,10.0,75,25000,BKN25000,1003.8,1001,,,,,,VFR,METAR KLAS 261756Z 20017G28KT 10SM BKN250 29/02 A2964 RMK AO2 PK WND 20032/1742 SLP010 T02890017 10294 20228 58011
2026-05-26T16:56:00Z,2026-05-26,2026-05-26,METAR,2026-05-26T20:33:16Z,28.3,82.9,2.2,36.0,1,190,S,12,13.8,22,25.3,10+,10.0,44,,SCT25000,1004.8,1001.8,,,,,,VFR,METAR KLAS 261656Z 19012G22KT 10SM SCT250 28/02 A2967 RMK AO2 PK WND 21026/1619 SLP018 T02830022
2026-05-27T04:56:00Z,2026-05-27,2026-05-26,METAR,2026-05-27T05:04:36Z,20.6,69.1,4.4,39.9,19,230,SW,19,21.9,26,29.9,10+,10.0,,,,1001.1,998.7,,,,,,VFR,METAR KLAS 270456Z 23019G26KT 10SM CLR 21/04 A2956 RMK AO2 PK WND 22035/0403 SLP987 T02060044
2026-05-27T03:56:00Z,2026-05-27,2026-05-26,METAR,2026-05-27T05:04:36Z,23.3,73.9,2.8,37.0,1,240,WSW,22,25.3,34,39.1,10+,10.0,19,,FEW18000,999.4,997,,,,,,VFR,METAR KLAS 270356Z 24022G34KT 10SM FEW180 23/03 A2951 RMK AO2 PK WND 25034/0355 SLP970 T02330028
2026-05-27T02:56:00Z,2026-05-27,2026-05-26,METAR,2026-05-27T05:04:36Z,25.6,78.1,0.6,33.1,1,230,SW,17,19.6,26,29.9,10+,10.0,19,,FEW18000,998.7,996.2,,,,,,VFR,METAR KLAS 270256Z 23017G26KT 10SM FEW180 26/01 A2949 RMK AO2 PK WND 24029/0237 SLP962 T02560006 55000
2026-05-27T01:56:00Z,2026-05-27,2026-05-26,METAR,2026-05-27T05:04:36Z,27.8,82.0,-1.1,30.0,1,240,WSW,19,21.9,28,32.2,10+,10.0,19,,FEW18000,998.4,995.7,,,,,,VFR,METAR KLAS 270156Z 24019G28KT 10SM FEW180 28/M01 A2948 RMK AO2 PK WND 23031/0130 SLP957 T02781011
2026-05-27T00:56:00Z,2026-05-27,2026-05-26,METAR,2026-05-27T05:04:36Z,30,86.0,-0.6,30.9,1,240,WSW,20,23.0,27,31.1,10+,10.0,19,,FEW18000,998.1,995.3,,,,,,VFR,METAR KLAS 270056Z 24020G27KT 10SM FEW180 30/M01 A2947 RMK AO2 PK WND 23027/0019 SLP953 ACSL N-NE T03001006
2026-05-26T23:56:00Z,2026-05-26,2026-05-26,METAR,2026-05-27T05:04:36Z,31.1,88.0,0.6,33.1,1,230,SW,15,17.3,27,31.1,10+,10.0,19,,FEW18000,998.7,996,,,,,,VFR,METAR KLAS 262356Z 23015G27KT 10SM FEW180 31/01 A2949 RMK AO2 PK WND 18033/2320 SLP960 ACSL NW-NE T03110006 10328 20289 56020
2026-05-26T22:56:00Z,2026-05-26,2026-05-26,METAR,2026-05-27T05:04:36Z,32.2,90.0,-1.1,30.0,1,240,WSW,21,24.2,30,34.5,10+,10.0,19,,FEW18000 FEW25000,999.4,996.5,,,,,,VFR,METAR KLAS 262256Z 24021G30KT 10SM FEW180 FEW250 32/M01 A2951 RMK AO2 PK WND 24035/2212 SLP965 ACSL NW T03221011
2026-05-27T09:56:00Z,2026-05-27,2026-05-27,METAR,2026-05-27T10:41:08Z,16.1,61.0,1.7,35.1,28,200,SSW,13,15.0,22,25.3,10+,10.0,19,,FEW8000 FEW25000,1002.5,1000.2,,,,,,VFR,METAR KLAS 270956Z 20013G22KT 10SM FEW080 FEW250 16/02 A2960 RMK AO2 PK WND 21027/0859 SLP002 T01610017
2026-05-27T08:56:00Z,2026-05-27,2026-05-27,METAR,2026-05-27T10:41:08Z,16.1,61.0,1.7,35.1,28,200,SSW,12,13.8,30,34.5,10+,10.0,19,,FEW25000,1001.8,999.4,,,,,,VFR,METAR KLAS 270856Z 20012G30KT 10SM FEW250 16/02 A2958 RMK AO2 PK WND 19030/0852 SLP994 T01610017 50006
2026-05-27T07:56:00Z,2026-05-27,2026-05-27,METAR,2026-05-27T10:41:08Z,17.8,64.0,-0.6,30.9,8,180,S,16,18.4,29,33.4,10+,10.0,,,,1001.8,999.4,,,,,,VFR,METAR KLAS 270756Z 18016G29KT 10SM CLR 18/M01 A2958 RMK AO2 PK WND 21030/0724 SLP994 T01781006 403280178
2026-05-27T06:56:00Z,2026-05-27,2026-05-26,METAR,2026-05-27T10:41:08Z,18.3,64.9,0.6,33.1,12,230,SW,15,17.3,30,34.5,9,9.0,44,,SCT3900,1001.8,999.6,,,,,VCBLDU,VFR,METAR KLAS 270656Z 23015G30KT 9SM VCBLDU SCT039 18/01 A2958 RMK AO2 PK WND 21030/0640 SLP996 VIS LWR SW-NW DU SCT039 T01830006
2026-05-27T05:56:00Z,2026-05-27,2026-05-26,METAR,2026-05-27T10:41:08Z,19.4,66.9,3.3,37.9,20,230,SW,19,21.9,34,39.1,10+,10.0,,,,1001.1,998.8,,,,,,VFR,METAR KLAS 270556Z 23019G34KT 10SM CLR 19/03 A2956 RMK AO2 PK WND 23034/0552 SLP988 OCNL VCBLDU T01940033 10311 20194 51022
2026-05-27T15:56:00Z,2026-05-27,2026-05-27,METAR,2026-05-27T16:28:00Z,17.8,64.0,2.2,36.0,22,210,SSW,13,15.0,18,20.7,10+,10.0,19,,FEW7000,1007.5,1005.8,,,,,,VFR,METAR KLAS 271556Z 21013G18KT 10SM FEW070 18/02 A2975 RMK AO2 SLP058 T01780022
2026-05-27T14:56:00Z,2026-05-27,2026-05-27,METAR,2026-05-27T16:28:00Z,16.7,62.1,3.3,37.9,33,200,SSW,11,12.7,18,20.7,10+,10.0,19,,FEW6000,1007.2,1005.2,,,,,,VFR,METAR KLAS 271456Z 20011G18KT 10SM FEW060 17/03 A2974 RMK AO2 SLP052 T01670033 51028
2026-05-27T13:56:00Z,2026-05-27,2026-05-27,METAR,2026-05-27T16:28:00Z,15.6,60.1,3.3,37.9,38,210,SSW,13,15.0,,,10+,10.0,19,,FEW5500,1006.5,1004.4,,,,,,VFR,METAR KLAS 271356Z 21013KT 10SM FEW055 16/03 A2972 RMK AO2 SLP044 T01560033
2026-05-27T12:56:00Z,2026-05-27,2026-05-27,METAR,2026-05-27T16:28:00Z,15,59.0,3.3,37.9,42,VRB,VRB,5,5.8,,,10+,10.0,19,,FEW5500,1005.2,1002.9,,,,,,VFR,METAR KLAS 271256Z VRB05KT 10SM FEW055 15/03 A2968 RMK AO2 SLP029 T01500033
2026-05-27T11:56:00Z,2026-05-27,2026-05-27,METAR,2026-05-27T16:28:00Z,15,59.0,2.8,37.0,39,220,SW,11,12.7,,,10+,10.0,44,,FEW8000 SCT25000,1004.1,1002,,,,,,VFR,METAR KLAS 271156Z 22011KT 10SM FEW080 SCT250 15/03 A2965 RMK AO2 SLP020 T01500028 10194 20150 51023
2026-05-27T10:56:00Z,2026-05-27,2026-05-27,METAR,2026-05-27T16:28:00Z,15.6,60.1,2.8,37.0,36,210,SSW,6,6.9,,,10+,10.0,19,,FEW8000 FEW25000,1003.5,1001.3,,,,,,VFR,METAR KLAS 271056Z 21006KT 10SM FEW080 FEW250 16/03 A2963 RMK AO2 PK WND 15027/1021 SLP013 T01560028
2026-05-27T19:56:00Z,2026-05-27,2026-05-27,METAR,2026-05-27T20:38:44Z,23.9,75.0,-2.2,28.0,1,190,S,7,8.1,17,19.6,10+,10.0,19,,FEW9000,1006.5,1004.6,,,,,,VFR,METAR KLAS 271956Z 19007G17KT 10SM FEW090 24/M02 A2972 RMK AO2 SLP046 T02391022
2026-05-27T18:56:00Z,2026-05-27,2026-05-27,METAR,2026-05-27T20:38:44Z,22.2,72.0,-1.7,28.9,1,210,SSW,10,11.5,18,20.7,10+,10.0,19,,FEW9000,1007.2,1005.3,,,,,,VFR,METAR KLAS 271856Z 21010G18KT 170V230 10SM FEW090 22/M02 A2974 RMK AO2 SLP053 T02221017
2026-05-27T17:56:00Z,2026-05-27,2026-05-27,METAR,2026-05-27T20:38:44Z,20,68.0,0.6,33.1,3,210,SSW,11,12.7,18,20.7,10+,10.0,19,,FEW8000,1007.9,1006,,,,,,VFR,METAR KLAS 271756Z 21011G18KT 10SM FEW080 20/01 A2976 RMK AO2 SLP060 T02000006 10206 20150 50005
2026-05-27T16:56:00Z,2026-05-27,2026-05-27,METAR,2026-05-27T20:38:44Z,18.9,66.0,1.7,35.1,14,200,SSW,13,15.0,19,21.9,10+,10.0,19,,FEW8000,1007.9,1006,,,,,,VFR,METAR KLAS 271656Z 20013G19KT 10SM FEW080 19/02 A2976 RMK AO2 SLP060 T01890017
2026-05-28T03:56:00Z,2026-05-28,2026-05-27,METAR,2026-05-28T05:00:05Z,23.9,75.0,-5.6,21.9,1,160,SSE,7,8.1,20,23.0,10+,10.0,19,,FEW20000,1004.8,1002.8,,,,,,VFR,METAR KLAS 280356Z 16007G20KT 130V190 10SM FEW200 24/M06 A2967 RMK AO2 SLP028 T02391056
2026-05-28T02:56:00Z,2026-05-28,2026-05-27,METAR,2026-05-28T05:00:05Z,24.4,75.9,-7.8,18.0,1,190,S,7,8.1,,,10+,10.0,19,,FEW20000,1004.1,1002.4,,,,,,VFR,METAR KLAS 280256Z 19007KT 10SM FEW200 24/M08 A2965 RMK AO2 SLP024 T02441078 53002
2026-05-28T01:56:00Z,2026-05-28,2026-05-27,METAR,2026-05-28T05:00:05Z,25,77.0,-3.3,26.1,1,210,SSW,10,11.5,19,21.9,10+,10.0,44,,FEW10000 SCT20000,1004.1,1002.2,,,,,,VFR,METAR KLAS 280156Z 21010G19KT 10SM FEW100 SCT200 25/M03 A2965 RMK AO2 SLP022 T02501033
2026-05-28T00:56:00Z,2026-05-28,2026-05-27,METAR,2026-05-28T05:00:05Z,25.6,78.1,-3.9,25.0,1,230,SW,16,18.4,23,26.5,10+,10.0,19,,FEW10000 FEW20000,1004.1,1002.2,,,,,,VFR,METAR KLAS 280056Z 23016G23KT 10SM FEW100 FEW200 26/M04 A2965 RMK AO2 SLP022 T02561039
2026-05-27T23:56:00Z,2026-05-27,2026-05-27,METAR,2026-05-28T05:00:05Z,27.2,81.0,-5,23.0,1,250,WSW,14,16.1,21,24.2,10+,10.0,19,,FEW10000 FEW20000,1004.1,1002.1,,,,,,VFR,METAR KLAS 272356Z 25014G21KT 10SM FEW100 FEW200 27/M05 A2965 RMK AO2 SLP021 T02721050 10278 20200 56015
2026-05-27T22:56:00Z,2026-05-27,2026-05-27,METAR,2026-05-28T05:00:05Z,26.7,80.1,-5,23.0,1,210,SSW,10,11.5,16,18.4,10+,10.0,19,,FEW10000 FEW20000,1004.5,1002.3,,,,,,VFR,METAR KLAS 272256Z 21010G16KT 10SM FEW100 FEW200 27/M05 A2966 RMK AO2 SLP023 T02671050
2026-05-28T09:56:00Z,2026-05-28,2026-05-28,METAR,2026-05-28T10:40:42Z,15.6,60.1,0,32.0,22,220,SW,19,21.9,28,32.2,10+,10.0,19,,FEW14000 FEW25000,1009.2,1007.2,,,,,,VFR,METAR KLAS 280956Z 22019G28KT 10SM FEW140 FEW250 16/00 A2980 RMK AO2 PK WND 22030/0942 SLP072 T01560000
2026-05-28T08:56:00Z,2026-05-28,2026-05-28,METAR,2026-05-28T10:40:42Z,16.7,62.1,0.6,33.1,20,200,SSW,11,12.7,,,10+,10.0,19,,FEW20000,1008.2,1006.4,,,,,,VFR,METAR KLAS 280856Z 20011KT 10SM FEW200 17/01 A2977 RMK AO2 SLP064 T01670006 51021
2026-05-28T07:56:00Z,2026-05-28,2026-05-28,METAR,2026-05-28T10:40:42Z,17.2,63.0,1.7,35.1,22,230,SW,17,19.6,22,25.3,10+,10.0,19,,FEW20000,1007.9,1006.2,,,,,,VFR,METAR KLAS 280756Z 23017G22KT 10SM FEW200 17/02 A2976 RMK AO2 PK WND 22029/0716 SLP062 T01720017 402780150
2026-05-28T06:56:00Z,2026-05-28,2026-05-27,METAR,2026-05-28T10:40:42Z,18.9,66.0,0,32.0,6,220,SW,14,16.1,23,26.5,10+,10.0,19,,FEW20000,1006.9,1004.8,,,,,,VFR,METAR KLAS 280656Z 22014G23KT 10SM FEW200 19/00 A2973 RMK AO2 SLP048 T01890000
2026-05-28T05:56:00Z,2026-05-28,2026-05-27,METAR,2026-05-28T10:40:42Z,20.6,69.1,-0.6,30.9,1,220,SW,14,16.1,23,26.5,10+,10.0,19,,FEW20000,1006.2,1004.1,,,,,,VFR,METAR KLAS 280556Z 22014G23KT 10SM FEW200 21/M01 A2971 RMK AO2 SLP041 T02061006 10267 20206 53016
2026-05-28T04:56:00Z,2026-05-28,2026-05-27,METAR,2026-05-28T10:40:42Z,23.3,73.9,-5,23.0,1,180,S,10,11.5,24,27.6,10+,10.0,19,,FEW20000,1005.2,1003.2,,,,,,VFR,METAR KLAS 280456Z 18010G24KT 10SM FEW200 23/M05 A2968 RMK AO2 SLP032 T02331050
2026-05-28T15:56:00Z,2026-05-28,2026-05-28,METAR,2026-05-28T16:43:28Z,18.3,64.9,-0.6,30.9,5,180,S,8,9.2,,,10+,10.0,19,,FEW14000 FEW20000,1012.3,1010.4,,,,,,VFR,METAR KLAS 281556Z 18008KT 10SM FEW140 FEW200 18/M01 A2989 RMK AO2 SLP104 T01831006
2026-05-28T14:56:00Z,2026-05-28,2026-05-28,METAR,2026-05-28T16:43:28Z,16.7,62.1,0.6,33.1,20,160,SSE,8,9.2,16,18.4,10+,10.0,19,,FEW14000 FEW20000,1011.6,1009.8,,,,,,VFR,METAR KLAS 281456Z 16008G16KT 10SM FEW140 FEW200 17/01 A2987 RMK AO2 SLP098 T01670006 53013
2026-05-28T13:56:00Z,2026-05-28,2026-05-28,METAR,2026-05-28T16:43:28Z,14.4,57.9,0.6,33.1,31,170,S,8,9.2,,,10+,10.0,19,,FEW14000 FEW20000,1011.3,1009.4,,,,,,VFR,METAR KLAS 281356Z 17008KT 10SM FEW140 FEW200 14/01 A2986 RMK AO2 SLP094 T01440006
2026-05-28T12:56:00Z,2026-05-28,2026-05-28,METAR,2026-05-28T16:43:28Z,13.9,57.0,0.6,33.1,34,170,S,9,10.4,,,10+,10.0,75,20000,FEW14000 BKN20000,1010.2,1008.7,,,,,,VFR,METAR KLAS 281256Z 17009KT 10SM FEW140 BKN200 14/01 A2983 RMK AO2 SLP087 T01390006
2026-05-28T11:56:00Z,2026-05-28,2026-05-28,METAR,2026-05-28T16:43:28Z,13.9,57.0,0.6,33.1,34,180,S,9,10.4,18,20.7,10+,10.0,19,,FEW14000 FEW25000,1010.2,1008.4,,,,,,VFR,METAR KLAS 281156Z 18009G18KT 150V210 10SM FEW140 FEW250 14/01 A2983 RMK AO2 SLP084 T01390006 10206 20139 51018
2026-05-28T10:56:00Z,2026-05-28,2026-05-28,METAR,2026-05-28T16:43:28Z,15,59.0,0.6,33.1,28,220,SW,14,16.1,,,10+,10.0,19,,FEW14000 FEW25000,1009.6,1007.7,,,,,,VFR,METAR KLAS 281056Z 22014KT 10SM FEW140 FEW250 15/01 A2981 RMK AO2 SLP077 ACC DSNT NE T01500006
2026-05-28T19:56:00Z,2026-05-28,2026-05-28,METAR,2026-05-28T20:58:21Z,25.6,78.1,-7.2,19.0,1,160,SSE,11,12.7,16,18.4,10+,10.0,19,,FEW12000 FEW20000,1010.2,1008.2,,,,,,VFR,METAR KLAS 281956Z 16011G16KT 10SM FEW120 FEW200 26/M07 A2983 RMK AO2 SLP082 T02561072
2026-05-28T18:56:00Z,2026-05-28,2026-05-28,METAR,2026-05-28T20:58:21Z,23.3,73.9,-6.1,21.0,1,170,S,8,9.2,16,18.4,10+,10.0,19,,FEW14000 FEW20000,1010.9,1009,,,,,,VFR,METAR KLAS 281856Z 17008G16KT 140V200 10SM FEW140 FEW200 23/M06 A2985 RMK AO2 SLP090 T02331061
2026-05-28T18:15:00Z,2026-05-28,2026-05-28,SPECI,2026-05-28T20:58:21Z,22.2,72.0,-3.9,25.0,1,VRB,VRB,6,6.9,,,10+,10.0,19,,FEW14000 FEW20000,1011.6,,,,,,,VFR,SPECI KLAS 281815Z VRB06KT 10SM FEW140 FEW200 22/M04 A2987 RMK AO2 T02221039
2026-05-28T18:03:00Z,2026-05-28,2026-05-28,SPECI,2026-05-28T20:58:21Z,21.7,71.1,-3.9,25.0,1,100,E,9,10.4,19,21.9,10+,10.0,19,,FEW14000 FEW20000,1011.6,,,,,,,VFR,SPECI KLAS 281803Z 10009G19KT 10SM FEW140 FEW200 22/M04 A2987 RMK AO2 T02171039
2026-05-28T17:56:00Z,2026-05-28,2026-05-28,METAR,2026-05-28T20:58:21Z,21.7,71.1,-3.3,26.1,1,100,E,11,12.7,16,18.4,10+,10.0,19,,FEW14000 FEW20000,1011.6,1009.8,,,,,,VFR,METAR KLAS 281756Z 10011G16KT 10SM FEW140 FEW200 22/M03 A2987 RMK AO2 SLP098 T02171033 10217 20139 51001
2026-05-28T16:56:00Z,2026-05-28,2026-05-28,METAR,2026-05-28T20:58:21Z,20.6,69.1,-3.3,26.1,1,140,SE,8,9.2,,,10+,10.0,19,,FEW14000 FEW20000,1011.6,1009.7,,,,,,VFR,METAR KLAS 281656Z 14008KT 10SM FEW140 FEW200 21/M03 A2987 RMK AO2 SLP097 T02061033
2026-05-29T04:56:00Z,2026-05-29,2026-05-28,METAR,2026-05-29T05:01:01Z,23.3,73.9,-8.9,16.0,1,200,SSW,6,6.9,,,10+,10.0,19,,FEW18000 FEW25000,1008.5,1006.7,,,,,,VFR,METAR KLAS 290456Z 20006KT 10SM FEW180 FEW250 23/M09 A2978 RMK AO2 SLP067 T02331089
2026-05-29T03:56:00Z,2026-05-29,2026-05-28,METAR,2026-05-29T05:01:01Z,23.3,73.9,-5.6,21.9,1,210,SSW,8,9.2,,,10+,10.0,19,,FEW18000 FEW25000,1008.2,1006.3,,,,,,VFR,METAR KLAS 290356Z 21008KT 10SM FEW180 FEW250 23/M06 A2977 RMK AO2 SLP063 T02331056
2026-05-29T02:56:00Z,2026-05-29,2026-05-28,METAR,2026-05-29T05:01:01Z,25,77.0,-10.6,12.9,1,210,SSW,12,13.8,20,23.0,10+,10.0,19,,FEW20000,1007.5,1005.5,,,,,,VFR,METAR KLAS 290256Z 21012G20KT 10SM FEW200 25/M11 A2975 RMK AO2 SLP055 T02501106 53004
2026-05-29T01:56:00Z,2026-05-29,2026-05-28,METAR,2026-05-29T05:01:01Z,26.1,79.0,-11.1,12.0,1,200,SSW,12,13.8,26,29.9,10+,10.0,19,,FEW20000,1006.9,1005.1,,,,,,VFR,METAR KLAS 290156Z 20012G26KT 10SM FEW200 26/M11 A2973 RMK AO2 PK WND 19026/0116 SLP051 T02611111
2026-05-29T00:56:00Z,2026-05-29,2026-05-28,METAR,2026-05-29T05:01:01Z,27.2,81.0,-8.3,17.1,1,200,SSW,8,9.2,21,24.2,10+,10.0,19,,FEW20000,1006.5,1004.6,,,,,,VFR,METAR KLAS 290056Z 20008G21KT 10SM FEW200 27/M08 A2972 RMK AO2 SLP046 T02721083
2026-05-28T23:56:00Z,2026-05-28,2026-05-28,METAR,2026-05-29T05:01:01Z,27.8,82.0,-8.3,17.1,1,180,S,10,11.5,24,27.6,10+,10.0,19,,FEW20000,1007.2,1005.1,,,,,,VFR,METAR KLAS 282356Z 18010G24KT 10SM FEW200 28/M08 A2974 RMK AO2 PK WND 14034/2344 SLP051 T02781083 10283 20217 56022
2026-05-28T22:56:00Z,2026-05-28,2026-05-28,METAR,2026-05-29T05:01:01Z,27.2,81.0,-8.3,17.1,1,180,S,8,9.2,20,23.0,10+,10.0,19,,FEW20000,1007.5,1005.6,,,,,,VFR,METAR KLAS 282256Z 18008G20KT 10SM FEW200 27/M08 A2975 RMK AO2 SLP056 T02721083
2026-05-28T22:17:00Z,2026-05-28,2026-05-28,SPECI,2026-05-29T05:01:01Z,27.2,81.0,-7.2,19.0,1,VRB,VRB,3,3.5,,,10+,10.0,19,,FEW12000 FEW20000,1008.2,,,,,,,VFR,SPECI KLAS 282217Z VRB03KT 10SM FEW120 FEW200 27/M07 A2977 RMK AO2 T02721072
2026-05-28T22:08:00Z,2026-05-28,2026-05-28,SPECI,2026-05-29T05:01:01Z,27.2,81.0,-5,23.0,1,110,ESE,9,10.4,,,10+,10.0,19,,FEW12000 FEW20000,1008.2,,,,,,,VFR,SPECI KLAS 282208Z 11009KT 10SM FEW120 FEW200 27/M05 A2977 RMK AO2 T02721050
2026-05-29T09:56:00Z,2026-05-29,2026-05-29,METAR,2026-05-29T10:33:54Z,18.9,66.0,1.1,34.0,11,330,NNW,4,4.6,,,10+,10.0,100,14000,BKN14000 OVC20000,1008.9,1006.8,,,,,,VFR,METAR KLAS 290956Z 33004KT 10SM BKN140 OVC200 19/01 A2979 RMK AO2 SLP068 T01890011
2026-05-29T08:56:00Z,2026-05-29,2026-05-29,METAR,2026-05-29T10:33:54Z,20,68.0,0,32.0,1,200,SSW,6,6.9,,,10+,10.0,100,15000,BKN15000 OVC20000,1008.9,1006.7,,,,,,VFR,METAR KLAS 290856Z 20006KT 10SM BKN150 OVC200 20/00 A2979 RMK AO2 SLP067 T02000000 50005
2026-05-29T07:56:00Z,2026-05-29,2026-05-29,METAR,2026-05-29T10:33:54Z,20,68.0,0,32.0,1,210,SSW,8,9.2,,,10+,10.0,100,16000,BKN16000 OVC20000,1008.9,1006.7,,,,,,VFR,METAR KLAS 290756Z 21008KT 10SM BKN160 OVC200 20/00 A2979 RMK AO2 SLP067 T02000000 402830139
2026-05-29T06:56:00Z,2026-05-29,2026-05-28,METAR,2026-05-29T10:33:54Z,20.6,69.1,-1.7,28.9,1,250,WSW,12,13.8,,,10+,10.0,75,25000,SCT20000 BKN25000,1008.5,1006.7,,,,,,VFR,METAR KLAS 290656Z 25012KT 10SM SCT200 BKN250 21/M02 A2978 RMK AO2 SLP067 T02061017
2026-05-29T05:56:00Z,2026-05-29,2026-05-28,METAR,2026-05-29T10:33:54Z,22.8,73.0,-7.8,18.0,1,210,SSW,8,9.2,,,10+,10.0,75,19000,BKN19000 BKN25000,1008.2,1006.3,,,,,,VFR,METAR KLAS 290556Z 21008KT 10SM BKN190 BKN250 23/M08 A2977 RMK AO2 SLP063 T02281078 10278 20228 50008
2026-05-29T15:56:00Z,2026-05-29,2026-05-29,METAR,2026-05-29T16:30:07Z,20,68.0,2.8,37.0,14,200,SSW,7,8.1,,,10+,10.0,44,,FEW9000 FEW15000 SCT22000,1011.3,1009.3,,,,,,VFR,METAR KLAS 291556Z 20007KT 10SM FEW090 FEW150 SCT220 20/03 A2986 RMK AO2 SLP093 T02000028
2026-05-29T14:56:00Z,2026-05-29,2026-05-29,METAR,2026-05-29T16:30:07Z,18.9,66.0,2.8,37.0,20,170,S,9,10.4,,,10+,10.0,44,,FEW11000 SCT15000 SCT22000,1010.9,1008.8,,,,,,VFR,METAR KLAS 291456Z 17009KT 10SM FEW110 SCT150 SCT220 19/03 A2985 RMK AO2 SLP088 T01890028 51015
2026-05-29T13:56:00Z,2026-05-29,2026-05-29,METAR,2026-05-29T16:30:07Z,18.3,64.9,2.2,36.0,20,200,SSW,8,9.2,,,10+,10.0,75,15000,SCT11000 BKN15000,1010.6,1008.6,,,,,,VFR,METAR KLAS 291356Z 20008KT 10SM SCT110 BKN150 18/02 A2984 RMK AO2 SLP086 T01830022
2026-05-29T12:56:00Z,2026-05-29,2026-05-29,METAR,2026-05-29T16:30:07Z,16.7,62.1,2.2,36.0,28,200,SSW,9,10.4,,,10+,10.0,75,14000,SCT10000 BKN14000,1009.9,1007.9,,,,,,VFR,METAR KLAS 291256Z 20009KT 10SM SCT100 BKN140 17/02 A2982 RMK AO2 SLP079 T01670022
2026-05-29T11:56:00Z,2026-05-29,2026-05-29,METAR,2026-05-29T16:30:07Z,17.8,64.0,1.7,35.1,20,210,SSW,12,13.8,,,10+,10.0,100,12000,BKN12000 OVC14000,1009.2,1007.1,,,,,,VFR,METAR KLAS 291156Z 21012KT 10SM BKN120 OVC140 18/02 A2980 RMK AO2 SLP071 T01780017 10228 20178 53004
2026-05-29T10:56:00Z,2026-05-29,2026-05-29,METAR,2026-05-29T16:30:07Z,19.4,66.9,1.1,34.0,9,190,S,4,4.6,,,10+,10.0,100,11000,OVC11000,1008.9,1006.7,,,,,,VFR,METAR KLAS 291056Z 19004KT 10SM OVC110 19/01 A2979 RMK AO2 SLP067 T01940011
2026-05-29T20:56:00Z,2026-05-29,2026-05-29,METAR,2026-05-29T21:00:04Z,24.4,75.9,1.1,34.0,1,330,NNW,6,6.9,16,18.4,10+,10.0,44,,SCT10000,1011.3,1009.3,,,,,,VFR,METAR KLAS 292056Z 33006G16KT 10SM SCT100 24/01 A2986 RMK AO2 SLP093 T02440011 58000
2026-05-29T19:56:00Z,2026-05-29,2026-05-29,METAR,2026-05-29T21:00:04Z,23.3,73.9,1.7,35.1,1,240,WSW,8,9.2,,,10+,10.0,44,,FEW10000 SCT16000 SCT22000,1011.6,1009.7,,,,,,VFR,METAR KLAS 291956Z 24008KT 10SM FEW100 SCT160 SCT220 23/02 A2987 RMK AO2 SLP097 T02330017
2026-05-29T18:56:00Z,2026-05-29,2026-05-29,METAR,2026-05-29T21:00:04Z,22.8,73.0,1.1,34.0,1,320,NW,8,9.2,,,10+,10.0,44,,SCT10000 SCT22000,1011.3,1009.5,,,,,,VFR,METAR KLAS 291856Z 32008KT 10SM SCT100 SCT220 23/01 A2986 RMK AO2 SLP095 T02280011
2026-05-29T17:56:00Z,2026-05-29,2026-05-29,METAR,2026-05-29T21:00:04Z,22.2,72.0,1.1,34.0,1,230,SW,5,5.8,,,10+,10.0,44,,FEW10000 FEW15000 SCT22000,1011.3,1009.3,,,,,,VFR,METAR KLAS 291756Z 23005KT 10SM FEW100 FEW150 SCT220 22/01 A2986 RMK AO2 SLP093 VIRGA NW TCU DSNT NW T02220011 10222 20167 51005
2026-05-29T16:56:00Z,2026-05-29,2026-05-29,METAR,2026-05-29T21:00:04Z,20.6,69.1,2.2,36.0,8,150,SSE,3,3.5,,,10+,10.0,44,,FEW10000 SCT15000 SCT22000,1011.3,1009.2,,,,,,VFR,METAR KLAS 291656Z 15003KT 10SM FEW100 SCT150 SCT220 21/02 A2986 RMK AO2 SLP092 T02060022
2026-05-30T03:56:00Z,2026-05-30,2026-05-29,METAR,2026-05-30T04:39:45Z,24.4,75.9,-1.1,30.0,1,260,W,10,11.5,,,10+,10.0,19,,FEW10000,1011.9,1009.9,,,,,,VFR,METAR KLAS 300356Z 26010KT 10SM FEW100 24/M01 A2988 RMK AO2 SLP099 T02441011
2026-05-30T02:56:00Z,2026-05-30,2026-05-29,METAR,2026-05-30T04:39:45Z,25,77.0,0,32.0,1,260,W,11,12.7,,,10+,10.0,19,,FEW10000,1010.9,1009.1,,,,,,VFR,METAR KLAS 300256Z 26011KT 10SM FEW100 25/00 A2985 RMK AO2 SLP091 T02500000 53005
2026-05-30T01:56:00Z,2026-05-30,2026-05-29,METAR,2026-05-30T04:39:45Z,25.6,78.1,0.6,33.1,1,220,SW,6,6.9,,,10+,10.0,19,,FEW10000,1010.6,1008.6,,,,,,VFR,METAR KLAS 300156Z 22006KT 10SM FEW100 26/01 A2984 RMK AO2 SLP086 T02560006
2026-05-30T00:56:00Z,2026-05-30,2026-05-29,METAR,2026-05-30T04:39:45Z,25.6,78.1,1.1,34.0,1,190,S,6,6.9,,,10+,10.0,19,,FEW10000,1010.2,1008.3,,,,,,VFR,METAR KLAS 300056Z 19006KT 10SM FEW100 26/01 A2983 RMK AO2 SLP083 T02560011
2026-05-29T23:56:00Z,2026-05-29,2026-05-29,METAR,2026-05-30T04:39:45Z,25.6,78.1,1.1,34.0,1,200,SSW,9,10.4,16,18.4,10+,10.0,44,,SCT10000,1010.6,1008.6,,,,,,VFR,METAR KLAS 292356Z 20009G16KT 10SM SCT100 26/01 A2984 RMK AO2 SLP086 T02560011 10261 20217 56007
2026-05-29T22:56:00Z,2026-05-29,2026-05-29,METAR,2026-05-30T04:39:45Z,25.6,78.1,1.1,34.0,1,220,SW,7,8.1,,,10+,10.0,44,,SCT10000,1010.6,1008.7,,,,,,VFR,METAR KLAS 292256Z 22007KT 10SM SCT100 26/01 A2984 RMK AO2 SLP087 T02560011
2026-05-29T21:56:00Z,2026-05-29,2026-05-29,METAR,2026-05-30T04:39:45Z,25.6,78.1,1.7,35.1,1,240,WSW,10,11.5,18,20.7,10+,10.0,44,,SCT10000,1010.9,1009,,,,,,VFR,METAR KLAS 292156Z 24010G18KT 10SM SCT100 26/02 A2985 RMK AO2 SLP090 T02560017
2026-05-30T08:56:00Z,2026-05-30,2026-05-30,METAR,2026-05-30T09:03:02Z,20.6,69.1,-0.6,30.9,1,200,SSW,5,5.8,,,10+,10.0,,,,1013,1011,,,,,,VFR,METAR KLAS 300856Z 20005KT 10SM CLR 21/M01 A2991 RMK AO2 SLP110 T02061006 50003
2026-05-30T07:56:00Z,2026-05-30,2026-05-30,METAR,2026-05-30T09:03:02Z,21.1,70.0,-1.1,30.0,1,210,SSW,5,5.8,,,10+,10.0,,,,1013,1011.1,,,,,,VFR,METAR KLAS 300756Z 21005KT 10SM CLR 21/M01 A2991 RMK AO2 SLP111 T02111011 402610167
2026-05-30T06:56:00Z,2026-05-30,2026-05-29,METAR,2026-05-30T09:03:02Z,21.7,71.1,-0.6,30.9,1,160,SSE,5,5.8,,,10+,10.0,,,,1013,1010.9,,,,,,VFR,METAR KLAS 300656Z 16005KT 10SM CLR 22/M01 A2991 RMK AO2 SLP109 T02171006
2026-05-30T05:56:00Z,2026-05-30,2026-05-29,METAR,2026-05-30T09:03:02Z,22.8,73.0,-0.6,30.9,1,200,SSW,4,4.6,,,10+,10.0,,,,1012.6,1010.7,,,,,,VFR,METAR KLAS 300556Z 20004KT 10SM CLR 23/M01 A2990 RMK AO2 SLP107 T02281006 10261 20228 51016
2026-05-30T04:56:00Z,2026-05-30,2026-05-29,METAR,2026-05-30T09:03:02Z,23.9,75.0,-0.6,30.9,1,260,W,7,8.1,,,10+,10.0,,,,1012.3,1010.3,,,,,,VFR,METAR KLAS 300456Z 26007KT 10SM CLR 24/M01 A2989 RMK AO2 SLP103 T02391006
2026-05-30T13:56:00Z,2026-05-30,2026-05-30,METAR,2026-05-30T14:17:57Z,20,68.0,3.3,37.9,16,180,S,6,6.9,,,10+,10.0,,,,1015,1012.8,,,,,,VFR,METAR KLAS 301356Z 18006KT 10SM CLR 20/03 A2997 RMK AO2 SLP128 T02000033
2026-05-30T12:56:00Z,2026-05-30,2026-05-30,METAR,2026-05-30T14:17:57Z,18.9,66.0,2.8,37.0,20,180,S,7,8.1,,,10+,10.0,,,,1014.3,1012.4,,,,,,VFR,METAR KLAS 301256Z 18007KT 10SM CLR 19/03 A2995 RMK AO2 SLP124 T01890028
2026-05-30T11:56:00Z,2026-05-30,2026-05-30,METAR,2026-05-30T14:17:57Z,18.9,66.0,1.7,35.1,14,190,S,6,6.9,,,10+,10.0,,,,1014,1011.9,,,,,,VFR,METAR KLAS 301156Z 19006KT 10SM CLR 19/02 A2994 RMK AO2 SLP119 T01890017 10228 20189 53007
2026-05-30T10:56:00Z,2026-05-30,2026-05-30,METAR,2026-05-30T14:17:57Z,19.4,66.9,0,32.0,3,170,S,5,5.8,,,10+,10.0,,,,1013.3,1011.3,,,,,,VFR,METAR KLAS 301056Z 17005KT 10SM CLR 19/00 A2992 RMK AO2 SLP113 T01940000
2026-05-30T09:56:00Z,2026-05-30,2026-05-30,METAR,2026-05-30T14:17:57Z,20,68.0,-1.1,30.0,1,190,S,6,6.9,,,10+,10.0,,,,1013,1010.9,,,,,,VFR,METAR KLAS 300956Z 19006KT 10SM CLR 20/M01 A2991 RMK AO2 SLP109 T02001011
2026-05-30T18:56:00Z,2026-05-30,2026-05-30,METAR,2026-05-30T19:51:39Z,27.2,81.0,0,32.0,1,VRB,VRB,3,3.5,,,10+,10.0,19,,FEW10000 FEW25000,1014.6,1012.6,,,,,,VFR,METAR KLAS 301856Z COR VRB03KT 10SM FEW100 FEW250 27/00 A2996 RMK AO2 SLP126 T02720000
2026-05-30T17:56:00Z,2026-05-30,2026-05-30,METAR,2026-05-30T19:51:39Z,26.1,79.0,0.6,33.1,1,200,SSW,4,4.6,,,10+,10.0,19,,FEW10000 FEW25000,1015.3,1013.1,,,,,,VFR,METAR KLAS 301756Z 20004KT 10SM FEW100 FEW250 26/01 A2998 RMK AO2 SLP131 T02610006 10267 20183 50001
2026-05-30T16:56:00Z,2026-05-30,2026-05-30,METAR,2026-05-30T19:51:39Z,25,77.0,1.1,34.0,1,210,SSW,4,4.6,,,10+,10.0,19,,FEW10000 FEW25000,1015.3,1013.3,,,,,,VFR,METAR KLAS 301656Z 21004KT 10SM FEW100 FEW250 25/01 A2998 RMK AO2 SLP133 T02500011
2026-05-30T15:56:00Z,2026-05-30,2026-05-30,METAR,2026-05-30T19:51:39Z,23.9,75.0,1.7,35.1,1,0,CALM,0,0.0,,,10+,10.0,19,,FEW12000 FEW25000,1015.3,1013.3,,,,,,VFR,METAR KLAS 301556Z 00000KT 10SM FEW120 FEW250 24/02 A2998 RMK AO2 SLP133 T02390017
2026-05-30T14:56:00Z,2026-05-30,2026-05-30,METAR,2026-05-30T19:51:39Z,21.7,71.1,3.3,37.9,8,180,S,9,10.4,,,10+,10.0,19,,FEW25000,1015,1013,,,,,,VFR,METAR KLAS 301456Z 18009KT 10SM FEW250 22/03 A2997 RMK AO2 SLP130 T02170033 51012
2026-05-31T04:56:00Z,2026-05-31,2026-05-30,METAR,2026-05-31T05:09:32Z,27.8,82.0,0.6,33.1,1,280,W,7,8.1,,,10+,10.0,,,,1012.3,1009.7,,,,,,VFR,METAR KLAS 310456Z 28007KT 10SM CLR 28/01 A2989 RMK AO2 SLP097 T02780006
2026-05-31T03:56:00Z,2026-05-31,2026-05-30,METAR,2026-05-31T05:09:32Z,28.9,84.0,0.6,33.1,1,280,W,10,11.5,,,10+,10.0,,,,1011.9,1009.4,,,,,,VFR,METAR KLAS 310356Z 28010KT 10SM CLR 29/01 A2988 RMK AO2 SLP094 T02890006
2026-05-31T02:56:00Z,2026-05-31,2026-05-30,METAR,2026-05-31T05:09:32Z,29.4,84.9,0.6,33.1,1,270,W,13,15.0,17,19.6,10+,10.0,,,,1011.3,1009,,,,,,VFR,METAR KLAS 310256Z 27013G17KT 10SM CLR 29/01 A2986 RMK AO2 SLP090 T02940006 55001
2026-05-31T01:56:00Z,2026-05-31,2026-05-30,METAR,2026-05-31T05:09:32Z,30.6,87.1,0,32.0,1,60,ENE,4,4.6,,,10+,10.0,19,,FEW10000 FEW25000,1011.3,1008.8,,,,,,VFR,METAR KLAS 310156Z 06004KT 10SM FEW100 FEW250 31/00 A2986 RMK AO2 SLP088 T03060000
2026-05-31T00:56:00Z,2026-05-31,2026-05-30,METAR,2026-05-31T05:09:32Z,31.1,88.0,0,32.0,1,170,S,4,4.6,,,10+,10.0,19,,FEW10000 FEW25000,1010.9,1008.8,,,,,,VFR,METAR KLAS 310056Z 17004KT 10SM FEW100 FEW250 31/00 A2985 RMK AO2 SLP088 T03110000
2026-05-30T23:56:00Z,2026-05-30,2026-05-30,METAR,2026-05-31T05:09:32Z,30.6,87.1,0,32.0,1,VRB,VRB,3,3.5,,,10+,10.0,19,,FEW10000 FEW25000,1011.6,1009.2,,,,,,VFR,METAR KLAS 302356Z VRB03KT 10SM FEW100 FEW250 31/00 A2987 RMK AO2 SLP092 T03060000 10311 20261 56017
2026-05-30T22:56:00Z,2026-05-30,2026-05-30,METAR,2026-05-31T05:09:32Z,31.1,88.0,-1.1,30.0,1,VRB,VRB,4,4.6,,,10+,10.0,19,,FEW10000 FEW25000,1011.9,1009.5,,,,,,VFR,METAR KLAS 302256Z VRB04KT 10SM FEW100 FEW250 31/M01 A2988 RMK AO2 SLP095 T03111011
2026-05-31T08:56:00Z,2026-05-31,2026-05-31,METAR,2026-05-31T09:36:05Z,23.9,75.0,-0.6,30.9,1,220,SW,5,5.8,,,10+,10.0,,,,1012.3,1009.8,,,,,,VFR,METAR KLAS 310856Z 22005KT 10SM CLR 24/M01 A2989 RMK AO2 SLP098 T02391006 58001
2026-05-31T07:56:00Z,2026-05-31,2026-05-31,METAR,2026-05-31T09:36:05Z,25,77.0,0,32.0,1,230,SW,5,5.8,,,10+,10.0,,,,1012.6,1010.1,,,,,,VFR,METAR KLAS 310756Z 23005KT 10SM CLR 25/00 A2990 RMK AO2 SLP101 T02500000 403110183
2026-05-31T06:56:00Z,2026-05-31,2026-05-30,METAR,2026-05-31T09:36:05Z,25.6,78.1,-0.6,30.9,1,220,SW,4,4.6,,,10+,10.0,,,,1012.6,1010.3,,,,,,VFR,METAR KLAS 310656Z 22004KT 10SM CLR 26/M01 A2990 RMK AO2 SLP103 T02561006
2026-05-31T05:56:00Z,2026-05-31,2026-05-30,METAR,2026-05-31T09:36:05Z,26.7,80.1,0,32.0,1,210,SSW,6,6.9,,,10+,10.0,,,,1012.6,1010,,,,,,VFR,METAR KLAS 310556Z 21006KT 10SM CLR 27/00 A2990 RMK AO2 SLP100 T02670000 10311 20267 51010
2026-05-31T13:56:00Z,2026-05-31,2026-05-31,METAR,2026-05-31T14:22:13Z,23.9,75.0,0.6,33.1,1,0,CALM,0,0.0,,,10+,10.0,,,,1013.6,1011,,,,,,VFR,METAR KLAS 311356Z 00000KT 10SM CLR 24/01 A2993 RMK AO2 SLP110 T02390006
2026-05-31T12:56:00Z,2026-05-31,2026-05-31,METAR,2026-05-31T14:22:13Z,21.7,71.1,0,32.0,1,0,CALM,0,0.0,,,10+,10.0,,,,1013,1010.5,,,,,,VFR,METAR KLAS 311256Z 00000KT 10SM CLR 22/00 A2991 RMK AO2 SLP105 T02170000
2026-05-31T11:56:00Z,2026-05-31,2026-05-31,METAR,2026-05-31T14:22:13Z,22.2,72.0,-0.6,30.9,1,220,SW,7,8.1,,,10+,10.0,,,,1012.3,1010,,,,,,VFR,METAR KLAS 311156Z 22007KT 10SM CLR 22/M01 A2989 RMK AO2 SLP100 T02221006 10267 20222 53001
2026-05-31T10:56:00Z,2026-05-31,2026-05-31,METAR,2026-05-31T14:22:13Z,22.2,72.0,-0.6,30.9,1,210,SSW,6,6.9,,,10+,10.0,,,,1012.3,1009.9,,,,,,VFR,METAR KLAS 311056Z 21006KT 10SM CLR 22/M01 A2989 RMK AO2 SLP099 T02221006
2026-05-31T09:56:00Z,2026-05-31,2026-05-31,METAR,2026-05-31T14:22:13Z,22.8,73.0,0,32.0,1,230,SW,4,4.6,,,10+,10.0,,,,1012.3,1009.8,,,,,,VFR,METAR KLAS 310956Z 23004KT 10SM CLR 23/00 A2989 RMK AO2 SLP098 T02280000
2026-05-31T18:56:00Z,2026-05-31,2026-05-31,METAR,2026-05-31T19:51:59Z,31.1,88.0,-1.7,28.9,1,20,NNE,5,5.8,,,10+,10.0,19,,FEW12000,1013.6,1010.9,,,,,,VFR,METAR KLAS 311856Z 02005KT 10SM FEW120 31/M02 A2993 RMK AO2 SLP109 T03111017
2026-05-31T17:56:00Z,2026-05-31,2026-05-31,METAR,2026-05-31T19:51:59Z,30,86.0,-1.1,30.0,1,0,CALM,0,0.0,,,10+,10.0,19,,FEW12000,1014,1011.3,,,,,,VFR,METAR KLAS 311756Z 00000KT 10SM FEW120 30/M01 A2994 RMK AO2 SLP113 T03001011 10306 20217 58001
2026-05-31T16:56:00Z,2026-05-31,2026-05-31,METAR,2026-05-31T19:51:59Z,29.4,84.9,-1.1,30.0,1,40,NE,7,8.1,,,10+,10.0,19,,FEW12000,1014.3,1011.5,,,,,,VFR,METAR KLAS 311656Z 04007KT 10SM FEW120 29/M01 A2995 RMK AO2 SLP115 T02941011
2026-05-31T15:56:00Z,2026-05-31,2026-05-31,METAR,2026-05-31T19:51:59Z,27.8,82.0,-0.6,30.9,1,340,NNW,8,9.2,,,10+,10.0,,,,1014.3,1011.7,,,,,,VFR,METAR KLAS 311556Z 34008KT 10SM CLR 28/M01 A2995 RMK AO2 SLP117 T02781006
2026-05-31T14:56:00Z,2026-05-31,2026-05-31,METAR,2026-05-31T19:51:59Z,25.6,78.1,-0.6,30.9,1,VRB,VRB,4,4.6,,,10+,10.0,,,,1014,1011.4,,,,,,VFR,METAR KLAS 311456Z VRB04KT 10SM CLR 26/M01 A2994 RMK AO2 SLP114 T02561006 51015
2026-06-01T04:56:00Z,2026-06-01,2026-05-31,METAR,2026-06-01T05:30:58Z,30.6,87.1,-3.3,26.1,1,190,S,8,9.2,,,10+,10.0,,,,1010.2,1007.4,,,,,,VFR,METAR KLAS 010456Z 19008KT 10SM CLR 31/M03 A2983 RMK AO2 SLP074 T03061033
2026-06-01T03:56:00Z,2026-06-01,2026-05-31,METAR,2026-06-01T05:30:58Z,31.7,89.1,-2.8,27.0,1,100,E,5,5.8,,,10+,10.0,,,,1009.9,1007,,,,,,VFR,METAR KLAS 010356Z 10005KT 10SM CLR 32/M03 A2982 RMK AO2 SLP070 T03171028
2026-06-01T02:56:00Z,2026-06-01,2026-05-31,METAR,2026-06-01T05:30:58Z,32.8,91.0,-3.3,26.1,1,110,ESE,5,5.8,,,10+,10.0,,,,1009.6,1006.7,,,,,,VFR,METAR KLAS 010256Z 11005KT 10SM CLR 33/M03 A2981 RMK AO2 SLP067 T03281033 55005
2026-06-01T01:56:00Z,2026-06-01,2026-05-31,METAR,2026-06-01T05:30:58Z,33.9,93.0,-4.4,24.1,1,150,SSE,5,5.8,,,10+,10.0,19,,FEW12000,1009.2,1006.5,,,,,,VFR,METAR KLAS 010156Z 15005KT 10SM FEW120 34/M04 A2980 RMK AO2 SLP065 T03391044
2026-06-01T00:56:00Z,2026-06-01,2026-05-31,METAR,2026-06-01T05:30:58Z,34.4,93.9,-3.9,25.0,1,160,SSE,4,4.6,,,10+,10.0,19,,FEW12000,1009.2,1006.7,,,,,,VFR,METAR KLAS 010056Z 16004KT 10SM FEW120 34/M04 A2980 RMK AO2 SLP067 T03441039
2026-05-31T23:56:00Z,2026-05-31,2026-05-31,METAR,2026-06-01T05:30:58Z,34.4,93.9,-4.4,24.1,1,90,E,6,6.9,,,10+,10.0,19,,FEW12000,1009.9,1007.4,,,,,,VFR,METAR KLAS 312356Z 09006KT 10SM FEW120 34/M04 A2982 RMK AO2 SLP074 T03441044 10344 20294 56020
2026-05-31T22:56:00Z,2026-05-31,2026-05-31,METAR,2026-06-01T05:30:58Z,34.4,93.9,-4.4,24.1,1,VRB,VRB,3,3.5,,,10+,10.0,19,,FEW12000,1010.6,1008,,,,,,VFR,METAR KLAS 312256Z VRB03KT 10SM FEW120 34/M04 A2984 RMK AO2 SLP080 T03441044
2026-06-01T11:56:00Z,2026-06-01,2026-06-01,METAR,2026-06-01T12:20:55Z,23.9,75.0,-3.3,26.1,1,210,SSW,6,6.9,,,10+,10.0,,,,1011.6,1008.8,,,,,,VFR,METAR KLAS 011156Z 21006KT 10SM CLR 24/M03 A2987 RMK AO2 SLP088 T02391033 10300 20239 53005
2026-06-01T10:56:00Z,2026-06-01,2026-06-01,METAR,2026-06-01T12:20:55Z,23.9,75.0,-2.8,27.0,1,220,SW,4,4.6,,,10+,10.0,,,,1011.3,1008.3,,,,,,VFR,METAR KLAS 011056Z 22004KT 10SM CLR 24/M03 A2986 RMK AO2 SLP083 T02391028
2026-06-01T09:56:00Z,2026-06-01,2026-06-01,METAR,2026-06-01T12:20:55Z,25.6,78.1,-3.9,25.0,1,230,SW,5,5.8,,,10+,10.0,,,,1011.3,1008.3,,,,,,VFR,METAR KLAS 010956Z 23005KT 10SM CLR 26/M04 A2986 RMK AO2 SLP083 T02561039
2026-06-01T08:56:00Z,2026-06-01,2026-06-01,METAR,2026-06-01T12:20:55Z,26.7,80.1,-3.9,25.0,1,230,SW,7,8.1,,,10+,10.0,,,,1010.9,1008.2,,,,,,VFR,METAR KLAS 010856Z 23007KT 10SM CLR 27/M04 A2985 RMK AO2 SLP082 T02671039 51005
2026-06-01T07:56:00Z,2026-06-01,2026-06-01,METAR,2026-06-01T12:20:55Z,27.2,81.0,-4.4,24.1,1,210,SSW,7,8.1,,,10+,10.0,,,,1010.9,1007.9,,,,,,VFR,METAR KLAS 010756Z 21007KT 10SM CLR 27/M04 A2985 RMK AO2 SLP079 T02721044 403440217
2026-06-01T06:56:00Z,2026-06-01,2026-05-31,METAR,2026-06-01T12:20:55Z,28.9,84.0,-3.3,26.1,1,0,CALM,0,0.0,,,10+,10.0,,,,1010.9,1007.8,,,,,,VFR,METAR KLAS 010656Z 00000KT 10SM CLR 29/M03 A2985 RMK AO2 SLP078 T02891033
2026-06-01T05:56:00Z,2026-06-01,2026-05-31,METAR,2026-06-01T12:20:55Z,29.4,84.9,-3.3,26.1,1,240,WSW,9,10.4,,,10+,10.0,,,,1010.6,1007.5,,,,,,VFR,METAR KLAS 010556Z 24009KT 10SM CLR 29/M03 A2984 RMK AO2 SLP075 T02941033 10344 20294 51009
2026-06-01T17:56:00Z,2026-06-01,2026-06-01,METAR,2026-06-01T18:28:16Z,32.2,90.0,-3.3,26.1,1,10,N,5,5.8,,,10+,10.0,19,,FEW25000,1013.3,1010.2,,,,,,VFR,METAR KLAS 011756Z 01005KT 10SM FEW250 32/M03 A2992 RMK AO2 SLP102 T03221033 10322 20233 51001
2026-06-01T16:56:00Z,2026-06-01,2026-06-01,METAR,2026-06-01T18:28:16Z,30.6,87.1,-3.3,26.1,1,0,CALM,0,0.0,,,10+,10.0,19,,FEW25000,1013.3,1010.3,,,,,,VFR,METAR KLAS 011656Z 00000KT 10SM FEW250 31/M03 A2992 RMK AO2 SLP103 T03061033
2026-06-01T15:56:00Z,2026-06-01,2026-06-01,METAR,2026-06-01T18:28:16Z,29.4,84.9,-2.8,27.0,1,30,NNE,3,3.5,,,10+,10.0,19,,FEW25000,1013.3,1010.4,,,,,,VFR,METAR KLAS 011556Z 03003KT 10SM FEW250 29/M03 A2992 RMK AO2 SLP104 T02941028
2026-06-01T14:56:00Z,2026-06-01,2026-06-01,METAR,2026-06-01T18:28:16Z,27.8,82.0,-4.4,24.1,1,40,NE,5,5.8,,,10+,10.0,19,,FEW25000,1013.3,1010.3,,,,,,VFR,METAR KLAS 011456Z 04005KT 10SM FEW250 28/M04 A2992 RMK AO2 SLP103 T02781044 53015
2026-06-01T13:56:00Z,2026-06-01,2026-06-01,METAR,2026-06-01T18:28:16Z,25.6,78.1,-2.8,27.0,1,0,CALM,0,0.0,,,10+,10.0,19,,FEW25000,1012.6,1009.8,,,,,,VFR,METAR KLAS 011356Z 00000KT 10SM FEW250 26/M03 A2990 RMK AO2 SLP098 T02561028 $
2026-06-01T12:56:00Z,2026-06-01,2026-06-01,METAR,2026-06-01T18:28:16Z,23.3,73.9,-2.8,27.0,1,0,CALM,0,0.0,,,10+,10.0,19,,FEW25000,1011.9,1009.3,,,,,,VFR,METAR KLAS 011256Z 00000KT 10SM FEW250 23/M03 A2988 RMK AO2 SLP093 T02331028
2026-06-01T20:56:00Z,2026-06-01,2026-06-01,METAR,2026-06-01T21:52:53Z,36.1,97.0,-4.4,24.1,1,60,ENE,9,10.4,,,10+,10.0,19,,FEW12000 FEW25000,1011.6,1008.3,,,,,,VFR,METAR KLAS 012056Z 06009KT 10SM FEW120 FEW250 36/M04 A2987 RMK AO2 SLP083 T03611044 58017
2026-06-01T19:56:00Z,2026-06-01,2026-06-01,METAR,2026-06-01T21:52:53Z,34.4,93.9,-3.9,25.0,1,350,N,4,4.6,,,10+,10.0,19,,FEW12000 FEW25000,1012.3,1009.2,,,,,,VFR,METAR KLAS 011956Z 35004KT 10SM FEW120 FEW250 34/M04 A2989 RMK AO2 SLP092 T03441039
2026-06-01T18:56:00Z,2026-06-01,2026-06-01,METAR,2026-06-01T21:52:53Z,33.3,91.9,-2.8,27.0,1,50,NE,6,6.9,,,10+,10.0,19,,FEW12000 FEW25000,1013,1009.9,,,,,,VFR,METAR KLAS 011856Z 05006KT 10SM FEW120 FEW250 33/M03 A2991 RMK AO2 SLP099 T03331028
2026-06-02T04:56:00Z,2026-06-02,2026-06-01,METAR,2026-06-02T05:16:50Z,32.2,90.0,-3.3,26.1,1,200,SSW,6,6.9,,,10+,10.0,,,,1011.3,1008.2,,,,,,VFR,METAR KLAS 020456Z 20006KT 10SM CLR 32/M03 A2986 RMK AO2 SLP082 T03221033
2026-06-02T03:56:00Z,2026-06-02,2026-06-01,METAR,2026-06-02T05:16:50Z,33.3,91.9,-1.7,28.9,1,230,SW,9,10.4,,,10+,10.0,,,,1010.2,1007.3,,,,,,VFR,METAR KLAS 020356Z 23009KT 10SM CLR 33/M02 A2983 RMK AO2 SLP073 T03331017
2026-06-02T02:56:00Z,2026-06-02,2026-06-01,METAR,2026-06-02T05:16:50Z,34.4,93.9,-2.2,28.0,1,240,WSW,10,11.5,,,10+,10.0,19,,FEW25000,1009.6,1006.5,,,,,,VFR,METAR KLAS 020256Z 24010KT 10SM FEW250 34/M02 A2981 RMK AO2 SLP065 T03441022 53001
2026-06-02T01:56:00Z,2026-06-02,2026-06-01,METAR,2026-06-02T05:16:50Z,35.6,96.1,-3.9,25.0,1,100,E,8,9.2,,,10+,10.0,,,,1009.2,1006.2,,,,,,VFR,METAR KLAS 020156Z 10008KT 10SM CLR 36/M04 A2980 RMK AO2 SLP062 T03561039
2026-06-02T00:56:00Z,2026-06-02,2026-06-01,METAR,2026-06-02T05:16:50Z,36.1,97.0,-4.4,24.1,1,120,ESE,5,5.8,,,10+,10.0,19,,FEW25000,1009.2,1006.1,,,,,,VFR,METAR KLAS 020056Z 12005KT 10SM FEW250 36/M04 A2980 RMK AO2 SLP061 T03611044
2026-06-02T00:41:00Z,2026-06-02,2026-06-01,SPECI,2026-06-02T05:16:50Z,36.1,97.0,-5,23.0,1,0,CALM,0,0.0,,,10+,10.0,19,,FEW25000,1008.9,,,,,,,VFR,SPECI KLAS 020041Z 00000KT 10SM FEW250 36/M05 A2979 RMK AO2 T03611050
2026-06-01T23:56:00Z,2026-06-01,2026-06-01,METAR,2026-06-02T05:16:50Z,36.7,98.1,-5,23.0,1,,,,,,,10+,10.0,19,,FEW25000,1009.6,1006.5,,,,,,VFR,METAR KLAS 012356Z 10SM FEW250 37/M05 A2981 RMK AO2 SLP065 T03671050 10372 20322 56019
2026-06-01T22:56:00Z,2026-06-01,2026-06-01,METAR,2026-06-02T05:16:50Z,36.1,97.0,-5.6,21.9,1,VRB,VRB,3,3.5,,,10+,10.0,,,,1009.9,1007,,,,,,VFR,METAR KLAS 012256Z VRB03KT 10SM CLR 36/M06 A2982 RMK AO2 SLP070 T03611056
2026-06-02T10:56:00Z,2026-06-02,2026-06-02,METAR,2026-06-02T11:07:36Z,26.7,80.1,-2.2,28.0,1,190,S,6,6.9,,,10+,10.0,19,,FEW25000,1012.3,1009.1,,,,,,VFR,METAR KLAS 021056Z 19006KT 10SM FEW250 27/M02 A2989 RMK AO2 SLP091 T02671022 $
2026-06-02T09:56:00Z,2026-06-02,2026-06-02,METAR,2026-06-02T11:07:36Z,26.7,80.1,-2.2,28.0,1,260,W,4,4.6,,,10+,10.0,19,,FEW25000,1011.9,1009,,,,,,VFR,METAR KLAS 020956Z 26004KT 10SM FEW250 27/M02 A2988 RMK AO2 SLP090 T02671022 $
2026-06-02T08:56:00Z,2026-06-02,2026-06-02,METAR,2026-06-02T11:07:36Z,28.3,82.9,-2.2,28.0,1,200,SSW,5,5.8,,,10+,10.0,,,,1011.9,1008.6,,,,,,VFR,METAR KLAS 020856Z 20005KT 10SM CLR 28/M02 A2988 RMK AO2 SLP086 T02831022 50001 $
2026-06-02T07:56:00Z,2026-06-02,2026-06-02,METAR,2026-06-02T11:07:36Z,28.9,84.0,-2.8,27.0,1,180,S,5,5.8,,,10+,10.0,,,,1011.9,1008.7,,,,,,VFR,METAR KLAS 020756Z 18005KT 10SM CLR 29/M03 A2988 RMK AO2 SLP087 T02891028 403720233 $
2026-06-02T06:56:00Z,2026-06-02,2026-06-01,METAR,2026-06-02T11:07:36Z,30,86.0,-3.3,26.1,1,190,S,5,5.8,,,10+,10.0,,,,1011.9,1008.9,,,,,,VFR,METAR KLAS 020656Z 19005KT 10SM CLR 30/M03 A2988 RMK AO2 SLP089 T03001033
2026-06-02T05:56:00Z,2026-06-02,2026-06-01,METAR,2026-06-02T11:07:36Z,30.6,87.1,-2.8,27.0,1,180,S,7,8.1,,,10+,10.0,,,,1011.6,1008.6,,,,,,VFR,METAR KLAS 020556Z 18007KT 10SM CLR 31/M03 A2987 RMK AO2 SLP086 T03061028 10367 20306 51020
2026-06-02T16:56:00Z,2026-06-02,2026-06-02,METAR,2026-06-02T17:08:09Z,31.7,89.1,-1.1,30.0,1,350,N,3,3.5,,,10+,10.0,19,,FEW25000,1015,1011.7,,,,,,VFR,METAR KLAS 021656Z 35003KT 10SM FEW250 32/M01 A2997 RMK AO2 SLP117 T03171011
2026-06-02T15:56:00Z,2026-06-02,2026-06-02,METAR,2026-06-02T17:08:09Z,29.4,84.9,-1.1,30.0,1,0,CALM,0,0.0,,,10+,10.0,19,,FEW25000,1015,1011.9,,,,,,VFR,METAR KLAS 021556Z COR 00000KT 10SM FEW250 29/M01 A2997 RMK AO2 SLP119 T02941011
2026-06-02T14:56:00Z,2026-06-02,2026-06-02,METAR,2026-06-02T17:08:09Z,27.8,82.0,-1.1,30.0,1,310,NW,4,4.6,,,10+,10.0,19,,FEW25000,1014.6,1011.6,,,,,,VFR,METAR KLAS 021456Z 31004KT 10SM FEW250 28/M01 A2996 RMK AO2 SLP116 T02781011 51018 $
2026-06-02T13:56:00Z,2026-06-02,2026-06-02,METAR,2026-06-02T17:08:09Z,26.1,79.0,-0.6,30.9,1,280,W,3,3.5,,,10+,10.0,19,,FEW25000,1014,1010.9,,,,,,VFR,METAR KLAS 021356Z 28003KT 10SM FEW250 26/M01 A2994 RMK AO2 SLP109 T02611006 $
2026-06-02T12:56:00Z,2026-06-02,2026-06-02,METAR,2026-06-02T17:08:09Z,25,77.0,0,32.0,1,0,CALM,0,0.0,,,10+,10.0,19,,FEW25000,1013.3,1010.4,,,,,,VFR,METAR KLAS 021256Z 00000KT 10SM FEW250 25/00 A2992 RMK AO2 SLP104 T02500000 $
2026-06-02T11:56:00Z,2026-06-02,2026-06-02,METAR,2026-06-02T17:08:09Z,26.1,79.0,0.6,33.1,1,190,S,6,6.9,,,10+,10.0,19,,FEW25000,1012.6,1009.6,,,,,,VFR,METAR KLAS 021156Z 19006KT 10SM FEW250 26/01 A2990 RMK AO2 SLP096 T02610006 10306 20261 53008 $
2026-06-02T20:56:00Z,2026-06-02,2026-06-02,METAR,2026-06-02T21:35:01Z,35.6,96.1,-2.8,27.0,1,VRB,VRB,4,4.6,,,10+,10.0,44,,FEW15000 SCT25000,1013.3,1010.2,,,,,,VFR,METAR KLAS 022056Z VRB04KT 10SM FEW150 SCT250 36/M03 A2992 RMK AO2 SLP102 T03561028 58013
2026-06-02T19:56:00Z,2026-06-02,2026-06-02,METAR,2026-06-02T21:35:01Z,35,95.0,-2.2,28.0,1,VRB,VRB,4,4.6,,,10+,10.0,19,,FEW25000,1014,1010.8,,,,,,VFR,METAR KLAS 021956Z VRB04KT 10SM FEW250 35/M02 A2994 RMK AO2 SLP108 T03501022
2026-06-02T19:08:00Z,2026-06-02,2026-06-02,SPECI,2026-06-02T21:35:01Z,35,95.0,-1.1,30.0,1,VRB,VRB,4,4.6,,,10+,10.0,19,,FEW25000,1014.3,,,,,,,VFR,SPECI KLAS 021908Z VRB04KT 10SM FEW250 35/M01 A2995 RMK AO2 T03501011
2026-06-02T19:06:00Z,2026-06-02,2026-06-02,SPECI,2026-06-02T21:35:01Z,35,95.0,-1.1,30.0,1,,,,,,,10+,10.0,19,,FEW25000,1014.3,,,,,,,VFR,SPECI KLAS 021906Z 10SM FEW250 35/M01 A2995 RMK AO2 T03501011
2026-06-02T18:56:00Z,2026-06-02,2026-06-02,METAR,2026-06-02T21:35:01Z,35,95.0,-0.6,30.9,1,80,E,9,10.4,,,10+,10.0,19,,FEW25000,1014.3,1011.3,,,,,,VFR,METAR KLAS 021856Z 08009KT 10SM FEW250 35/M01 A2995 RMK AO2 SLP113 T03501006
2026-06-02T17:56:00Z,2026-06-02,2026-06-02,METAR,2026-06-02T21:35:01Z,33.3,91.9,0,32.0,1,VRB,VRB,4,4.6,,,10+,10.0,19,,FEW25000,1014.6,1011.6,,,,,,VFR,METAR KLAS 021756Z VRB04KT 10SM FEW250 33/00 A2996 RMK AO2 SLP116 T03330000 10333 20244 50002
2026-06-03T04:56:00Z,2026-06-03,2026-06-02,METAR,2026-06-03T05:32:28Z,32.8,91.0,-2.8,27.0,1,220,SW,7,8.1,,,10+,10.0,19,,FEW25000,1012.3,1009.1,,,,,,VFR,METAR KLAS 030456Z 22007KT 10SM FEW250 33/M03 A2989 RMK AO2 SLP091 T03281028 $
2026-06-03T03:56:00Z,2026-06-03,2026-06-02,METAR,2026-06-03T05:32:28Z,34.4,93.9,-3.9,25.0,1,180,S,4,4.6,,,10+,10.0,44,,SCT25000,1011.6,1008.5,,,,,,VFR,METAR KLAS 030356Z 18004KT 10SM SCT250 34/M04 A2987 RMK AO2 SLP085 T03441039 $
2026-06-03T02:56:00Z,2026-06-03,2026-06-02,METAR,2026-06-03T05:32:28Z,35.6,96.1,-3.3,26.1,1,150,SSE,6,6.9,,,10+,10.0,75,25000,BKN25000,1011.3,1008.2,,,,,,VFR,METAR KLAS 030256Z 15006KT 10SM BKN250 36/M03 A2986 RMK AO2 SLP082 T03561033 55000
2026-06-03T01:56:00Z,2026-06-03,2026-06-02,METAR,2026-06-03T05:32:28Z,36.7,98.1,-4.4,24.1,1,140,SE,7,8.1,,,10+,10.0,75,25000,FEW10000 BKN25000,1010.9,1007.8,,,,,,VFR,METAR KLAS 030156Z 14007KT 10SM FEW100 BKN250 37/M04 A2985 RMK AO2 SLP078 T03671044
2026-06-03T00:56:00Z,2026-06-03,2026-06-02,METAR,2026-06-03T05:32:28Z,36.7,98.1,-3.3,26.1,1,VRB,VRB,3,3.5,,,10+,10.0,75,25000,FEW10000 BKN25000,1010.9,1008,,,,,,VFR,METAR KLAS 030056Z VRB03KT 10SM FEW100 BKN250 37/M03 A2985 RMK AO2 SLP080 T03671033
2026-06-03T00:04:00Z,2026-06-03,2026-06-02,SPECI,2026-06-03T05:32:28Z,37.2,99.0,-3.3,26.1,1,130,SE,5,5.8,,,10+,10.0,75,25000,FEW10000 BKN25000,1011.3,,,,,,,VFR,SPECI KLAS 030004Z 13005KT 10SM FEW100 BKN250 37/M03 A2986 RMK AO2 T03721033
2026-06-02T23:56:00Z,2026-06-02,2026-06-02,METAR,2026-06-03T05:32:28Z,37.8,100.0,-3.3,26.1,1,VRB,VRB,6,6.9,15,17.3,10+,10.0,75,25000,FEW10000 BKN25000,1011.3,1008.1,,,,,,VFR,METAR KLAS 022356Z VRB06G15KT 10SM FEW100 BKN250 38/M03 A2986 RMK AO2 SLP081 T03781033 10383 20333 56019
2026-06-02T22:56:00Z,2026-06-02,2026-06-02,METAR,2026-06-03T05:32:28Z,36.7,98.1,-2.8,27.0,1,VRB,VRB,3,3.5,,,10+,10.0,75,25000,FEW10000 BKN25000,1011.9,1008.8,,,,,,VFR,METAR KLAS 022256Z VRB03KT 10SM FEW100 BKN250 37/M03 A2988 RMK AO2 SLP088 T03671028
2026-06-03T10:56:00Z,2026-06-03,2026-06-03,METAR,2026-06-03T11:30:38Z,26.7,80.1,-3.9,25.0,1,0,CALM,0,0.0,,,10+,10.0,44,,SCT25000,1013,1009.8,,,,,,VFR,METAR KLAS 031056Z 00000KT 10SM SCT250 27/M04 A2991 RMK AO2 SLP098 T02671039 $
2026-06-03T09:56:00Z,2026-06-03,2026-06-03,METAR,2026-06-03T11:30:38Z,28.3,82.9,-3.3,26.1,1,190,S,5,5.8,,,10+,10.0,44,,SCT25000,1012.6,1009.4,,,,,,VFR,METAR KLAS 030956Z 19005KT 10SM SCT250 28/M03 A2990 RMK AO2 SLP094 T02831033 $
2026-06-03T08:56:00Z,2026-06-03,2026-06-03,METAR,2026-06-03T11:30:38Z,28.3,82.9,-3.9,25.0,1,180,S,8,9.2,,,10+,10.0,19,,FEW25000,1012.6,1009.5,,,,,,VFR,METAR KLAS 030856Z 18008KT 10SM FEW250 28/M04 A2990 RMK AO2 SLP095 T02831039 51002 $
2026-06-03T07:56:00Z,2026-06-03,2026-06-03,METAR,2026-06-03T11:30:38Z,28.9,84.0,-4.4,24.1,1,210,SSW,6,6.9,,,10+,10.0,19,,FEW25000,1012.6,1009.5,,,,,,VFR,METAR KLAS 030756Z 21006KT 10SM FEW250 29/M04 A2990 RMK AO2 SLP095 T02891044 403830244 $
2026-06-03T06:56:00Z,2026-06-03,2026-06-02,METAR,2026-06-03T11:30:38Z,30,86.0,-3.3,26.1,1,200,SSW,4,4.6,,,10+,10.0,19,,FEW25000,1012.6,1009.5,,,,,,VFR,METAR KLAS 030656Z 20004KT 10SM FEW250 30/M03 A2990 RMK AO2 SLP095 T03001033 $
2026-06-03T05:56:00Z,2026-06-03,2026-06-02,METAR,2026-06-03T11:30:38Z,32.2,90.0,-3.3,26.1,1,190,S,6,6.9,,,10+,10.0,19,,FEW25000,1012.6,1009.3,,,,,,VFR,METAR KLAS 030556Z 19006KT 10SM FEW250 32/M03 A2990 RMK AO2 SLP093 T03221033 10378 20317 51011 $
2026-06-03T16:56:00Z,2026-06-03,2026-06-03,METAR,2026-06-03T17:34:18Z,32.2,90.0,-1.7,28.9,1,0,CALM,0,0.0,,,10+,10.0,75,25000,FEW20000 BKN25000,1014.6,1011.4,,,,,,VFR,METAR KLAS 031656Z 00000KT 10SM FEW200 BKN250 32/M02 A2996 RMK AO2 SLP114 T03221017
2026-06-03T15:56:00Z,2026-06-03,2026-06-03,METAR,2026-06-03T17:34:18Z,30.6,87.1,-1.7,28.9,1,0,CALM,0,0.0,,,10+,10.0,75,25000,SCT20000 BKN25000,1014.6,1011.6,,,,,,VFR,METAR KLAS 031556Z 00000KT 10SM SCT200 BKN250 31/M02 A2996 RMK AO2 SLP116 T03061017
2026-06-03T14:56:00Z,2026-06-03,2026-06-03,METAR,2026-06-03T17:34:18Z,28.9,84.0,-1.7,28.9,1,0,CALM,0,0.0,,,10+,10.0,75,25000,FEW15000 BKN25000,1014.6,1011.6,,,,,,VFR,METAR KLAS 031456Z 00000KT 10SM FEW150 BKN250 29/M02 A2996 RMK AO2 SLP116 T02891017 51014
2026-06-03T13:56:00Z,2026-06-03,2026-06-03,METAR,2026-06-03T17:34:18Z,26.7,80.1,0,32.0,1,0,CALM,0,0.0,,,10+,10.0,75,25000,FEW15000 BKN25000,1014.3,1011.2,,,,,,VFR,METAR KLAS 031356Z 00000KT 10SM FEW150 BKN250 27/00 A2995 RMK AO2 SLP112 T02670000 $
2026-06-03T12:56:00Z,2026-06-03,2026-06-03,METAR,2026-06-03T17:34:18Z,25.6,78.1,-2.8,27.0,1,0,CALM,0,0.0,,,10+,10.0,75,25000,FEW15000 BKN25000,1014,1010.8,,,,,,VFR,METAR KLAS 031256Z 00000KT 10SM FEW150 BKN250 26/M03 A2994 RMK AO2 SLP108 T02561028 $
2026-06-03T11:56:00Z,2026-06-03,2026-06-03,METAR,2026-06-03T17:34:18Z,26.1,79.0,-3.3,26.1,1,0,CALM,0,0.0,,,10+,10.0,75,25000,BKN25000,1013.3,1010,,,,,,VFR,METAR KLAS 031156Z 00000KT 10SM BKN250 26/M03 A2992 RMK AO2 SLP100 T02611033 10322 20256 53005 $
2026-06-03T21:06:00Z,2026-06-03,2026-06-03,SPECI,2026-06-03T21:36:59Z,38.3,100.9,-2.8,27.0,1,130,SE,4,4.6,,,10+,10.0,44,,SCT25000,1011.9,,,,,,,VFR,SPECI KLAS 032106Z 13004KT 10SM SCT250 38/M03 A2988 RMK AO2 T03831028
2026-06-03T20:56:00Z,2026-06-03,2026-06-03,METAR,2026-06-03T21:36:59Z,38.3,100.9,-2.2,28.0,1,60,ENE,7,8.1,15,17.3,10+,10.0,44,,SCT25000,1011.9,1008.8,,,,,,VFR,METAR KLAS 032056Z 06007G15KT 10SM SCT250 38/M02 A2988 RMK AO2 SLP088 T03831022 58020
2026-06-03T19:56:00Z,2026-06-03,2026-06-03,METAR,2026-06-03T21:36:59Z,38.3,100.9,-2.8,27.0,1,VRB,VRB,4,4.6,,,10+,10.0,75,25000,FEW13000 FEW20000 BKN25000,1013.3,1009.9,,,,,,VFR,METAR KLAS 031956Z VRB04KT 10SM FEW130 FEW200 BKN250 38/M03 A2992 RMK AO2 SLP099 T03831028
2026-06-03T18:56:00Z,2026-06-03,2026-06-03,METAR,2026-06-03T21:36:59Z,35.6,96.1,-2.8,27.0,1,0,CALM,0,0.0,,,10+,10.0,75,25000,FEW13000 FEW20000 BKN25000,1014,1010.6,,,,,,VFR,METAR KLAS 031856Z 00000KT 10SM FEW130 FEW200 BKN250 36/M03 A2994 RMK AO2 SLP106 T03561028
2026-06-03T17:56:00Z,2026-06-03,2026-06-03,METAR,2026-06-03T21:36:59Z,34.4,93.9,-2.2,28.0,1,VRB,VRB,4,4.6,,,10+,10.0,75,25000,FEW13000 FEW20000 BKN25000,1014.3,1010.9,,,,,,VFR,METAR KLAS 031756Z VRB04KT 10SM FEW130 FEW200 BKN250 34/M02 A2995 RMK AO2 SLP109 T03441022 10344 20256 58005
2026-06-04T04:56:00Z,2026-06-04,2026-06-03,METAR,2026-06-04T05:27:37Z,33.9,93.0,-7.8,18.0,1,210,SSW,9,10.4,,,10+,10.0,,,,1010.2,1006.9,,,,,,VFR,METAR KLAS 040456Z 21009KT 10SM CLR 34/M08 A2983 RMK AO2 SLP069 T03391078 $
2026-06-04T03:56:00Z,2026-06-04,2026-06-03,METAR,2026-06-04T05:27:37Z,34.4,93.9,-7.8,18.0,1,230,SW,8,9.2,,,10+,10.0,,,,1009.6,1006.4,,,,,,VFR,METAR KLAS 040356Z 23008KT 10SM CLR 34/M08 A2981 RMK AO2 SLP064 T03441078 $
2026-06-04T02:56:00Z,2026-06-04,2026-06-03,METAR,2026-06-04T05:27:37Z,36.1,97.0,-6.7,19.9,1,230,SW,12,13.8,22,25.3,10+,10.0,19,,FEW25000,1009.2,1005.9,,,,,,VFR,METAR KLAS 040256Z 23012G22KT 10SM FEW250 36/M07 A2980 RMK AO2 SLP059 T03611067 55002
2026-06-04T01:56:00Z,2026-06-04,2026-06-03,METAR,2026-06-04T05:27:37Z,37.8,100.0,-3.3,26.1,1,250,WSW,9,10.4,,,10+,10.0,19,,FEW25000,1008.9,1005.6,,,,,,VFR,METAR KLAS 040156Z 25009KT 10SM FEW250 38/M03 A2979 RMK AO2 SLP056 T03781033
2026-06-04T00:56:00Z,2026-06-04,2026-06-03,METAR,2026-06-04T05:27:37Z,38.3,100.9,-4.4,24.1,1,0,CALM,0,0.0,,,10+,10.0,19,,FEW25000,1008.9,1005.6,,,,,,VFR,METAR KLAS 040056Z 00000KT 10SM FEW250 38/M04 A2979 RMK AO2 SLP056 T03831044
2026-06-03T23:56:00Z,2026-06-03,2026-06-03,METAR,2026-06-04T05:27:37Z,38.9,102.0,-5,23.0,1,170,S,4,4.6,,,10+,10.0,19,,FEW25000,1009.2,1006.1,,,,,,VFR,METAR KLAS 032356Z 17004KT 10SM FEW250 39/M05 A2980 RMK AO2 SLP061 T03891050 10394 20344 56026
2026-06-03T22:56:00Z,2026-06-03,2026-06-03,METAR,2026-06-04T05:27:37Z,38.3,100.9,-3.9,25.0,1,290,WNW,4,4.6,,,10+,10.0,19,,FEW25000,1010.2,1006.9,,,,,,VFR,METAR KLAS 032256Z 29004KT 10SM FEW250 38/M04 A2983 RMK AO2 SLP069 T03831039
2026-06-04T09:56:00Z,2026-06-04,2026-06-04,METAR,2026-06-04T10:27:50Z,28.3,82.9,-5.6,21.9,1,220,SW,6,6.9,,,10+,10.0,,,,1009.9,1006.5,,,,,,VFR,METAR KLAS 040956Z 22006KT 10SM CLR 28/M06 A2982 RMK AO2 SLP065 T02831056 $
2026-06-04T08:56:00Z,2026-06-04,2026-06-04,METAR,2026-06-04T10:27:50Z,29.4,84.9,-6.7,19.9,1,210,SSW,8,9.2,,,10+,10.0,,,,1010.2,1006.8,,,,,,VFR,METAR KLAS 040856Z 21008KT 10SM CLR 29/M07 A2983 RMK AO2 SLP068 T02941067 58002 $
2026-06-04T07:56:00Z,2026-06-04,2026-06-04,METAR,2026-06-04T10:27:50Z,29.4,84.9,-6.1,21.0,1,210,SSW,5,5.8,,,10+,10.0,,,,1010.2,1006.9,,,,,,VFR,METAR KLAS 040756Z 21005KT 10SM CLR 29/M06 A2983 RMK AO2 SLP069 T02941061 403940256 $
2026-06-04T06:56:00Z,2026-06-04,2026-06-03,METAR,2026-06-04T10:27:50Z,31.1,88.0,-6.7,19.9,1,200,SSW,6,6.9,,,10+,10.0,,,,1010.6,1007.1,,,,,,VFR,METAR KLAS 040656Z 20006KT 10SM CLR 31/M07 A2984 RMK AO2 SLP071 T03111067 $
2026-06-04T05:56:00Z,2026-06-04,2026-06-03,METAR,2026-06-04T10:27:50Z,32.2,90.0,-7.2,19.0,1,210,SSW,6,6.9,,,10+,10.0,,,,1010.2,1007,,,,,,VFR,METAR KLAS 040556Z 21006KT 10SM CLR 32/M07 A2983 RMK AO2 SLP070 T03221072 10394 20322 51011 $
2026-06-04T15:56:00Z,2026-06-04,2026-06-04,METAR,2026-06-04T16:05:38Z,31.7,89.1,0,32.0,1,20,NNE,5,5.8,,,10+,10.0,,,,1011.9,1008.5,,,,,,VFR,METAR KLAS 041556Z 02005KT 10SM CLR 32/00 A2988 RMK AO2 SLP085 T03170000
2026-06-04T14:56:00Z,2026-06-04,2026-06-04,METAR,2026-06-04T16:05:38Z,30,86.0,-1.7,28.9,1,0,CALM,0,0.0,,,10+,10.0,,,,1011.6,1008.2,,,,,,VFR,METAR KLAS 041456Z 00000KT 10SM CLR 30/M02 A2987 RMK AO2 SLP082 T03001017 51012 $
2026-06-04T13:56:00Z,2026-06-04,2026-06-04,METAR,2026-06-04T16:05:38Z,27.8,82.0,0,32.0,1,0,CALM,0,0.0,,,10+,10.0,,,,1011.3,1008.2,,,,,,VFR,METAR KLAS 041356Z 00000KT 10SM CLR 28/00 A2986 RMK AO2 SLP082 T02780000 $
2026-06-04T12:56:00Z,2026-06-04,2026-06-04,METAR,2026-06-04T16:05:38Z,26.7,80.1,-1.7,28.9,1,200,SSW,4,4.6,,,10+,10.0,,,,1010.9,1007.8,,,,,,VFR,METAR KLAS 041256Z 20004KT 10SM CLR 27/M02 A2985 RMK AO2 SLP078 T02671017 $
2026-06-04T11:56:00Z,2026-06-04,2026-06-04,METAR,2026-06-04T16:05:38Z,26.7,80.1,-2.2,28.0,1,0,CALM,0,0.0,,,10+,10.0,,,,1010.2,1007,,,,,,VFR,METAR KLAS 041156Z 00000KT 10SM CLR 27/M02 A2983 RMK AO2 SLP070 T02671022 10322 20267 53001 $
2026-06-04T10:56:00Z,2026-06-04,2026-06-04,METAR,2026-06-04T16:05:38Z,27.2,81.0,-2.8,27.0,1,200,SSW,6,6.9,,,10+,10.0,,,,1009.9,1006.7,,,,,,VFR,METAR KLAS 041056Z 20006KT 10SM CLR 27/M03 A2982 RMK AO2 SLP067 T02721028 $
2026-06-04T19:56:00Z,2026-06-04,2026-06-04,METAR,2026-06-04T20:37:13Z,38.3,100.9,-6.1,21.0,1,VRB,VRB,6,6.9,,,10+,10.0,,,,1009.9,1006.7,,,,,,VFR,METAR KLAS 041956Z VRB06KT 10SM CLR 38/M06 A2982 RMK AO2 SLP067 T03831061
2026-06-04T18:56:00Z,2026-06-04,2026-06-04,METAR,2026-06-04T20:37:13Z,37.8,100.0,-2.2,28.0,1,170,S,8,9.2,18,20.7,10+,10.0,,,,1010.6,1007.3,,,,,,VFR,METAR KLAS 041856Z 17008G18KT 130V200 10SM CLR 38/M02 A2984 RMK AO2 SLP073 T03781022
2026-06-04T17:56:00Z,2026-06-04,2026-06-04,METAR,2026-06-04T20:37:13Z,35,95.0,0,32.0,1,130,SE,3,3.5,,,10+,10.0,,,,1011.3,1008.1,,,,,,VFR,METAR KLAS 041756Z 13003KT 10SM CLR 35/00 A2986 RMK AO2 SLP081 T03500000 10350 20261 58001
2026-06-04T16:56:00Z,2026-06-04,2026-06-04,METAR,2026-06-04T20:37:13Z,33.9,93.0,-0.6,30.9,1,70,ENE,5,5.8,,,10+,10.0,,,,1011.6,1008.3,,,,,,VFR,METAR KLAS 041656Z 07005KT 10SM CLR 34/M01 A2987 RMK AO2 SLP083 T03391006
2026-06-05T04:56:00Z,2026-06-05,2026-06-04,METAR,2026-06-05T05:03:53Z,34.4,93.9,-6.7,19.9,1,210,SSW,8,9.2,,,10+,10.0,,,,1008.2,1004.9,,,,,,VFR,METAR KLAS 050456Z 21008KT 10SM CLR 34/M07 A2977 RMK AO2 SLP049 T03441067
2026-06-05T03:56:00Z,2026-06-05,2026-06-04,METAR,2026-06-05T05:03:53Z,35.6,96.1,-7.8,18.0,1,220,SW,10,11.5,,,10+,10.0,,,,1007.9,1004.5,,,,,,VFR,METAR KLAS 050356Z 22010KT 10SM CLR 36/M08 A2976 RMK AO2 SLP045 T03561078
2026-06-05T02:56:00Z,2026-06-05,2026-06-04,METAR,2026-06-05T05:03:53Z,36.7,98.1,-5.6,21.9,1,220,SW,12,13.8,,,10+,10.0,,,,1007.5,1004.3,,,,,,VFR,METAR KLAS 050256Z 22012KT 10SM CLR 37/M06 A2975 RMK AO2 SLP043 T03671056 53004
2026-06-05T01:56:00Z,2026-06-05,2026-06-04,METAR,2026-06-05T05:03:53Z,38.3,100.9,-4.4,24.1,1,230,SW,14,16.1,,,10+,10.0,,,,1007.2,1003.8,,,,,,VFR,METAR KLAS 050156Z 23014KT 10SM CLR 38/M04 A2974 RMK AO2 SLP038 T03831044
2026-06-05T00:56:00Z,2026-06-05,2026-06-04,METAR,2026-06-05T05:03:53Z,39.4,102.9,-3.9,25.0,1,240,WSW,9,10.4,20,23.0,10+,10.0,,,,1006.9,1003.6,,,,,,VFR,METAR KLAS 050056Z 24009G20KT 10SM CLR 39/M04 A2973 RMK AO2 SLP036 T03941039
2026-06-04T23:56:00Z,2026-06-04,2026-06-04,METAR,2026-06-05T05:03:53Z,40,104.0,-5.6,21.9,1,230,SW,6,6.9,,,10+,10.0,,,,1007.2,1003.8,,,,,,VFR,METAR KLAS 042356Z 23006KT 10SM CLR 40/M06 A2974 RMK AO2 SLP038 T04001056 10406 20344 56021
2026-06-04T22:56:00Z,2026-06-04,2026-06-04,METAR,2026-06-05T05:03:53Z,40,104.0,-6.1,21.0,1,210,SSW,10,11.5,15,17.3,10+,10.0,,,,1007.5,1004.3,,,,,,VFR,METAR KLAS 042256Z 21010G15KT 10SM CLR 40/M06 A2975 RMK AO2 SLP043 T04001061
2026-06-05T09:56:00Z,2026-06-05,2026-06-05,METAR,2026-06-05T10:35:22Z,30,86.0,-2.2,28.0,1,200,SSW,6,6.9,,,10+,10.0,,,,1008.5,1005.1,,,,,,VFR,METAR KLAS 050956Z 20006KT 10SM CLR 30/M02 A2978 RMK AO2 SLP051 T03001022
2026-06-05T08:56:00Z,2026-06-05,2026-06-05,METAR,2026-06-05T10:35:22Z,30.6,87.1,-3.3,26.1,1,190,S,7,8.1,,,10+,10.0,,,,1008.5,1005,,,,,,VFR,METAR KLAS 050856Z 19007KT 10SM CLR 31/M03 A2978 RMK AO2 SLP050 T03061033 50001
2026-06-05T07:56:00Z,2026-06-05,2026-06-05,METAR,2026-06-05T10:35:22Z,31.7,89.1,-3.9,25.0,1,190,S,8,9.2,,,10+,10.0,,,,1008.5,1005.1,,,,,,VFR,METAR KLAS 050756Z 19008KT 10SM CLR 32/M04 A2978 RMK AO2 SLP051 T03171039 404060261
2026-06-05T06:56:00Z,2026-06-05,2026-06-04,METAR,2026-06-05T10:35:22Z,31.7,89.1,-5.6,21.9,1,200,SSW,7,8.1,,,10+,10.0,,,,1008.5,1005,,,,,,VFR,METAR KLAS 050656Z 20007KT 10SM CLR 32/M06 A2978 RMK AO2 SLP050 T03171056
2026-06-05T05:56:00Z,2026-06-05,2026-06-04,METAR,2026-06-05T10:35:22Z,32.8,91.0,-5.6,21.9,1,180,S,5,5.8,,,10+,10.0,,,,1008.5,1005.1,,,,,,VFR,METAR KLAS 050556Z 18005KT 10SM CLR 33/M06 A2978 RMK AO2 SLP051 T03281056 10400 20328 51007
2026-06-05T14:56:00Z,2026-06-05,2026-06-05,METAR,2026-06-05T15:39:41Z,30,86.0,-0.6,30.9,1,0,CALM,0,0.0,,,10+,10.0,,,,1010.6,1007.2,,,,,,VFR,METAR KLAS 051456Z 00000KT 10SM CLR 30/M01 A2984 RMK AO2 SLP072 T03001006 51016
2026-06-05T13:56:00Z,2026-06-05,2026-06-05,METAR,2026-06-05T15:39:41Z,27.8,82.0,-1.1,30.0,1,0,CALM,0,0.0,,,10+,10.0,,,,1010.2,1006.8,,,,,,VFR,METAR KLAS 051356Z 00000KT 10SM CLR 28/M01 A2983 RMK AO2 SLP068 T02781011
2026-06-05T12:56:00Z,2026-06-05,2026-06-05,METAR,2026-06-05T15:39:41Z,26.7,80.1,-0.6,30.9,1,170,S,3,3.5,,,10+,10.0,,,,1009.6,1006.2,,,,,,VFR,METAR KLAS 051256Z 17003KT 10SM CLR 27/M01 A2981 RMK AO2 SLP062 T02671006
2026-06-05T11:56:00Z,2026-06-05,2026-06-05,METAR,2026-06-05T15:39:41Z,27.2,81.0,-1.1,30.0,1,0,CALM,0,0.0,,,10+,10.0,,,,1008.9,1005.5,,,,,,VFR,METAR KLAS 051156Z 00000KT 10SM CLR 27/M01 A2979 RMK AO2 SLP055 T02721011 10328 20272 51004
2026-06-05T10:56:00Z,2026-06-05,2026-06-05,METAR,2026-06-05T15:39:41Z,28.3,82.9,-1.1,30.0,1,210,SSW,6,6.9,,,10+,10.0,,,,1008.9,1005.4,,,,,,VFR,METAR KLAS 051056Z 21006KT 10SM CLR 28/M01 A2979 RMK AO2 SLP054 T02831011
2026-06-05T19:56:00Z,2026-06-05,2026-06-05,METAR,2026-06-05T20:31:00Z,38.3,100.9,-7.2,19.0,1,180,S,3,3.5,,,10+,10.0,,,,1008.5,1005.1,,,,,,VFR,METAR KLAS 051956Z 18003KT 10SM CLR 38/M07 A2978 RMK AO2 SLP051 T03831072
2026-06-05T18:56:00Z,2026-06-05,2026-06-05,METAR,2026-06-05T20:31:00Z,37.2,99.0,-1.7,28.9,1,180,S,8,9.2,16,18.4,10+,10.0,,,,1009.2,1005.8,,,,,,VFR,METAR KLAS 051856Z 18008G16KT 010V190 10SM CLR 37/M02 A2980 RMK AO2 SLP058 T03721017
2026-06-05T17:56:00Z,2026-06-05,2026-06-05,METAR,2026-06-05T20:31:00Z,35.6,96.1,-1.1,30.0,1,40,NE,3,3.5,,,10+,10.0,,,,1010.2,1006.7,,,,,,VFR,METAR KLAS 051756Z 04003KT 10SM CLR 36/M01 A2983 RMK AO2 SLP067 T03561011 10356 20267 58004
2026-06-05T16:56:00Z,2026-06-05,2026-06-05,METAR,2026-06-05T20:31:00Z,33.3,91.9,-1.7,28.9,1,VRB,VRB,3,3.5,,,10+,10.0,,,,1010.2,1007,,,,,,VFR,METAR KLAS 051656Z VRB03KT 10SM CLR 33/M02 A2983 RMK AO2 SLP070 T03331017
2026-06-05T15:56:00Z,2026-06-05,2026-06-05,METAR,2026-06-05T20:31:00Z,31.7,89.1,-2.2,28.0,1,0,CALM,0,0.0,,,10+,10.0,,,,1010.6,1007.4,,,,,,VFR,METAR KLAS 051556Z 00000KT 10SM CLR 32/M02 A2984 RMK AO2 SLP074 T03171022
2026-06-06T03:56:00Z,2026-06-06,2026-06-05,METAR,2026-06-06T04:42:05Z,35,95.0,-7.8,18.0,1,220,SW,7,8.1,,,10+,10.0,,,,1005.2,1001.8,,,,,,VFR,METAR KLAS 060356Z 22007KT 10SM CLR 35/M08 A2968 RMK AO2 SLP018 T03501078
2026-06-06T02:56:00Z,2026-06-06,2026-06-05,METAR,2026-06-06T04:42:05Z,36.7,98.1,-7.8,18.0,1,230,SW,12,13.8,,,10+,10.0,,,,1005.2,1001.9,,,,,,VFR,METAR KLAS 060256Z 23012KT 10SM CLR 37/M08 A2968 RMK AO2 SLP019 T03671078 55003
2026-06-06T01:56:00Z,2026-06-06,2026-06-05,METAR,2026-06-06T04:42:05Z,38.3,100.9,-11.1,12.0,1,220,SW,12,13.8,23,26.5,10+,10.0,,,,1005.2,1001.7,,,,,,VFR,METAR KLAS 060156Z 22012G23KT 10SM CLR 38/M11 A2968 RMK AO2 SLP017 T03831111
2026-06-06T00:56:00Z,2026-06-06,2026-06-05,METAR,2026-06-06T04:42:05Z,38.9,102.0,-9.4,15.1,1,230,SW,15,17.3,22,25.3,10+,10.0,,,,1005.2,1001.8,,,,,,VFR,METAR KLAS 060056Z 23015G22KT 10SM CLR 39/M09 A2968 RMK AO2 SLP018 T03891094
2026-06-05T23:56:00Z,2026-06-05,2026-06-05,METAR,2026-06-06T04:42:05Z,40,104.0,-7.8,18.0,1,220,SW,10,11.5,23,26.5,10+,10.0,,,,1005.5,1002.2,,,,,,VFR,METAR KLAS 052356Z 22010G23KT 10SM CLR 40/M08 A2969 RMK AO2 SLP022 T04001078 10406 20356 56020
2026-06-05T22:56:00Z,2026-06-05,2026-06-05,METAR,2026-06-06T04:42:05Z,40,104.0,-8.9,16.0,1,250,WSW,14,16.1,21,24.2,10+,10.0,,,,1006.2,1002.7,,,,,,VFR,METAR KLAS 052256Z 25014G21KT 10SM CLR 40/M09 A2971 RMK AO2 SLP027 T04001089
2026-06-05T21:56:00Z,2026-06-05,2026-06-05,METAR,2026-06-06T04:42:05Z,40,104.0,-7.2,19.0,1,250,WSW,13,15.0,,,10+,10.0,,,,1006.9,1003.4,,,,,,VFR,METAR KLAS 052156Z 25013KT 10SM CLR 40/M07 A2973 RMK AO2 SLP034 T04001072
2026-06-06T08:56:00Z,2026-06-06,2026-06-06,METAR,2026-06-06T09:11:34Z,30.6,87.1,-2.8,27.0,1,220,SW,10,11.5,,,10+,10.0,,,,1006.2,1002.7,,,,,,VFR,METAR KLAS 060856Z 22010KT 10SM CLR 31/M03 A2971 RMK AO2 SLP027 T03061028 51004
2026-06-06T07:56:00Z,2026-06-06,2026-06-06,METAR,2026-06-06T09:11:34Z,31.1,88.0,-3.9,25.0,1,210,SSW,13,15.0,,,10+,10.0,,,,1006.2,1002.7,,,,,,VFR,METAR KLAS 060756Z 21013KT 10SM CLR 31/M04 A2971 RMK AO2 SLP027 T03111039 404060267
2026-06-06T06:56:00Z,2026-06-06,2026-06-05,METAR,2026-06-06T09:11:34Z,32.2,90.0,-2.8,27.0,1,220,SW,12,13.8,18,20.7,10+,10.0,,,,1006.2,1002.7,,,,,,VFR,METAR KLAS 060656Z 22012G18KT 10SM CLR 32/M03 A2971 RMK AO2 SLP027 T03221028
2026-06-06T05:56:00Z,2026-06-06,2026-06-05,METAR,2026-06-06T09:11:34Z,33.3,91.9,-6.7,19.9,1,220,SW,7,8.1,,,10+,10.0,,,,1005.8,1002.3,,,,,,VFR,METAR KLAS 060556Z 22007KT 10SM CLR 33/M07 A2970 RMK AO2 SLP023 T03331067 10400 20333 53005
2026-06-06T04:56:00Z,2026-06-06,2026-06-05,METAR,2026-06-06T09:11:34Z,33.9,93.0,-6.7,19.9,1,180,S,5,5.8,,,10+,10.0,,,,1005.5,1002,,,,,,VFR,METAR KLAS 060456Z 18005KT 10SM CLR 34/M07 A2969 RMK AO2 SLP020 T03391067
2026-06-06T13:56:00Z,2026-06-06,2026-06-06,METAR,2026-06-06T14:20:15Z,28.9,84.0,2.2,36.0,1,210,SSW,20,23.0,28,32.2,10+,10.0,,,,1006.9,1003.6,,,,,,VFR,METAR KLAS 061356Z 21020G28KT 10SM CLR 29/02 A2973 RMK AO2 PK WND 22031/1306 SLP036 T02890022
2026-06-06T12:56:00Z,2026-06-06,2026-06-06,METAR,2026-06-06T14:20:15Z,27.8,82.0,2.2,36.0,1,220,SW,19,21.9,29,33.4,10+,10.0,,,,1006.5,1003.2,,,,,,VFR,METAR KLAS 061256Z 22019G29KT 10SM CLR 28/02 A2972 RMK AO2 PK WND 22029/1251 SLP032 T02780022
2026-06-06T11:56:00Z,2026-06-06,2026-06-06,METAR,2026-06-06T14:20:15Z,27.8,82.0,2.2,36.0,1,200,SSW,12,13.8,21,24.2,10+,10.0,,,,1006.2,1002.8,,,,,,VFR,METAR KLAS 061156Z 20012G21KT 10SM CLR 28/02 A2971 RMK AO2 SLP028 T02780022 10328 20278 58000
2026-06-06T10:56:00Z,2026-06-06,2026-06-06,METAR,2026-06-06T14:20:15Z,28.9,84.0,1.1,34.0,1,180,S,7,8.1,17,19.6,10+,10.0,,,,1006.2,1002.8,,,,,,VFR,METAR KLAS 061056Z 18007G17KT 10SM CLR 29/01 A2971 RMK AO2 SLP028 T02890011
2026-06-06T09:56:00Z,2026-06-06,2026-06-06,METAR,2026-06-06T14:20:15Z,30,86.0,0,32.0,1,210,SSW,10,11.5,,,10+,10.0,,,,1006.5,1003,,,,,,VFR,METAR KLAS 060956Z 21010KT 10SM CLR 30/00 A2972 RMK AO2 SLP030 T03000000
2026-06-06T18:56:00Z,2026-06-06,2026-06-06,METAR,2026-06-06T19:56:35Z,35,95.0,-0.6,30.9,1,200,SSW,13,15.0,27,31.1,10+,10.0,,,,1007.2,1003.8,,,,,,VFR,METAR KLAS 061856Z 20013G27KT 10SM CLR 35/M01 A2974 RMK AO2 PK WND 21027/1847 SLP038 T03501006
2026-06-06T17:56:00Z,2026-06-06,2026-06-06,METAR,2026-06-06T19:56:35Z,34.4,93.9,0,32.0,1,220,SW,15,17.3,24,27.6,10+,10.0,,,,1007.5,1004.3,,,,,,VFR,METAR KLAS 061756Z 22015G24KT 10SM CLR 34/00 A2975 RMK AO2 PK WND 23029/1725 SLP043 T03440000 10344 20278 50005
2026-06-06T16:56:00Z,2026-06-06,2026-06-06,METAR,2026-06-06T19:56:35Z,32.8,91.0,1.1,34.0,1,210,SSW,15,17.3,30,34.5,10+,10.0,,,,1007.5,1004.3,,,,,,VFR,METAR KLAS 061656Z 21015G30KT 10SM CLR 33/01 A2975 RMK AO2 PK WND 20031/1642 SLP043 T03280011
2026-06-06T15:56:00Z,2026-06-06,2026-06-06,METAR,2026-06-06T19:56:35Z,31.7,89.1,2.8,37.0,1,180,S,14,16.1,24,27.6,10+,10.0,,,,1007.5,1004.3,,,,,,VFR,METAR KLAS 061556Z 18014G24KT 10SM CLR 32/03 A2975 RMK AO2 PK WND 20032/1500 SLP043 T03170028
2026-06-06T14:56:00Z,2026-06-06,2026-06-06,METAR,2026-06-06T19:56:35Z,30,86.0,2.2,36.0,1,210,SSW,21,24.2,29,33.4,10+,10.0,,,,1007.2,1003.7,,,,,,VFR,METAR KLAS 061456Z 21021G29KT 10SM CLR 30/02 A2974 RMK AO2 PK WND 20031/1418 SLP037 T03000022 51009
2026-06-07T04:56:00Z,2026-06-07,2026-06-06,METAR,2026-06-07T05:12:24Z,32.2,90.0,1.1,34.0,1,190,S,9,10.4,23,26.5,10+,10.0,44,,FEW15000 SCT20000,1003.8,1000.5,,,,,,VFR,METAR KLAS 070456Z 19009G23KT 10SM FEW150 SCT200 32/01 A2964 RMK AO2 PK WND 22028/0410 SLP005 T03220011
2026-06-07T03:56:00Z,2026-06-07,2026-06-06,METAR,2026-06-07T05:12:24Z,33.3,91.9,-1.1,30.0,1,220,SW,16,18.4,27,31.1,10+,10.0,19,,FEW15000 FEW20000,1003.1,999.9,,,,,,VFR,METAR KLAS 070356Z 22016G27KT 10SM FEW150 FEW200 33/M01 A2962 RMK AO2 PK WND 21027/0351 SLP999 T03331011
2026-06-07T02:56:00Z,2026-06-07,2026-06-06,METAR,2026-06-07T05:12:24Z,35,95.0,-5,23.0,1,240,WSW,17,19.6,23,26.5,10+,10.0,19,,FEW15000 FEW20000,1003.1,999.7,,,,,,VFR,METAR KLAS 070256Z 24017G23KT 10SM FEW150 FEW200 35/M05 A2962 RMK AO2 PK WND 25027/0219 SLP997 T03501050 55004
2026-06-07T01:56:00Z,2026-06-07,2026-06-06,METAR,2026-06-07T05:12:24Z,36.1,97.0,-6.1,21.0,1,230,SW,14,16.1,22,25.3,10+,10.0,44,,FEW15000 SCT20000,1002.8,999.7,,,,,,VFR,METAR KLAS 070156Z 23014G22KT 10SM FEW150 SCT200 36/M06 A2961 RMK AO2 PK WND 21028/0130 SLP997 T03611061
2026-06-07T00:56:00Z,2026-06-07,2026-06-06,METAR,2026-06-07T05:12:24Z,36.1,97.0,-6.7,19.9,1,230,SW,11,12.7,26,29.9,10+,10.0,44,,FEW15000 SCT20000,1003.1,999.7,,,,,,VFR,METAR KLAS 070056Z 23011G26KT 10SM FEW150 SCT200 36/M07 A2962 RMK AO2 PK WND 22034/2358 SLP997 T03611067
2026-06-06T23:56:00Z,2026-06-06,2026-06-06,METAR,2026-06-07T05:12:24Z,37.2,99.0,-6.1,21.0,1,210,SSW,22,25.3,36,41.4,10+,10.0,44,,FEW13000 SCT20000,1003.5,1000.2,,,,,,VFR,METAR KLAS 062356Z 21022G36KT 10SM FEW130 SCT200 37/M06 A2963 RMK AO2 PK WND 21036/2349 SLP002 T03721061 10383 20344 56019
2026-06-06T22:56:00Z,2026-06-06,2026-06-06,METAR,2026-06-07T05:12:24Z,37.8,100.0,-5,23.0,1,220,SW,14,16.1,30,34.5,10+,10.0,44,,FEW13000 SCT20000,1004.1,1000.8,,,,,,VFR,METAR KLAS 062256Z 22014G30KT 10SM FEW130 SCT200 38/M05 A2965 RMK AO2 PK WND 24034/2202 SLP008 T03781050
2026-06-07T08:56:00Z,2026-06-07,2026-06-07,METAR,2026-06-07T09:49:00Z,27.8,82.0,2.8,37.0,1,190,S,9,10.4,22,25.3,10+,10.0,44,,FEW15000 SCT20000,1004.1,1000.8,,,,,,VFR,METAR KLAS 070856Z 19009G22KT 10SM FEW150 SCT200 28/03 A2965 RMK AO2 PK WND 16026/0837 SLP008 T02780028 53001
2026-06-07T07:56:00Z,2026-06-07,2026-06-07,METAR,2026-06-07T09:49:00Z,28.3,82.9,3.9,39.0,1,180,S,9,10.4,21,24.2,10+,10.0,44,,FEW15000 SCT20000,1003.8,1000.4,,,,,,VFR,METAR KLAS 070756Z 18009G21KT 10SM FEW150 SCT200 28/04 A2964 RMK AO2 SLP004 T02830039 403830278
2026-06-07T06:56:00Z,2026-06-07,2026-06-06,METAR,2026-06-07T09:49:00Z,29.4,84.9,3.3,37.9,1,200,SSW,6,6.9,,,10+,10.0,75,20000,SCT15000 BKN20000,1004.1,1000.9,,,,,,VFR,METAR KLAS 070656Z 20006KT 10SM SCT150 BKN200 29/03 A2965 RMK AO2 SLP009 T02940033
2026-06-07T05:56:00Z,2026-06-07,2026-06-06,METAR,2026-06-07T09:49:00Z,31.1,88.0,2.8,37.0,1,170,S,7,8.1,16,18.4,10+,10.0,44,,FEW15000 SCT20000,1004.1,1000.7,,,,,,VFR,METAR KLAS 070556Z 17007G16KT 130V200 10SM FEW150 SCT200 31/03 A2965 RMK AO2 SLP007 T03110028 10378 20311 52009
2026-06-07T13:56:00Z,2026-06-07,2026-06-07,METAR,2026-06-07T14:32:29Z,26.7,80.1,0,32.0,1,210,SSW,15,17.3,23,26.5,10+,10.0,19,,FEW15000 FEW20000,1005.8,1002.6,,,,,,VFR,METAR KLAS 071356Z 21015G23KT 10SM FEW150 FEW200 27/00 A2970 RMK AO2 PK WND 22026/1313 SLP026 T02670000 $
2026-06-07T12:56:00Z,2026-06-07,2026-06-07,METAR,2026-06-07T14:32:29Z,26.1,79.0,0,32.0,1,210,SSW,15,17.3,22,25.3,10+,10.0,44,,FEW15000 SCT20000,1005.2,1002,,,,,,VFR,METAR KLAS 071256Z 21015G22KT 10SM FEW150 SCT200 26/00 A2968 RMK AO2 PK WND 20026/1159 SLP020 T02610000 $
2026-06-07T11:56:00Z,2026-06-07,2026-06-07,METAR,2026-06-07T14:32:29Z,26.1,79.0,0,32.0,1,200,SSW,13,15.0,25,28.8,10+,10.0,44,,FEW15000 SCT20000,1004.5,1001.4,,,,,,VFR,METAR KLAS 071156Z 20013G25KT 10SM FEW150 SCT200 26/00 A2966 RMK AO2 SLP014 T02610000 10311 20261 53004
2026-06-07T10:56:00Z,2026-06-07,2026-06-07,METAR,2026-06-07T14:32:29Z,26.7,80.1,0.6,33.1,1,200,SSW,16,18.4,29,33.4,10+,10.0,75,20000,SCT15000 BKN20000,1004.1,1000.8,,,,,,VFR,METAR KLAS 071056Z 20016G29KT 10SM SCT150 BKN200 27/01 A2965 RMK AO2 PK WND 21029/1049 SLP008 T02670006
2026-06-07T09:56:00Z,2026-06-07,2026-06-07,METAR,2026-06-07T14:32:29Z,27.2,81.0,1.7,35.1,1,200,SSW,10,11.5,23,26.5,10+,10.0,75,20000,SCT15000 BKN20000,1004.1,1000.7,,,,,,VFR,METAR KLAS 070956Z 20010G23KT 10SM SCT150 BKN200 27/02 A2965 RMK AO2 PK WND 18030/0928 SLP007 T02720017
2026-06-07T18:56:00Z,2026-06-07,2026-06-07,METAR,2026-06-07T19:57:35Z,33.9,93.0,-6.7,19.9,1,220,SW,17,19.6,26,29.9,10+,10.0,19,,FEW15000,1006.2,1003.2,,,,,,VFR,METAR KLAS 071856Z 22017G26KT 10SM FEW150 34/M07 A2971 RMK AO2 PK WND 22026/1855 SLP032 T03391067 $
2026-06-07T17:56:00Z,2026-06-07,2026-06-07,METAR,2026-06-07T19:57:35Z,32.8,91.0,-2.8,27.0,1,220,SW,16,18.4,24,27.6,10+,10.0,19,,FEW15000 FEW20000,1006.5,1003.1,,,,,,VFR,METAR KLAS 071756Z 22016G24KT 10SM FEW150 FEW200 33/M03 A2972 RMK AO2 PK WND 20030/1742 SLP031 T03281028 10328 20256 50005 $
2026-06-07T16:56:00Z,2026-06-07,2026-06-07,METAR,2026-06-07T19:57:35Z,31.7,89.1,-2.2,28.0,1,230,SW,17,19.6,21,24.2,10+,10.0,19,,FEW15000 FEW20000,1006.5,1003.1,,,,,,VFR,METAR KLAS 071656Z 23017G21KT 10SM FEW150 FEW200 32/M02 A2972 RMK AO2 SLP031 T03171022 $
2026-06-07T15:56:00Z,2026-06-07,2026-06-07,METAR,2026-06-07T19:57:35Z,30.6,87.1,-1.7,28.9,1,240,WSW,13,15.0,24,27.6,10+,10.0,19,,FEW15000 FEW20000,1006.5,1003.2,,,,,,VFR,METAR KLAS 071556Z 24013G24KT 10SM FEW150 FEW200 31/M02 A2972 RMK AO2 PK WND 21028/1501 SLP032 T03061017 $
2026-06-07T14:56:00Z,2026-06-07,2026-06-07,METAR,2026-06-07T19:57:35Z,28.3,82.9,-0.6,30.9,1,190,S,14,16.1,22,25.3,10+,10.0,19,,FEW15000 FEW20000,1005.8,1002.6,,,,,,VFR,METAR KLAS 071456Z 19014G22KT 10SM FEW150 FEW200 28/M01 A2970 RMK AO2 SLP026 T02831006 51012 $
2026-06-08T04:56:00Z,2026-06-08,2026-06-07,METAR,2026-06-08T05:19:04Z,31.1,88.0,-2.2,28.0,1,160,SSE,5,5.8,,,10+,10.0,,,,1005.5,1002.3,,,,,,VFR,METAR KLAS 080456Z 16005KT 10SM CLR 31/M02 A2969 RMK AO2 SLP023 T03111022 $
2026-06-08T03:56:00Z,2026-06-08,2026-06-07,METAR,2026-06-08T05:19:04Z,32.2,90.0,-3.9,25.0,1,220,SW,6,6.9,,,10+,10.0,,,,1004.5,1001.4,,,,,,VFR,METAR KLAS 080356Z 22006KT 10SM CLR 32/M04 A2966 RMK AO2 SLP014 T03221039 $
2026-06-08T02:56:00Z,2026-06-08,2026-06-07,METAR,2026-06-08T05:19:04Z,33.3,91.9,-5,23.0,1,250,WSW,11,12.7,,,10+,10.0,,,,1004.1,1001.2,,,,,,VFR,METAR KLAS 080256Z 25011KT 10SM CLR 33/M05 A2965 RMK AO2 SLP012 T03331050 53001 $
2026-06-08T01:56:00Z,2026-06-08,2026-06-07,METAR,2026-06-08T05:19:04Z,34.4,93.9,-6.7,19.9,1,220,SW,12,13.8,21,24.2,10+,10.0,,,,1004.1,1001.1,,,,,,VFR,METAR KLAS 080156Z 22012G21KT 10SM CLR 34/M07 A2965 RMK AO2 PK WND 24028/0101 SLP011 T03441067 $
2026-06-08T00:56:00Z,2026-06-08,2026-06-07,METAR,2026-06-08T05:19:04Z,35.6,96.1,-8.3,17.1,1,240,WSW,16,18.4,22,25.3,10+,10.0,,,,1003.8,1000.8,,,,,,VFR,METAR KLAS 080056Z 24016G22KT 10SM CLR 36/M08 A2964 RMK AO2 PK WND 24028/0046 SLP008 T03561083 $
2026-06-07T23:56:00Z,2026-06-07,2026-06-07,METAR,2026-06-08T05:19:04Z,36.1,97.0,-9.4,15.1,1,230,SW,13,15.0,25,28.8,10+,10.0,19,,FEW15000,1004.1,1001.1,,,,,,VFR,METAR KLAS 072356Z 23013G25KT 10SM FEW150 36/M09 A2965 RMK AO2 PK WND 24026/2300 SLP011 T03611094 10361 20322 58011 $
2026-06-07T22:56:00Z,2026-06-07,2026-06-07,METAR,2026-06-08T05:19:04Z,36.1,97.0,-11.1,12.0,1,230,SW,16,18.4,24,27.6,10+,10.0,19,,FEW15000,1004.5,1001.5,,,,,,VFR,METAR KLAS 072256Z 23016G24KT 10SM FEW150 36/M11 A2966 RMK AO2 PK WND 20027/2211 SLP015 T03611111 $
2026-06-08T10:56:00Z,2026-06-08,2026-06-08,METAR,2026-06-08T11:29:01Z,25,77.0,0,32.0,1,160,SSE,7,8.1,,,10+,10.0,19,,FEW25000,1007.2,1004.3,,,,,,VFR,METAR KLAS 081056Z 16007KT 10SM FEW250 25/00 A2974 RMK AO2 SLP043 T02500000 $
2026-06-08T09:56:00Z,2026-06-08,2026-06-08,METAR,2026-06-08T11:29:01Z,26.1,79.0,0.6,33.1,1,180,S,7,8.1,,,10+,10.0,,,,1006.9,1003.9,,,,,,VFR,METAR KLAS 080956Z 18007KT 10SM CLR 26/01 A2973 RMK AO2 SLP039 T02610006 $
2026-06-08T08:56:00Z,2026-06-08,2026-06-08,METAR,2026-06-08T11:29:01Z,27.8,82.0,1.1,34.0,1,190,S,8,9.2,,,10+,10.0,,,,1006.9,1003.8,,,,,,VFR,METAR KLAS 080856Z 19008KT 10SM CLR 28/01 A2973 RMK AO2 SLP038 T02780011 51010 $
2026-06-08T07:56:00Z,2026-06-08,2026-06-08,METAR,2026-06-08T11:29:01Z,28.3,82.9,1.1,34.0,1,220,SW,6,6.9,,,10+,10.0,,,,1006.5,1003.5,,,,,,VFR,METAR KLAS 080756Z 22006KT 10SM CLR 28/01 A2972 RMK AO2 SLP035 T02830011 403610256 $
2026-06-08T06:56:00Z,2026-06-08,2026-06-07,METAR,2026-06-08T11:29:01Z,30,86.0,-2.8,27.0,1,190,S,7,8.1,16,18.4,10+,10.0,,,,1006.2,1003,,,,,,VFR,METAR KLAS 080656Z 19007G16KT 10SM CLR 30/M03 A2971 RMK AO2 SLP030 T03001028 $
2026-06-08T05:56:00Z,2026-06-08,2026-06-07,METAR,2026-06-08T11:29:01Z,30,86.0,-3.3,26.1,1,190,S,4,4.6,,,10+,10.0,,,,1005.8,1002.7,,,,,,VFR,METAR KLAS 080556Z 19004KT 10SM CLR 30/M03 A2970 RMK AO2 SLP027 T03001033 10361 20300 53016 $
2026-06-08T15:56:00Z,2026-06-08,2026-06-08,METAR,2026-06-08T16:39:14Z,28.9,84.0,-1.7,28.9,1,VRB,VRB,6,6.9,,,10+,10.0,44,,SCT25000,1009.9,1006.9,,,,,,VFR,METAR KLAS 081556Z VRB06KT 10SM SCT250 29/M02 A2982 RMK AO2 SLP069 T02891017
2026-06-08T14:56:00Z,2026-06-08,2026-06-08,METAR,2026-06-08T16:39:14Z,27.2,81.0,-0.6,30.9,1,170,S,7,8.1,15,17.3,10+,10.0,19,,FEW25000,1009.6,1006.6,,,,,,VFR,METAR KLAS 081456Z 17007G15KT 10SM FEW250 27/M01 A2981 RMK AO2 SLP066 T02721006 51020 $
2026-06-08T13:56:00Z,2026-06-08,2026-06-08,METAR,2026-06-08T16:39:14Z,25.6,78.1,-0.6,30.9,1,190,S,8,9.2,,,10+,10.0,19,,FEW25000,1008.9,1005.9,,,,,,VFR,METAR KLAS 081356Z 19008KT 10SM FEW250 26/M01 A2979 RMK AO2 SLP059 T02561006 $
2026-06-08T12:56:00Z,2026-06-08,2026-06-08,METAR,2026-06-08T16:39:14Z,24.4,75.9,-0.6,30.9,1,190,S,7,8.1,,,10+,10.0,19,,FEW25000,1008.2,1005.3,,,,,,VFR,METAR KLAS 081256Z 19007KT 10SM FEW250 24/M01 A2977 RMK AO2 SLP053 T02441006 $
2026-06-08T11:56:00Z,2026-06-08,2026-06-08,METAR,2026-06-08T16:39:14Z,24.4,75.9,-0.6,30.9,1,160,SSE,7,8.1,,,10+,10.0,19,,FEW25000,1007.5,1004.4,,,,,,VFR,METAR KLAS 081156Z 16007KT 10SM FEW250 24/M01 A2975 RMK AO2 SLP044 T02441006 10311 20244 53004 $
2026-06-08T20:56:00Z,2026-06-08,2026-06-08,METAR,2026-06-08T21:03:39Z,34.4,93.9,-2.8,27.0,1,200,SSW,10,11.5,22,25.3,10+,10.0,75,20000,FEW15000 BKN20000 BKN25000,1008.5,1005.5,,,,,,VFR,METAR KLAS 082056Z 20010G22KT 10SM FEW150 BKN200 BKN250 34/M03 A2978 RMK AO2 PK WND 22028/2018 SLP055 T03441028 58012
2026-06-08T19:56:00Z,2026-06-08,2026-06-08,METAR,2026-06-08T21:03:39Z,33.3,91.9,-0.6,30.9,1,210,SSW,7,8.1,20,23.0,10+,10.0,75,25000,FEW15000 SCT20000 BKN25000,1008.9,1006,,,,,,VFR,METAR KLAS 081956Z 21007G20KT 10SM FEW150 SCT200 BKN250 33/M01 A2979 RMK AO2 SLP060 T03331006
2026-06-08T18:56:00Z,2026-06-08,2026-06-08,METAR,2026-06-08T21:03:39Z,32.2,90.0,0,32.0,1,250,WSW,6,6.9,14,16.1,10+,10.0,75,25000,FEW15000 SCT20000 BKN25000,1009.6,1006.4,,,,,,VFR,METAR KLAS 081856Z 25006G14KT 10SM FEW150 SCT200 BKN250 32/00 A2981 RMK AO2 SLP064 T03220000
2026-06-08T17:56:00Z,2026-06-08,2026-06-08,METAR,2026-06-08T21:03:39Z,31.1,88.0,0.6,33.1,1,210,SSW,6,6.9,,,10+,10.0,44,,FEW15000 FEW20000 SCT25000,1009.9,1006.9,,,,,,VFR,METAR KLAS 081756Z 21006KT 10SM FEW150 FEW200 SCT250 31/01 A2982 RMK AO2 SLP069 T03110006 10311 20244 51003
2026-06-08T16:56:00Z,2026-06-08,2026-06-08,METAR,2026-06-08T21:03:39Z,30,86.0,-1.1,30.0,1,190,S,6,6.9,,,10+,10.0,44,,FEW20000 SCT25000,1009.9,1006.9,,,,,,VFR,METAR KLAS 081656Z 19006KT 10SM FEW200 SCT250 30/M01 A2982 RMK AO2 SLP069 T03001011
2026-06-09T03:56:00Z,2026-06-09,2026-06-08,METAR,2026-06-09T04:55:06Z,32.2,90.0,-2.2,28.0,1,190,S,9,10.4,19,21.9,10+,10.0,75,20000,FEW15000 BKN20000 BKN25000,1007.5,1004.4,,,,,,VFR,METAR KLAS 090356Z 19009G19KT 10SM FEW150 BKN200 BKN250 32/M02 A2975 RMK AO2 SLP044 T03221022
2026-06-09T02:56:00Z,2026-06-09,2026-06-08,METAR,2026-06-09T04:55:06Z,32.8,91.0,-1.7,28.9,1,210,SSW,10,11.5,,,10+,10.0,100,20000,FEW15000 BKN20000 OVC25000,1007.2,1004.4,,,,,,VFR,METAR KLAS 090256Z 21010KT 10SM FEW150 BKN200 OVC250 33/M02 A2974 RMK AO2 SLP044 T03281017 51002
2026-06-09T01:56:00Z,2026-06-09,2026-06-08,METAR,2026-06-09T04:55:06Z,33.3,91.9,-2.8,27.0,1,230,SW,13,15.0,21,24.2,10+,10.0,75,20000,FEW15000 BKN20000 BKN25000,1007.2,1004.4,,,,,,VFR,METAR KLAS 090156Z 23013G21KT 10SM FEW150 BKN200 BKN250 33/M03 A2974 RMK AO2 SLP044 ACSL ALQDS T03331028
2026-06-09T00:56:00Z,2026-06-09,2026-06-08,METAR,2026-06-09T04:55:06Z,33.9,93.0,-4.4,24.1,1,250,WSW,12,13.8,22,25.3,10+,10.0,75,20000,FEW15000 BKN20000 BKN25000,1007.2,1004.4,,,,,,VFR,METAR KLAS 090056Z 25012G22KT 10SM FEW150 BKN200 BKN250 34/M04 A2974 RMK AO2 SLP044 ACSL ALQDS T03391044
2026-06-08T23:56:00Z,2026-06-08,2026-06-08,METAR,2026-06-09T04:55:06Z,35,95.0,-5.6,21.9,1,190,S,9,10.4,20,23.0,10+,10.0,75,20000,FEW15000 BKN20000 BKN25000,1007.2,1004.2,,,,,,VFR,METAR KLAS 082356Z COR 19009G20KT 10SM FEW150 BKN200 BKN250 35/M06 A2974 RMK AO2 PK WND 20027/2319 SLP042 ACSL N-NE T03501056 10361 20311 55013
2026-06-08T22:56:00Z,2026-06-08,2026-06-08,METAR,2026-06-09T04:55:06Z,35.6,96.1,-2.8,27.0,1,200,SSW,17,19.6,25,28.8,10+,10.0,75,25000,FEW15000 SCT20000 BKN25000,1007.2,1004.1,,,,,,VFR,METAR KLAS 082256Z 20017G25KT 10SM FEW150 SCT200 BKN250 36/M03 A2974 RMK AO2 PK WND 18031/2202 SLP041 T03561028
2026-06-08T21:56:00Z,2026-06-08,2026-06-08,METAR,2026-06-09T04:55:06Z,35,95.0,-2.2,28.0,1,170,S,15,17.3,24,27.6,10+,10.0,75,20000,FEW15000 BKN20000 BKN25000,1007.9,1004.9,,,,,,VFR,METAR KLAS 082156Z 17015G24KT 10SM FEW150 BKN200 BKN250 35/M02 A2976 RMK AO2 PK WND 17029/2130 SLP049 T03501022
2026-06-09T09:56:00Z,2026-06-09,2026-06-09,METAR,2026-06-09T10:23:03Z,26.7,80.1,-1.7,28.9,1,190,S,10,11.5,,,10+,10.0,19,,FEW20000 FEW25000,1008.2,1005.1,,,,,,VFR,METAR KLAS 090956Z 19010KT 10SM FEW200 FEW250 27/M02 A2977 RMK AO2 SLP051 T02671017
2026-06-09T08:56:00Z,2026-06-09,2026-06-09,METAR,2026-06-09T10:23:03Z,26.7,80.1,-1.1,30.0,1,180,S,7,8.1,,,10+,10.0,19,,FEW20000 FEW25000,1008.5,1005.5,,,,,,VFR,METAR KLAS 090856Z 18007KT 10SM FEW200 FEW250 27/M01 A2978 RMK AO2 SLP055 T02671011 50002
2026-06-09T07:56:00Z,2026-06-09,2026-06-09,METAR,2026-06-09T10:23:03Z,27.8,82.0,-1.1,30.0,1,210,SSW,14,16.1,22,25.3,10+,10.0,75,24000,SCT20000 BKN24000,1008.5,1005.5,,,,,,VFR,METAR KLAS 090756Z 21014G22KT 10SM SCT200 BKN240 28/M01 A2978 RMK AO2 SLP055 T02781011 403610244
2026-06-09T06:56:00Z,2026-06-09,2026-06-08,METAR,2026-06-09T10:23:03Z,28.9,84.0,0.6,33.1,1,220,SW,12,13.8,,,10+,10.0,75,24000,SCT20000 BKN24000,1008.5,1005.7,,,,,,VFR,METAR KLAS 090656Z 22012KT 10SM SCT200 BKN240 29/01 A2978 RMK AO2 SLP057 T02890006
2026-06-09T05:56:00Z,2026-06-09,2026-06-08,METAR,2026-06-09T10:23:03Z,30,86.0,-5,23.0,1,250,WSW,8,9.2,,,10+,10.0,75,24000,FEW15000 FEW20000 BKN24000,1008.2,1005.3,,,,,,VFR,METAR KLAS 090556Z 25008KT 10SM FEW150 FEW200 BKN240 30/M05 A2977 RMK AO2 SLP053 T03001050 10356 20300 53008
2026-06-09T04:56:00Z,2026-06-09,2026-06-08,METAR,2026-06-09T10:23:03Z,31.7,89.1,-1.1,30.0,1,190,S,14,16.1,23,26.5,10+,10.0,75,25000,FEW15000 SCT20000 BKN25000,1007.9,1004.8,,,,,,VFR,METAR KLAS 090456Z 19014G23KT 10SM FEW150 SCT200 BKN250 32/M01 A2976 RMK AO2 SLP048 T03171011
2026-06-09T14:56:00Z,2026-06-09,2026-06-09,METAR,2026-06-09T15:45:12Z,26.1,79.0,-2.2,28.0,1,190,S,11,12.7,20,23.0,10+,10.0,,,,1009.9,1007,,,,,,VFR,METAR KLAS 091456Z 19011G20KT 10SM CLR 26/M02 A2982 RMK AO2 SLP070 T02611022 53010
2026-06-09T13:56:00Z,2026-06-09,2026-06-09,METAR,2026-06-09T15:45:12Z,24.4,75.9,-3.3,26.1,1,180,S,9,10.4,,,10+,10.0,,,,1009.6,1006.7,,,,,,VFR,METAR KLAS 091356Z 18009KT 10SM CLR 24/M03 A2981 RMK AO2 SLP067 T02441033
2026-06-09T12:56:00Z,2026-06-09,2026-06-09,METAR,2026-06-09T15:45:12Z,23.9,75.0,-3.3,26.1,1,180,S,10,11.5,18,20.7,10+,10.0,,,,1008.9,1006,,,,,,VFR,METAR KLAS 091256Z 18010G18KT 10SM CLR 24/M03 A2979 RMK AO2 SLP060 T02391033
2026-06-09T11:56:00Z,2026-06-09,2026-06-09,METAR,2026-06-09T15:45:12Z,24.4,75.9,-2.2,28.0,1,170,S,9,10.4,17,19.6,10+,10.0,19,,FEW25000,1008.9,1005.8,,,,,,VFR,METAR KLAS 091156Z 17009G17KT 10SM FEW250 24/M02 A2979 RMK AO2 SLP058 T02441022 10300 20244 53003
2026-06-09T10:56:00Z,2026-06-09,2026-06-09,METAR,2026-06-09T15:45:12Z,25.6,78.1,-2.8,27.0,1,180,S,7,8.1,17,19.6,10+,10.0,19,,FEW25000,1008.5,1005.7,,,,,,VFR,METAR KLAS 091056Z 18007G17KT 10SM FEW250 26/M03 A2978 RMK AO2 SLP057 T02561028
2026-06-09T19:56:00Z,2026-06-09,2026-06-09,METAR,2026-06-09T20:34:25Z,33.3,91.9,2.2,36.0,1,180,S,8,9.2,19,21.9,10+,10.0,,,,1009.6,1006.6,,,,,,VFR,METAR KLAS 091956Z 18008G19KT 130V210 10SM CLR 33/02 A2981 RMK AO2 SLP066 T03330022
2026-06-09T18:56:00Z,2026-06-09,2026-06-09,METAR,2026-06-09T20:34:25Z,32.2,90.0,1.1,34.0,1,190,S,7,8.1,18,20.7,10+,10.0,,,,1010.2,1007.4,,,,,,VFR,METAR KLAS 091856Z 19007G18KT 160V230 10SM CLR 32/01 A2983 RMK AO2 SLP074 T03220011
2026-06-09T17:56:00Z,2026-06-09,2026-06-09,METAR,2026-06-09T20:34:25Z,31.1,88.0,0,32.0,1,160,SSE,7,8.1,,,10+,10.0,,,,1010.9,1007.9,,,,,,VFR,METAR KLAS 091756Z 16007KT 10SM CLR 31/00 A2985 RMK AO2 SLP079 T03110000 10311 20239 51009
2026-06-09T16:56:00Z,2026-06-09,2026-06-09,METAR,2026-06-09T20:34:25Z,30,86.0,-0.6,30.9,1,160,SSE,10,11.5,17,19.6,10+,10.0,,,,1010.6,1007.6,,,,,,VFR,METAR KLAS 091656Z 16010G17KT 10SM CLR 30/M01 A2984 RMK AO2 SLP076 T03001006
2026-06-09T15:56:00Z,2026-06-09,2026-06-09,METAR,2026-06-09T20:34:25Z,28.3,82.9,-1.7,28.9,1,190,S,7,8.1,,,10+,10.0,,,,1010.6,1007.7,,,,,,VFR,METAR KLAS 091556Z 19007KT 150V220 10SM CLR 28/M02 A2984 RMK AO2 SLP077 T02831017
2026-06-10T04:56:00Z,2026-06-10,2026-06-09,METAR,2026-06-10T05:06:37Z,32.8,91.0,1.7,35.1,1,220,SW,10,11.5,,,10+,10.0,,,,1008.2,1005.2,,,,,,VFR,METAR KLAS 100456Z 22010KT 10SM CLR 33/02 A2977 RMK AO2 SLP052 T03280017
2026-06-10T03:56:00Z,2026-06-10,2026-06-09,METAR,2026-06-10T05:06:37Z,33.3,91.9,1.1,34.0,1,220,SW,10,11.5,,,10+,10.0,,,,1007.9,1004.7,,,,,,VFR,METAR KLAS 100356Z 22010KT 10SM CLR 33/01 A2976 RMK AO2 SLP047 T03330011
2026-06-10T02:56:00Z,2026-06-10,2026-06-09,METAR,2026-06-10T05:06:37Z,34.4,93.9,1.7,35.1,1,220,SW,10,11.5,16,18.4,10+,10.0,,,,1007.2,1004.1,,,,,,VFR,METAR KLAS 100256Z 22010G16KT 10SM CLR 34/02 A2974 RMK AO2 SLP041 T03440017 53003
2026-06-10T01:56:00Z,2026-06-10,2026-06-09,METAR,2026-06-10T05:06:37Z,35.6,96.1,2.2,36.0,1,220,SW,11,12.7,,,10+,10.0,,,,1006.5,1003.4,,,,,,VFR,METAR KLAS 100156Z 22011KT 10SM CLR 36/02 A2972 RMK AO2 SLP034 T03560022
2026-06-10T00:56:00Z,2026-06-10,2026-06-09,METAR,2026-06-10T05:06:37Z,36.1,97.0,2.2,36.0,1,240,WSW,12,13.8,21,24.2,10+,10.0,,,,1006.5,1003.6,,,,,,VFR,METAR KLAS 100056Z 24012G21KT 10SM CLR 36/02 A2972 RMK AO2 SLP036 T03610022
2026-06-09T23:56:00Z,2026-06-09,2026-06-09,METAR,2026-06-10T05:06:37Z,36.7,98.1,2.8,37.0,1,220,SW,13,15.0,20,23.0,10+,10.0,,,,1006.9,1003.8,,,,,,VFR,METAR KLAS 092356Z 22013G20KT 10SM CLR 37/03 A2973 RMK AO2 SLP038 T03670028 10367 20311 56021
2026-06-09T22:56:00Z,2026-06-09,2026-06-09,METAR,2026-06-10T05:06:37Z,36.1,97.0,2.8,37.0,1,190,S,8,9.2,18,20.7,10+,10.0,,,,1007.2,1004.2,,,,,,VFR,METAR KLAS 092256Z 19008G18KT 10SM CLR 36/03 A2974 RMK AO2 SLP042 T03610028
2026-06-10T09:56:00Z,2026-06-10,2026-06-10,METAR,2026-06-10T10:43:12Z,27.8,82.0,5,41.0,1,200,SSW,5,5.8,,,10+,10.0,,,,1009.2,1006.2,,,,,,VFR,METAR KLAS 100956Z 20005KT 10SM CLR 28/05 A2980 RMK AO2 SLP062 T02780050
2026-06-10T08:56:00Z,2026-06-10,2026-06-10,METAR,2026-06-10T10:43:12Z,28.3,82.9,3.9,39.0,1,210,SSW,5,5.8,,,10+,10.0,,,,1009.2,1006,,,,,,VFR,METAR KLAS 100856Z 21005KT 10SM CLR 28/04 A2980 RMK AO2 SLP060 T02830039 53003
2026-06-10T07:56:00Z,2026-06-10,2026-06-10,METAR,2026-06-10T10:43:12Z,29.4,84.9,3.9,39.0,1,180,S,6,6.9,,,10+,10.0,,,,1008.9,1005.8,,,,,,VFR,METAR KLAS 100756Z 18006KT 10SM CLR 29/04 A2979 RMK AO2 SLP058 T02940039 403670239
2026-06-10T06:56:00Z,2026-06-10,2026-06-09,METAR,2026-06-10T10:43:12Z,30.6,87.1,2.8,37.0,1,180,S,4,4.6,,,10+,10.0,,,,1008.9,1005.8,,,,,,VFR,METAR KLAS 100656Z 18004KT 10SM CLR 31/03 A2979 RMK AO2 SLP058 T03060028
2026-06-10T05:56:00Z,2026-06-10,2026-06-09,METAR,2026-06-10T10:43:12Z,31.1,88.0,1.7,35.1,1,210,SSW,6,6.9,,,10+,10.0,,,,1008.9,1005.8,,,,,,VFR,METAR KLAS 100556Z 21006KT 10SM CLR 31/02 A2979 RMK AO2 SLP058 T03110017 10367 20311 51016
2026-06-10T15:56:00Z,2026-06-10,2026-06-10,METAR,2026-06-10T16:26:16Z,31.1,88.0,5,41.0,1,10,N,3,3.5,,,10+,10.0,,,,1011.9,1008.9,,,,,,VFR,METAR KLAS 101556Z 01003KT 10SM CLR 31/05 A2988 RMK AO2 SLP089 T03110050
2026-06-10T14:56:00Z,2026-06-10,2026-06-10,METAR,2026-06-10T16:26:16Z,29.4,84.9,6.1,43.0,1,30,NNE,3,3.5,,,10+,10.0,,,,1011.6,1008.4,,,,,,VFR,METAR KLAS 101456Z 03003KT 10SM CLR 29/06 A2987 RMK AO2 SLP084 T02940061 53018
2026-06-10T13:56:00Z,2026-06-10,2026-06-10,METAR,2026-06-10T16:26:16Z,27.8,82.0,6.1,43.0,1,0,CALM,0,0.0,,,10+,10.0,,,,1010.9,1007.8,,,,,,VFR,METAR KLAS 101356Z 00000KT 10SM CLR 28/06 A2985 RMK AO2 SLP078 T02780061
2026-06-10T12:56:00Z,2026-06-10,2026-06-10,METAR,2026-06-10T16:26:16Z,26.7,80.1,5,41.0,1,220,SW,4,4.6,,,10+,10.0,,,,1010.2,1007.2,,,,,,VFR,METAR KLAS 101256Z 22004KT 10SM CLR 27/05 A2983 RMK AO2 SLP072 T02670050
2026-06-10T11:56:00Z,2026-06-10,2026-06-10,METAR,2026-06-10T16:26:16Z,26.1,79.0,5.6,42.1,1,240,WSW,5,5.8,,,10+,10.0,,,,1009.6,1006.6,,,,,,VFR,METAR KLAS 101156Z 24005KT 10SM CLR 26/06 A2981 RMK AO2 SLP066 T02610056 10311 20256 53005
2026-06-10T10:56:00Z,2026-06-10,2026-06-10,METAR,2026-06-10T16:26:16Z,26.1,79.0,5,41.0,1,210,SSW,3,3.5,,,10+,10.0,,,,1009.6,1006.4,,,,,,VFR,METAR KLAS 101056Z 21003KT 10SM CLR 26/05 A2981 RMK AO2 SLP064 T02610050
2026-06-10T21:05:00Z,2026-06-10,2026-06-10,SPECI,2026-06-10T21:11:31Z,38.3,100.9,3.9,39.0,1,VRB,VRB,5,5.8,,,10+,10.0,,,,1008.5,,,,,,,VFR,SPECI KLAS 102105Z VRB05KT 10SM CLR 38/04 A2978 RMK AO2 T03830039
2026-06-10T20:56:00Z,2026-06-10,2026-06-10,METAR,2026-06-10T21:11:31Z,38.9,102.0,4.4,39.9,1,90,E,12,13.8,19,21.9,10+,10.0,,,,1008.9,1005.5,,,,,,VFR,METAR KLAS 102056Z 09012G19KT 10SM CLR 39/04 A2979 RMK AO2 SLP055 T03890044 58026
2026-06-10T19:56:00Z,2026-06-10,2026-06-10,METAR,2026-06-10T21:11:31Z,37.2,99.0,2.8,37.0,1,VRB,VRB,3,3.5,,,10+,10.0,,,,1009.9,1006.5,,,,,,VFR,METAR KLAS 101956Z VRB03KT 10SM CLR 37/03 A2982 RMK AO2 SLP065 T03720028
2026-06-10T18:56:00Z,2026-06-10,2026-06-10,METAR,2026-06-10T21:11:31Z,36.1,97.0,2.8,37.0,1,VRB,VRB,6,6.9,,,10+,10.0,,,,1010.9,1007.6,,,,,,VFR,METAR KLAS 101856Z VRB06KT 10SM CLR 36/03 A2985 RMK AO2 SLP076 T03610028
2026-06-10T17:56:00Z,2026-06-10,2026-06-10,METAR,2026-06-10T21:11:31Z,34.4,93.9,2.2,36.0,1,350,N,4,4.6,,,10+,10.0,,,,1011.6,1008.3,,,,,,VFR,METAR KLAS 101756Z 35004KT 10SM CLR 34/02 A2987 RMK AO2 SLP083 T03440022 10344 20256 58001
2026-06-10T16:56:00Z,2026-06-10,2026-06-10,METAR,2026-06-10T21:11:31Z,32.8,91.0,2.2,36.0,1,VRB,VRB,3,3.5,,,10+,10.0,,,,1011.9,1008.6,,,,,,VFR,METAR KLAS 101656Z VRB03KT 10SM CLR 33/02 A2988 RMK AO2 SLP086 T03280022
2026-06-11T04:56:00Z,2026-06-11,2026-06-10,METAR,2026-06-11T05:15:00Z,35.6,96.1,1.7,35.1,1,240,WSW,8,9.2,,,10+,10.0,,,,1006.9,1003.4,,,,,,VFR,METAR KLAS 110456Z 24008KT 10SM CLR 36/02 A2973 RMK AO2 SLP034 T03560017
2026-06-11T03:56:00Z,2026-06-11,2026-06-10,METAR,2026-06-11T05:15:00Z,36.7,98.1,2.2,36.0,1,270,W,7,8.1,,,10+,10.0,,,,1006.2,1002.8,,,,,,VFR,METAR KLAS 110356Z 27007KT 10SM CLR 37/02 A2971 RMK AO2 SLP028 T03670022
2026-06-11T02:56:00Z,2026-06-11,2026-06-10,METAR,2026-06-11T05:15:00Z,37.8,100.0,2.2,36.0,1,270,W,12,13.8,21,24.2,10+,10.0,,,,1005.8,1002.5,,,,,,VFR,METAR KLAS 110256Z 27012G21KT 10SM CLR 38/02 A2970 RMK AO2 SLP025 T03780022 55003
2026-06-11T01:56:00Z,2026-06-11,2026-06-10,METAR,2026-06-11T05:15:00Z,39.4,102.9,1.7,35.1,1,270,W,9,10.4,,,10+,10.0,,,,1005.8,1002.4,,,,,,VFR,METAR KLAS 110156Z 27009KT 10SM CLR 39/02 A2970 RMK AO2 SLP024 T03940017
2026-06-11T00:56:00Z,2026-06-11,2026-06-10,METAR,2026-06-11T05:15:00Z,40,104.0,2.2,36.0,1,270,W,8,9.2,15,17.3,10+,10.0,,,,1005.8,1002.4,,,,,,VFR,METAR KLAS 110056Z 27008G15KT 10SM CLR 40/02 A2970 RMK AO2 SLP024 T04000022
2026-06-10T23:56:00Z,2026-06-10,2026-06-10,METAR,2026-06-11T05:15:00Z,40.6,105.1,1.1,34.0,1,220,SW,6,6.9,,,10+,10.0,,,,1006.2,1002.8,,,,,,VFR,METAR KLAS 102356Z 22006KT 10SM CLR 41/01 A2971 RMK AO2 SLP028 T04060011 10411 20339 56025
2026-06-10T22:56:00Z,2026-06-10,2026-06-10,METAR,2026-06-11T05:15:00Z,40.6,105.1,2.2,36.0,1,200,SSW,8,9.2,20,23.0,10+,10.0,,,,1006.9,1003.4,,,,,,VFR,METAR KLAS 102256Z 20008G20KT 10SM CLR 41/02 A2973 RMK AO2 SLP034 T04060022
2026-06-11T10:56:00Z,2026-06-11,2026-06-11,METAR,2026-06-11T11:14:08Z,30,86.0,2.2,36.0,1,40,NE,7,8.1,,,10+,10.0,,,,1008.2,1004.8,,,,,,VFR,METAR KLAS 111056Z 04007KT 10SM CLR 30/02 A2977 RMK AO2 SLP048 T03000022
2026-06-11T09:56:00Z,2026-06-11,2026-06-11,METAR,2026-06-11T11:14:08Z,30.6,87.1,1.1,34.0,1,220,SW,6,6.9,,,10+,10.0,,,,1007.5,1004,,,,,,VFR,METAR KLAS 110956Z 22006KT 10SM CLR 31/01 A2975 RMK AO2 SLP040 T03060011
2026-06-11T08:56:00Z,2026-06-11,2026-06-11,METAR,2026-06-11T11:14:08Z,32.2,90.0,0.6,33.1,1,200,SSW,4,4.6,,,10+,10.0,,,,1007.5,1004,,,,,,VFR,METAR KLAS 110856Z 20004KT 10SM CLR 32/01 A2975 RMK AO2 SLP040 T03220006 53004
2026-06-11T07:56:00Z,2026-06-11,2026-06-11,METAR,2026-06-11T11:14:08Z,32.2,90.0,0.6,33.1,1,210,SSW,7,8.1,,,10+,10.0,,,,1007.2,1003.7,,,,,,VFR,METAR KLAS 110756Z 21007KT 10SM CLR 32/01 A2974 RMK AO2 SLP037 T03220006 404110256
2026-06-11T06:56:00Z,2026-06-11,2026-06-10,METAR,2026-06-11T11:14:08Z,34.4,93.9,0.6,33.1,1,220,SW,9,10.4,,,10+,10.0,,,,1007.2,1003.6,,,,,,VFR,METAR KLAS 110656Z 22009KT 10SM CLR 34/01 A2974 RMK AO2 SLP036 T03440006
2026-06-11T05:56:00Z,2026-06-11,2026-06-10,METAR,2026-06-11T11:14:08Z,35,95.0,1.1,34.0,1,240,WSW,9,10.4,,,10+,10.0,,,,1007.2,1003.6,,,,,,VFR,METAR KLAS 110556Z 24009KT 10SM CLR 35/01 A2974 RMK AO2 SLP036 T03500011 10406 20344 51011
2026-06-11T15:56:00Z,2026-06-11,2026-06-11,METAR,2026-06-11T16:41:10Z,31.1,88.0,-5,23.0,1,70,ENE,14,16.1,,,6,6.0,,,,1013,1009.8,,,,,HZ,VFR,METAR KLAS 111556Z COR 07014KT 6SM HZ CLR 31/M05 A2991 RMK AO2 SLP098 T03111050
2026-06-11T14:56:00Z,2026-06-11,2026-06-11,METAR,2026-06-11T16:41:10Z,30,86.0,-5.6,21.9,1,60,ENE,17,19.6,,,10+,10.0,,,,1012.3,1009.1,,,,,,VFR,METAR KLAS 111456Z 06017KT 10SM CLR 30/M06 A2989 RMK AO2 SLP091 T03001056 51031
2026-06-11T13:56:00Z,2026-06-11,2026-06-11,METAR,2026-06-11T16:41:10Z,30,86.0,-5.6,21.9,1,60,ENE,16,18.4,,,10+,10.0,,,,1011.6,1008.1,,,,,,VFR,METAR KLAS 111356Z 06016KT 10SM CLR 30/M06 A2987 RMK AO2 SLP081 T03001056
2026-06-11T12:56:00Z,2026-06-11,2026-06-11,METAR,2026-06-11T16:41:10Z,29.4,84.9,-2.8,27.0,1,50,NE,7,8.1,,,10+,10.0,,,,1010.2,1006.9,,,,,,VFR,METAR KLAS 111256Z 05007KT 10SM CLR 29/M03 A2983 RMK AO2 SLP069 T02941028
2026-06-11T11:56:00Z,2026-06-11,2026-06-11,METAR,2026-06-11T16:41:10Z,30,86.0,0.6,33.1,1,50,NE,9,10.4,,,10+,10.0,,,,1008.9,1005.5,,,,,,VFR,METAR KLAS 111156Z 05009KT 10SM CLR 30/01 A2979 RMK AO2 SLP055 T03000006 10350 20294 53014
2026-06-11T20:56:00Z,2026-06-11,2026-06-11,METAR,2026-06-11T21:06:36Z,36.7,98.1,-4.4,24.1,1,30,NNE,7,8.1,,,8,8.0,,,,1011.3,1008,,,,,,VFR,METAR KLAS 112056Z 03007KT 340V120 8SM CLR 37/M04 A2986 RMK AO2 SLP080 T03671044 58018
2026-06-11T19:56:00Z,2026-06-11,2026-06-11,METAR,2026-06-11T21:06:36Z,35,95.0,-5,23.0,1,100,E,4,4.6,16,18.4,7,7.0,,,,1012.3,1008.9,,,,,HZ,VFR,METAR KLAS 111956Z 10004G16KT 7SM HZ CLR 35/M05 A2989 RMK AO2 SLP089 T03501050
2026-06-11T18:56:00Z,2026-06-11,2026-06-11,METAR,2026-06-11T21:06:36Z,33.9,93.0,-5,23.0,1,VRB,VRB,6,6.9,,,7,7.0,,,,1013,1009.5,,,,,HZ,VFR,METAR KLAS 111856Z VRB06KT 7SM HZ CLR 34/M05 A2991 RMK AO2 SLP095 T03391050
2026-06-11T17:56:00Z,2026-06-11,2026-06-11,METAR,2026-06-11T21:06:36Z,33.3,91.9,-5,23.0,1,40,NE,12,13.8,16,18.4,6,6.0,,,,1013.3,1009.9,,,,,HZ,VFR,METAR KLAS 111756Z 04012G16KT 6SM HZ CLR 33/M05 A2992 RMK AO2 SLP099 T03331050 10333 20294 50009
2026-06-11T16:56:00Z,2026-06-11,2026-06-11,METAR,2026-06-11T21:06:36Z,32.2,90.0,-5,23.0,1,50,NE,15,17.3,22,25.3,6,6.0,,,,1013.3,1010.2,,,,,HZ,VFR,METAR KLAS 111656Z 05015G22KT 6SM HZ CLR 32/M05 A2992 RMK AO2 SLP102 T03221050
2026-06-12T00:56:00Z,2026-06-12,2026-06-11,METAR,2026-06-12T01:33:35Z,38.3,100.9,-1.7,28.9,1,350,N,3,3.5,,,10+,10.0,19,,FEW25000,1008.5,1005.1,,,,,,VFR,METAR KLAS 120056Z 35003KT 10SM FEW250 38/M02 A2978 RMK AO2 SLP051 T03831017
2026-06-11T23:56:00Z,2026-06-11,2026-06-11,METAR,2026-06-12T01:33:35Z,37.8,100.0,-2.2,28.0,1,100,E,4,4.6,,,10+,10.0,19,,FEW25000,1008.9,1005.6,,,,,,VFR,METAR KLAS 112356Z 10004KT 10SM FEW250 38/M02 A2979 RMK AO2 SLP056 HAZY T03781022 10383 20333 56023
2026-06-11T22:56:00Z,2026-06-11,2026-06-11,METAR,2026-06-12T01:33:35Z,37.2,99.0,-3.3,26.1,1,20,NNE,3,3.5,,,10+,10.0,19,,FEW25000,1009.9,1006.4,,,,,,VFR,METAR KLAS 112256Z 02003KT 10SM FEW250 37/M03 A2982 RMK AO2 SLP064 HAZY T03721033
2026-06-11T21:56:00Z,2026-06-11,2026-06-11,METAR,2026-06-12T01:33:35Z,37.2,99.0,-3.9,25.0,1,VRB,VRB,3,3.5,,,10+,10.0,,,,1010.6,1007.3,,,,,,VFR,METAR KLAS 112156Z VRB03KT 10SM CLR 37/M04 A2984 RMK AO2 SLP073 HAZY T03721039
2026-06-12T04:56:00Z,2026-06-12,2026-06-11,METAR,2026-06-12T05:20:42Z,35.6,96.1,-0.6,30.9,1,0,CALM,0,0.0,,,10+,10.0,75,25000,BKN25000,1009.2,1006,,,,,,VFR,METAR KLAS 120456Z 00000KT 10SM BKN250 36/M01 A2980 RMK AO2 SLP060 T03561006
2026-06-12T03:56:00Z,2026-06-12,2026-06-11,METAR,2026-06-12T05:20:42Z,36.1,97.0,-0.6,30.9,1,100,E,3,3.5,,,10+,10.0,19,,FEW25000,1008.9,1005.6,,,,,,VFR,METAR KLAS 120356Z 10003KT 10SM FEW250 36/M01 A2979 RMK AO2 SLP056 T03611006
2026-06-12T02:56:00Z,2026-06-12,2026-06-11,METAR,2026-06-12T05:20:42Z,37.2,99.0,-1.7,28.9,1,40,NE,7,8.1,,,10+,10.0,19,,FEW12000 FEW25000,1008.2,1005,,,,,,VFR,METAR KLAS 120256Z 04007KT 10SM FEW120 FEW250 37/M02 A2977 RMK AO2 SLP050 T03721017 55006
2026-06-12T01:56:00Z,2026-06-12,2026-06-11,METAR,2026-06-12T05:20:42Z,38.3,100.9,-1.7,28.9,1,10,N,6,6.9,,,10+,10.0,19,,FEW12000 FEW25000,1008.2,1004.9,,,,,,VFR,METAR KLAS 120156Z 01006KT 10SM FEW120 FEW250 38/M02 A2977 RMK AO2 SLP049 T03831017
2026-06-12T09:56:00Z,2026-06-12,2026-06-12,METAR,2026-06-12T10:51:34Z,29.4,84.9,-0.6,30.9,1,230,SW,4,4.6,,,10+,10.0,44,,SCT25000,1009.6,1006.2,,,,,,VFR,METAR KLAS 120956Z 23004KT 10SM SCT250 29/M01 A2981 RMK AO2 SLP062 T02941006
2026-06-12T08:56:00Z,2026-06-12,2026-06-12,METAR,2026-06-12T10:51:34Z,29.4,84.9,-1.7,28.9,1,220,SW,4,4.6,,,10+,10.0,44,,SCT25000,1009.6,1006.3,,,,,,VFR,METAR KLAS 120856Z 22004KT 10SM SCT250 29/M02 A2981 RMK AO2 SLP063 T02941017 50000
2026-06-12T07:56:00Z,2026-06-12,2026-06-12,METAR,2026-06-12T10:51:34Z,31.1,88.0,-0.6,30.9,1,220,SW,4,4.6,,,10+,10.0,44,,SCT25000,1009.6,1006.3,,,,,,VFR,METAR KLAS 120756Z 22004KT 10SM SCT250 31/M01 A2981 RMK AO2 SLP063 T03111006 403890294
2026-06-12T06:56:00Z,2026-06-12,2026-06-11,METAR,2026-06-12T10:51:34Z,31.7,89.1,1.1,34.0,1,280,W,4,4.6,,,10+,10.0,44,,SCT25000,1009.6,1006.4,,,,,,VFR,METAR KLAS 120656Z 28004KT 10SM SCT250 32/01 A2981 RMK AO2 SLP064 T03170011
2026-06-12T05:56:00Z,2026-06-12,2026-06-11,METAR,2026-06-12T10:51:34Z,33.3,91.9,0.6,33.1,1,240,WSW,5,5.8,,,10+,10.0,44,,SCT25000,1009.6,1006.2,,,,,,VFR,METAR KLAS 120556Z COR 24005KT 10SM SCT250 33/01 A2981 RMK AO2 SLP062 T03330006 10389 20333 51011
2026-06-12T14:56:00Z,2026-06-12,2026-06-12,METAR,2026-06-12T15:56:54Z,31.1,88.0,2.2,36.0,1,0,CALM,0,0.0,,,10+,10.0,44,,FEW20000 SCT25000,1011.6,1008.3,,,,,,VFR,METAR KLAS 121456Z 00000KT 10SM FEW200 SCT250 31/02 A2987 RMK AO2 SLP083 T03110022 52017
2026-06-12T13:56:00Z,2026-06-12,2026-06-12,METAR,2026-06-12T15:56:54Z,28.9,84.0,2.2,36.0,1,290,WNW,5,5.8,,,10+,10.0,44,,FEW20000 SCT25000,1011.3,1007.9,,,,,,VFR,METAR KLAS 121356Z 29005KT 10SM FEW200 SCT250 29/02 A2986 RMK AO2 SLP079 T02890022
2026-06-12T12:56:00Z,2026-06-12,2026-06-12,METAR,2026-06-12T15:56:54Z,27.8,82.0,1.1,34.0,1,0,CALM,0,0.0,,,10+,10.0,75,25000,FEW20000 BKN25000,1010.6,1007.1,,,,,,VFR,METAR KLAS 121256Z 00000KT 10SM FEW200 BKN250 28/01 A2984 RMK AO2 SLP071 T02780011
2026-06-12T11:56:00Z,2026-06-12,2026-06-12,METAR,2026-06-12T15:56:54Z,28.9,84.0,1.7,35.1,1,220,SW,3,3.5,,,10+,10.0,44,,SCT25000,1009.9,1006.6,,,,,,VFR,METAR KLAS 121156Z 22003KT 10SM SCT250 29/02 A2982 RMK AO2 SLP066 T02890017 10333 20283 53003
2026-06-12T10:56:00Z,2026-06-12,2026-06-12,METAR,2026-06-12T15:56:54Z,28.9,84.0,0.6,33.1,1,210,SSW,4,4.6,,,10+,10.0,44,,SCT25000,1009.6,1006.3,,,,,,VFR,METAR KLAS 121056Z 21004KT 10SM SCT250 29/01 A2981 RMK AO2 SLP063 T02890006
2026-06-12T19:56:00Z,2026-06-12,2026-06-12,METAR,2026-06-12T20:54:56Z,40,104.0,2.2,36.0,1,VRB,VRB,4,4.6,,,10+,10.0,44,,FEW12000 FEW20000 SCT25000,1009.9,1006.4,,,,,,VFR,METAR KLAS 121956Z COR VRB04KT 10SM FEW120 FEW200 SCT250 40/02 A2982 RMK AO2 SLP064 T04000022
2026-06-12T18:56:00Z,2026-06-12,2026-06-12,METAR,2026-06-12T20:54:56Z,38.3,100.9,3.9,39.0,1,VRB,VRB,3,3.5,,,10+,10.0,44,,FEW12000 FEW20000 SCT25000,1010.6,1007.3,,,,,,VFR,METAR KLAS 121856Z VRB03KT 10SM FEW120 FEW200 SCT250 38/04 A2984 RMK AO2 SLP073 T03830039
2026-06-12T17:56:00Z,2026-06-12,2026-06-12,METAR,2026-06-12T20:54:56Z,36.7,98.1,3.9,39.0,1,VRB,VRB,5,5.8,,,10+,10.0,44,,FEW12000 FEW20000 SCT25000,1011.3,1008,,,,,,VFR,METAR KLAS 121756Z VRB05KT 10SM FEW120 FEW200 SCT250 37/04 A2986 RMK AO2 SLP080 T03670039 10367 20272 58003
2026-06-12T16:56:00Z,2026-06-12,2026-06-12,METAR,2026-06-12T20:54:56Z,34.4,93.9,2.8,37.0,1,330,NNW,3,3.5,,,10+,10.0,44,,FEW12000 FEW20000 SCT25000,1011.6,1008.2,,,,,,VFR,METAR KLAS 121656Z 33003KT 10SM FEW120 FEW200 SCT250 34/03 A2987 RMK AO2 SLP082 T03440028
2026-06-12T15:58:00Z,2026-06-12,2026-06-12,SPECI,2026-06-12T20:54:56Z,32.8,91.0,2.2,36.0,1,0,CALM,0,0.0,,,10+,10.0,44,,FEW12000 FEW20000 SCT25000,1011.9,,,,,,,VFR,SPECI KLAS 121558Z 00000KT 10SM FEW120 FEW200 SCT250 33/02 A2988 RMK AO2 T03280022
2026-06-12T15:56:00Z,2026-06-12,2026-06-12,METAR,2026-06-12T20:54:56Z,32.8,91.0,2.2,36.0,1,320,NW,3,3.5,,,10+,10.0,,,,1011.9,1008.5,,,,,,VFR,METAR KLAS 121556Z 32003KT 10SM CLR 33/02 A2988 RMK AO2 SLP085 T03280022
2026-06-13T04:56:00Z,2026-06-13,2026-06-12,METAR,2026-06-13T05:10:00Z,36.7,98.1,-1.7,28.9,1,210,SSW,7,8.1,,,10+,10.0,19,,FEW20000,1007.9,1004.2,,,,,,VFR,METAR KLAS 130456Z 21007KT 10SM FEW200 37/M02 A2976 RMK AO2 SLP042 T03671017
2026-06-13T03:56:00Z,2026-06-13,2026-06-12,METAR,2026-06-13T05:10:00Z,38.3,100.9,-2.2,28.0,1,230,SW,10,11.5,,,10+,10.0,19,,FEW12000 FEW20000,1007.2,1003.6,,,,,,VFR,METAR KLAS 130356Z 23010KT 10SM FEW120 FEW200 38/M02 A2974 RMK AO2 SLP036 T03831022
2026-06-13T02:56:00Z,2026-06-13,2026-06-12,METAR,2026-06-13T05:10:00Z,39.4,102.9,-0.6,30.9,1,250,WSW,12,13.8,,,10+,10.0,44,,FEW12000 SCT20000,1006.5,1003,,,,,,VFR,METAR KLAS 130256Z 25012KT 10SM FEW120 SCT200 39/M01 A2972 RMK AO2 WSHFT 0222 SLP030 T03941006 55000
2026-06-13T02:42:00Z,2026-06-13,2026-06-12,SPECI,2026-06-13T05:10:00Z,40,104.0,-0.6,30.9,1,250,WSW,14,16.1,,,10+,10.0,44,,FEW12000 SCT20000,1006.5,,,,,,,VFR,SPECI KLAS 130242Z 25014KT 10SM FEW120 SCT200 40/M01 A2972 RMK AO2 WSHFT 0222 T04001006
2026-06-13T01:56:00Z,2026-06-13,2026-06-12,METAR,2026-06-13T05:10:00Z,40.6,105.1,3.3,37.9,1,110,ESE,6,6.9,,,10+,10.0,44,,FEW12000 SCT20000,1006.2,1002.6,,,,,,VFR,METAR KLAS 130156Z 11006KT 10SM FEW120 SCT200 41/03 A2971 RMK AO2 SLP026 T04060033
2026-06-13T00:56:00Z,2026-06-13,2026-06-12,METAR,2026-06-13T05:10:00Z,40.6,105.1,5,41.0,1,120,ESE,12,13.8,23,26.5,10+,10.0,44,,FEW12000 SCT20000,1006.2,1002.8,,,,,,VFR,METAR KLAS 130056Z 12012G23KT 10SM FEW120 SCT200 41/05 A2971 RMK AO2 SLP028 T04060050
2026-06-12T23:56:00Z,2026-06-12,2026-06-12,METAR,2026-06-13T05:10:00Z,41.1,106.0,5.6,42.1,1,90,E,12,13.8,24,27.6,10+,10.0,44,,FEW12000 SCT20000,1006.5,1003.1,,,,,,VFR,METAR KLAS 122356Z 09012G24KT 10SM FEW120 SCT200 41/06 A2972 RMK AO2 SLP031 T04110056 10422 20361 57020
2026-06-12T22:56:00Z,2026-06-12,2026-06-12,METAR,2026-06-13T05:10:00Z,41.1,106.0,3.3,37.9,1,110,ESE,14,16.1,21,24.2,10+,10.0,44,,FEW12000 SCT20000,1007.5,1004,,,,,,VFR,METAR KLAS 122256Z 11014G21KT 10SM FEW120 SCT200 41/03 A2975 RMK AO2 PK WND 10028/2242 SLP040 T04110033
2026-06-13T08:56:00Z,2026-06-13,2026-06-13,METAR,2026-06-13T09:44:51Z,33.3,91.9,6.1,43.0,1,210,SSW,9,10.4,,,10+,10.0,,,,1008.2,1004.5,,,,,,VFR,METAR KLAS 130856Z 21009KT 10SM CLR 33/06 A2977 RMK AO2 SLP045 T03330061 50001
2026-06-13T07:56:00Z,2026-06-13,2026-06-13,METAR,2026-06-13T09:44:51Z,34.4,93.9,3.3,37.9,1,210,SSW,10,11.5,,,10+,10.0,,,,1008.2,1004.6,,,,,,VFR,METAR KLAS 130756Z 21010KT 10SM CLR 34/03 A2977 RMK AO2 SLP046 T03440033 404220272
2026-06-13T06:56:00Z,2026-06-13,2026-06-12,METAR,2026-06-13T09:44:51Z,33.9,93.0,-1.1,30.0,1,180,S,3,3.5,,,10+,10.0,,,,1008.2,1004.6,,,,,,VFR,METAR KLAS 130656Z 18003KT 10SM CLR 34/M01 A2977 RMK AO2 SLP046 T03391011
2026-06-13T05:56:00Z,2026-06-13,2026-06-12,METAR,2026-06-13T09:44:51Z,36.1,97.0,-1.7,28.9,1,190,S,5,5.8,,,10+,10.0,,,,1008.2,1004.5,,,,,,VFR,METAR KLAS 130556Z 19005KT 10SM CLR 36/M02 A2977 RMK AO2 SLP045 T03611017 10411 20361 51014
2026-06-13T13:56:00Z,2026-06-13,2026-06-13,METAR,2026-06-13T14:53:24Z,31.7,89.1,5,41.0,1,240,WSW,5,5.8,,,10+,10.0,19,,FEW16000,1010.2,1006.6,,,,,,VFR,METAR KLAS 131356Z 24005KT 10SM FEW160 32/05 A2983 RMK AO2 SLP066 T03170050
2026-06-13T12:56:00Z,2026-06-13,2026-06-13,METAR,2026-06-13T14:53:24Z,31.1,88.0,5,41.0,1,190,S,8,9.2,,,10+,10.0,19,,FEW12000,1009.2,1005.7,,,,,,VFR,METAR KLAS 131256Z 19008KT 10SM FEW120 31/05 A2980 RMK AO2 SLP057 T03110050
2026-06-13T11:56:00Z,2026-06-13,2026-06-13,METAR,2026-06-13T14:53:24Z,31.1,88.0,5.6,42.1,1,190,S,9,10.4,,,10+,10.0,,,,1008.5,1005,,,,,,VFR,METAR KLAS 131156Z 19009KT 10SM CLR 31/06 A2978 RMK AO2 SLP050 T03110056 10361 20311 53003
2026-06-13T10:56:00Z,2026-06-13,2026-06-13,METAR,2026-06-13T14:53:24Z,31.7,89.1,6.1,43.0,1,180,S,7,8.1,,,10+,10.0,,,,1008.2,1004.6,,,,,,VFR,METAR KLAS 131056Z 18007KT 10SM CLR 32/06 A2977 RMK AO2 SLP046 T03170061
2026-06-13T09:56:00Z,2026-06-13,2026-06-13,METAR,2026-06-13T14:53:24Z,32.8,91.0,6.1,43.0,1,190,S,8,9.2,,,10+,10.0,,,,1008.2,1004.5,,,,,,VFR,METAR KLAS 130956Z 19008KT 10SM CLR 33/06 A2977 RMK AO2 SLP045 T03280061
2026-06-13T18:56:00Z,2026-06-13,2026-06-13,METAR,2026-06-13T20:05:56Z,40,104.0,4.4,39.9,1,VRB,VRB,3,3.5,,,10+,10.0,19,,FEW11000 FEW16000 FEW22000,1010.2,1006.6,,,,,,VFR,METAR KLAS 131856Z VRB03KT 10SM FEW110 FEW160 FEW220 40/04 A2983 RMK AO2 SLP066 T04000044
2026-06-13T17:56:00Z,2026-06-13,2026-06-13,METAR,2026-06-13T20:05:56Z,38.3,100.9,2.8,37.0,1,230,SW,5,5.8,,,10+,10.0,19,,FEW11000 FEW16000 FEW22000,1010.6,1007.1,,,,,,VFR,METAR KLAS 131756Z 23005KT 10SM FEW110 FEW160 FEW220 38/03 A2984 RMK AO2 SLP071 T03830028 10383 20311 50000
2026-06-13T16:56:00Z,2026-06-13,2026-06-13,METAR,2026-06-13T20:05:56Z,36.1,97.0,3.9,39.0,1,VRB,VRB,3,3.5,,,10+,10.0,19,,FEW11000 FEW16000 FEW22000,1010.9,1007.2,,,,,,VFR,METAR KLAS 131656Z VRB03KT 10SM FEW110 FEW160 FEW220 36/04 A2985 RMK AO2 SLP072 T03610039
2026-06-13T15:56:00Z,2026-06-13,2026-06-13,METAR,2026-06-13T20:05:56Z,33.9,93.0,4.4,39.9,1,0,CALM,0,0.0,,,10+,10.0,19,,FEW11000 FEW16000 FEW22000,1011.3,1007.6,,,,,,VFR,METAR KLAS 131556Z 00000KT 10SM FEW110 FEW160 FEW220 34/04 A2986 RMK AO2 SLP076 T03390044
2026-06-13T14:56:00Z,2026-06-13,2026-06-13,METAR,2026-06-13T20:05:56Z,32.2,90.0,4.4,39.9,1,310,NW,5,5.8,,,10+,10.0,19,,FEW16000,1010.6,1007.2,,,,,,VFR,METAR KLAS 131456Z 31005KT 10SM FEW160 32/04 A2984 RMK AO2 SLP072 T03220044 51021
2026-06-14T03:56:00Z,2026-06-14,2026-06-13,METAR,2026-06-14T05:20:29Z,37.8,100.0,2.8,37.0,1,210,SSW,7,8.1,,,10+,10.0,44,,SCT12000 SCT18000,1008.2,1004.8,,,,,,VFR,METAR KLAS 140356Z 21007KT 10SM SCT120 SCT180 38/03 A2977 RMK AO2 SLP048 T03780028
2026-06-14T02:56:00Z,2026-06-14,2026-06-13,METAR,2026-06-14T05:20:29Z,38.9,102.0,1.7,35.1,1,220,SW,13,15.0,19,21.9,10+,10.0,44,,SCT12000,1007.5,1004,,,,,,VFR,METAR KLAS 140256Z 22013G19KT 10SM SCT120 39/02 A2975 RMK AO2 SLP040 T03890017 53002
2026-06-14T01:56:00Z,2026-06-14,2026-06-13,METAR,2026-06-14T05:20:29Z,40,104.0,1.1,34.0,1,220,SW,11,12.7,20,23.0,10+,10.0,44,,SCT12000,1007.2,1003.7,,,,,,VFR,METAR KLAS 140156Z 22011G20KT 10SM SCT120 40/01 A2974 RMK AO2 SLP037 T04000011
2026-06-14T00:56:00Z,2026-06-14,2026-06-13,METAR,2026-06-14T05:20:29Z,40.6,105.1,-0.6,30.9,1,230,SW,14,16.1,23,26.5,10+,10.0,44,,SCT12000,1007.2,1003.6,,,,,,VFR,METAR KLAS 140056Z 23014G23KT 10SM SCT120 41/M01 A2974 RMK AO2 SLP036 T04061006
2026-06-13T23:56:00Z,2026-06-13,2026-06-13,METAR,2026-06-14T05:20:29Z,41.1,106.0,1.1,34.0,1,190,S,11,12.7,21,24.2,10+,10.0,44,,SCT12000,1007.2,1003.8,,,,,,VFR,METAR KLAS 132356Z 19011G21KT 10SM SCT120 41/01 A2974 RMK AO2 SLP038 T04110011 10422 20383 56014
2026-06-13T22:56:00Z,2026-06-13,2026-06-13,METAR,2026-06-14T05:20:29Z,40.6,105.1,2.8,37.0,1,VRB,VRB,3,3.5,,,10+,10.0,44,,SCT12000,1007.9,1004.2,,,,,,VFR,METAR KLAS 132256Z COR VRB03KT 10SM SCT120 41/03 A2976 RMK AO2 SLP042 T04060028
2026-06-14T09:56:00Z,2026-06-14,2026-06-14,METAR,2026-06-14T10:06:54Z,31.7,89.1,5.6,42.1,1,200,SSW,6,6.9,,,10+,10.0,,,,1010.2,1006.7,,,,,,VFR,METAR KLAS 140956Z 20006KT 10SM CLR 32/06 A2983 RMK AO2 SLP067 T03170056
2026-06-14T08:56:00Z,2026-06-14,2026-06-14,METAR,2026-06-14T10:06:54Z,32.8,91.0,5.6,42.1,1,210,SSW,8,9.2,,,10+,10.0,,,,1010.2,1006.6,,,,,,VFR,METAR KLAS 140856Z 21008KT 10SM CLR 33/06 A2983 RMK AO2 SLP066 T03280056 51010
2026-06-14T07:56:00Z,2026-06-14,2026-06-14,METAR,2026-06-14T10:06:54Z,33.9,93.0,5.6,42.1,1,220,SW,9,10.4,,,10+,10.0,,,,1010.2,1006.6,,,,,,VFR,METAR KLAS 140756Z 22009KT 10SM CLR 34/06 A2983 RMK AO2 SLP066 T03390056 404220311
2026-06-14T06:56:00Z,2026-06-14,2026-06-13,METAR,2026-06-14T10:06:54Z,35,95.0,4.4,39.9,1,170,S,6,6.9,17,19.6,10+,10.0,19,,FEW15000,1009.9,1006.3,,,,,,VFR,METAR KLAS 140656Z 17006G17KT 10SM FEW150 35/04 A2982 RMK AO2 SLP063 T03500044
2026-06-14T05:56:00Z,2026-06-14,2026-06-13,METAR,2026-06-14T10:06:54Z,35.6,96.1,3.3,37.9,1,210,SSW,8,9.2,,,10+,10.0,19,,FEW15000,1009.2,1005.6,,,,,,VFR,METAR KLAS 140556Z 21008KT 10SM FEW150 36/03 A2980 RMK AO2 SLP056 T03560033 10411 20356 51015
2026-06-14T14:56:00Z,2026-06-14,2026-06-14,METAR,2026-06-14T14:59:05Z,32.8,91.0,6.7,44.1,1,180,S,9,10.4,19,21.9,10+,10.0,19,,FEW14000,1012.6,1009.2,,,,,,VFR,METAR KLAS 141456Z 18009G19KT 10SM FEW140 33/07 A2990 RMK AO2 SLP092 T03280067 51016
2026-06-14T13:56:00Z,2026-06-14,2026-06-14,METAR,2026-06-14T14:59:05Z,31.7,89.1,6.7,44.1,1,200,SSW,7,8.1,18,20.7,10+,10.0,19,,FEW14000,1012.3,1008.7,,,,,,VFR,METAR KLAS 141356Z 20007G18KT 10SM FEW140 32/07 A2989 RMK AO2 SLP087 T03170067
2026-06-14T12:56:00Z,2026-06-14,2026-06-14,METAR,2026-06-14T14:59:05Z,30.6,87.1,5.6,42.1,1,190,S,8,9.2,,,10+,10.0,19,,FEW14000,1011.6,1008.2,,,,,,VFR,METAR KLAS 141256Z 19008KT 10SM FEW140 31/06 A2987 RMK AO2 SLP082 T03060056
2026-06-14T11:56:00Z,2026-06-14,2026-06-14,METAR,2026-06-14T14:59:05Z,30.6,87.1,5.6,42.1,1,190,S,9,10.4,,,10+,10.0,,,,1010.9,1007.5,,,,,,VFR,METAR KLAS 141156Z 19009KT 10SM CLR 31/06 A2985 RMK AO2 SLP075 T03060056 10356 20306 53007
2026-06-14T10:56:00Z,2026-06-14,2026-06-14,METAR,2026-06-14T14:59:05Z,31.1,88.0,5.6,42.1,1,170,S,5,5.8,,,10+,10.0,,,,1010.6,1007.1,,,,,,VFR,METAR KLAS 141056Z 17005KT 10SM CLR 31/06 A2984 RMK AO2 SLP071 T03110056
2026-06-14T19:56:00Z,2026-06-14,2026-06-14,METAR,2026-06-14T20:09:01Z,39.4,102.9,1.1,34.0,1,190,S,11,12.7,21,24.2,10+,10.0,19,,FEW12000 FEW17000,1012.3,1008.6,,,,,,VFR,METAR KLAS 141956Z 19011G21KT 10SM FEW120 FEW170 39/01 A2989 RMK AO2 SLP086 ACC DSNT NE-E T03940011
2026-06-14T18:56:00Z,2026-06-14,2026-06-14,METAR,2026-06-14T20:09:01Z,38.3,100.9,2.2,36.0,1,180,S,13,15.0,19,21.9,10+,10.0,19,,FEW12000 FEW17000,1013,1009.4,,,,,,VFR,METAR KLAS 141856Z 18013G19KT 10SM FEW120 FEW170 38/02 A2991 RMK AO2 SLP094 T03830022
2026-06-14T17:56:00Z,2026-06-14,2026-06-14,METAR,2026-06-14T20:09:01Z,37.2,99.0,2.8,37.0,1,180,S,10,11.5,17,19.6,10+,10.0,19,,FEW12000 FEW17000,1013,1009.4,,,,,,VFR,METAR KLAS 141756Z 18010G17KT 10SM FEW120 FEW170 37/03 A2991 RMK AO2 SLP094 T03720028 10372 20306 50003
2026-06-14T16:56:00Z,2026-06-14,2026-06-14,METAR,2026-06-14T20:09:01Z,36.1,97.0,4.4,39.9,1,180,S,13,15.0,21,24.2,10+,10.0,19,,FEW12000 FEW17000,1013,1009.6,,,,,,VFR,METAR KLAS 141656Z 18013G21KT 10SM FEW120 FEW170 36/04 A2991 RMK AO2 SLP096 T03610044
2026-06-14T15:56:00Z,2026-06-14,2026-06-14,METAR,2026-06-14T20:09:01Z,34.4,93.9,6.1,43.0,1,160,SSE,9,10.4,,,10+,10.0,19,,FEW12000 FEW17000,1013,1009.6,,,,,,VFR,METAR KLAS 141556Z 16009KT 10SM FEW120 FEW170 34/06 A2991 RMK AO2 SLP096 T03440061
2026-06-15T05:56:00Z,2026-06-15,2026-06-14,METAR,2026-06-15T06:09:03Z,34.4,93.9,0.6,33.1,1,230,SW,9,10.4,,,10+,10.0,,,,1011.9,1008.3,,,,,,VFR,METAR KLAS 150556Z 23009KT 10SM CLR 34/01 A2988 RMK AO2 SLP083 T03440006 10400 20344 51017
2026-06-15T04:56:00Z,2026-06-15,2026-06-14,METAR,2026-06-15T06:09:03Z,35.6,96.1,-0.6,30.9,1,210,SSW,9,10.4,,,10+,10.0,19,,FEW15000,1011.6,1008,,,,,,VFR,METAR KLAS 150456Z 21009KT 10SM FEW150 36/M01 A2987 RMK AO2 SLP080 T03561006
2026-06-15T03:56:00Z,2026-06-15,2026-06-14,METAR,2026-06-15T06:09:03Z,36.7,98.1,-2.2,28.0,1,220,SW,13,15.0,21,24.2,10+,10.0,19,,FEW15000,1010.6,1007,,,,,,VFR,METAR KLAS 150356Z 22013G21KT 10SM FEW150 37/M02 A2984 RMK AO2 SLP070 T03671022
2026-06-15T02:56:00Z,2026-06-15,2026-06-14,METAR,2026-06-15T06:09:03Z,37.8,100.0,-5,23.0,1,220,SW,12,13.8,,,10+,10.0,19,,FEW12000 FEW17000,1009.9,1006.5,,,,,,VFR,METAR KLAS 150256Z 22012KT 10SM FEW120 FEW170 38/M05 A2982 RMK AO2 SLP065 T03781050 53001
2026-06-15T01:56:00Z,2026-06-15,2026-06-14,METAR,2026-06-15T06:09:03Z,38.9,102.0,-4.4,24.1,1,210,SSW,18,20.7,26,29.9,10+,10.0,19,,FEW12000 FEW17000,1009.9,1006.2,,,,,,VFR,METAR KLAS 150156Z 21018G26KT 10SM FEW120 FEW170 39/M04 A2982 RMK AO2 PK WND 21026/0137 SLP062 T03891044
2026-06-15T00:56:00Z,2026-06-15,2026-06-14,METAR,2026-06-15T06:09:03Z,40,104.0,-3.9,25.0,1,230,SW,15,17.3,24,27.6,10+,10.0,19,,FEW12000 FEW17000,1009.6,1005.9,,,,,,VFR,METAR KLAS 150056Z 23015G24KT 10SM FEW120 FEW170 40/M04 A2981 RMK AO2 PK WND 22031/2358 SLP059 T04001039
2026-06-14T23:56:00Z,2026-06-14,2026-06-14,METAR,2026-06-15T06:09:03Z,40,104.0,-5,23.0,1,220,SW,18,20.7,28,32.2,10+,10.0,19,,FEW12000 FEW17000,1009.9,1006.4,,,,,,VFR,METAR KLAS 142356Z 22018G28KT 10SM FEW120 FEW170 40/M05 A2982 RMK AO2 PK WND 23030/2259 SLP064 T04001050 10406 20372 58016
2026-06-15T11:56:00Z,2026-06-15,2026-06-15,METAR,2026-06-15T12:52:59Z,28.9,84.0,1.7,35.1,1,240,WSW,5,5.8,,,10+,10.0,,,,1013.6,1010.1,,,,,,VFR,METAR KLAS 151156Z 24005KT 10SM CLR 29/02 A2993 RMK AO2 SLP101 T02890017 10344 20289 53010
2026-06-15T10:56:00Z,2026-06-15,2026-06-15,METAR,2026-06-15T12:52:59Z,28.9,84.0,2.2,36.0,1,210,SSW,6,6.9,,,10+,10.0,,,,1013,1009.6,,,,,,VFR,METAR KLAS 151056Z 21006KT 10SM CLR 29/02 A2991 RMK AO2 SLP096 T02890022
2026-06-15T09:56:00Z,2026-06-15,2026-06-15,METAR,2026-06-15T12:52:59Z,30.6,87.1,3.3,37.9,1,230,SW,5,5.8,,,10+,10.0,,,,1012.6,1009.2,,,,,,VFR,METAR KLAS 150956Z 23005KT 10SM CLR 31/03 A2990 RMK AO2 SLP092 T03060033
2026-06-15T08:56:00Z,2026-06-15,2026-06-15,METAR,2026-06-15T12:52:59Z,31.7,89.1,3.3,37.9,1,200,SSW,7,8.1,,,10+,10.0,,,,1012.3,1008.9,,,,,,VFR,METAR KLAS 150856Z 20007KT 10SM CLR 32/03 A2989 RMK AO2 SLP089 T03170033 51006
2026-06-15T07:56:00Z,2026-06-15,2026-06-15,METAR,2026-06-15T12:52:59Z,32.2,90.0,3.3,37.9,1,210,SSW,8,9.2,,,10+,10.0,,,,1012.3,1008.7,,,,,,VFR,METAR KLAS 150756Z 21008KT 10SM CLR 32/03 A2989 RMK AO2 SLP087 T03220033 404060306
2026-06-15T06:56:00Z,2026-06-15,2026-06-14,METAR,2026-06-15T12:52:59Z,33.9,93.0,1.1,34.0,1,200,SSW,10,11.5,,,10+,10.0,,,,1011.9,1008.6,,,,,,VFR,METAR KLAS 150656Z 20010KT 10SM CLR 34/01 A2988 RMK AO2 SLP086 T03390011
2026-06-15T16:56:00Z,2026-06-15,2026-06-15,METAR,2026-06-15T17:35:01Z,35,95.0,3.9,39.0,1,340,NNW,5,5.8,,,10+,10.0,19,,FEW18000,1015.7,1012.2,,,,,,VFR,METAR KLAS 151656Z 34005KT 10SM FEW180 35/04 A2999 RMK AO2 SLP122 T03500039
2026-06-15T15:56:00Z,2026-06-15,2026-06-15,METAR,2026-06-15T17:35:01Z,33.9,93.0,3.9,39.0,1,40,NE,5,5.8,,,10+,10.0,19,,FEW18000,1015.7,1012.2,,,,,,VFR,METAR KLAS 151556Z 04005KT 10SM FEW180 34/04 A2999 RMK AO2 SLP122 T03390039
2026-06-15T14:56:00Z,2026-06-15,2026-06-15,METAR,2026-06-15T17:35:01Z,32.2,90.0,2.8,37.0,1,0,CALM,0,0.0,,,10+,10.0,19,,FEW18000,1015.3,1012,,,,,,VFR,METAR KLAS 151456Z 00000KT 10SM FEW180 32/03 A2998 RMK AO2 SLP120 T03220028 51017
2026-06-15T13:56:00Z,2026-06-15,2026-06-15,METAR,2026-06-15T17:35:01Z,30,86.0,2.8,37.0,1,220,SW,4,4.6,,,10+,10.0,,,,1014.6,1011.3,,,,,,VFR,METAR KLAS 151356Z 22004KT 10SM CLR 30/03 A2996 RMK AO2 SLP113 T03000028
2026-06-15T12:56:00Z,2026-06-15,2026-06-15,METAR,2026-06-15T17:35:01Z,28.3,82.9,2.2,36.0,1,190,S,6,6.9,,,10+,10.0,,,,1014.3,1010.8,,,,,,VFR,METAR KLAS 151256Z 19006KT 10SM CLR 28/02 A2995 RMK AO2 SLP108 T02830022
2026-06-15T20:56:00Z,2026-06-15,2026-06-15,METAR,2026-06-15T21:35:13Z,40.6,105.1,2.8,37.0,1,180,S,7,8.1,17,19.6,10+,10.0,19,,FEW18000,1013.3,1009.8,,,,,,VFR,METAR KLAS 152056Z 18007G17KT 10SM FEW180 41/03 A2992 RMK AO2 SLP098 T04060028 58020
2026-06-15T19:56:00Z,2026-06-15,2026-06-15,METAR,2026-06-15T21:35:13Z,39.4,102.9,2.8,37.0,1,110,ESE,4,4.6,,,10+,10.0,19,,FEW18000,1014.3,1010.7,,,,,,VFR,METAR KLAS 151956Z 11004KT 10SM FEW180 39/03 A2995 RMK AO2 SLP107 T03940028
2026-06-15T18:56:00Z,2026-06-15,2026-06-15,METAR,2026-06-15T21:35:13Z,37.8,100.0,3.3,37.9,1,VRB,VRB,3,3.5,,,10+,10.0,19,,FEW18000,1015,1011.5,,,,,,VFR,METAR KLAS 151856Z VRB03KT 10SM FEW180 38/03 A2997 RMK AO2 SLP115 T03780033
2026-06-15T18:07:00Z,2026-06-15,2026-06-15,SPECI,2026-06-15T21:35:13Z,37.2,99.0,3.3,37.9,1,0,CALM,0,0.0,,,10+,10.0,19,,FEW18000,1015.3,,,,,,,VFR,SPECI KLAS 151807Z 00000KT 10SM FEW180 37/03 A2998 RMK AO2 T03720033
2026-06-15T17:56:00Z,2026-06-15,2026-06-15,METAR,2026-06-15T21:35:13Z,36.1,97.0,3.3,37.9,1,90,E,3,3.5,,,10+,10.0,19,,FEW18000,1015.3,1012,,,,,,VFR,METAR KLAS 151756Z 09003KT 10SM FEW180 36/03 A2998 RMK AO2 SLP120 T03610033 10361 20278 50001
2026-06-16T05:56:00Z,2026-06-16,2026-06-15,METAR,2026-06-16T06:16:27Z,35,95.0,-0.6,30.9,1,190,S,6,6.9,,,10+,10.0,,,,1012.3,1008.8,,,,,,VFR,METAR KLAS 160556Z 19006KT 10SM CLR 35/M01 A2989 RMK AO2 SLP088 T03501006 10417 20350 51009
2026-06-16T04:56:00Z,2026-06-16,2026-06-15,METAR,2026-06-16T06:16:27Z,36.7,98.1,-1.1,30.0,1,260,W,5,5.8,,,10+,10.0,19,,FEW12000,1012.3,1008.8,,,,,,VFR,METAR KLAS 160456Z 26005KT 10SM FEW120 37/M01 A2989 RMK AO2 SLP088 T03671011
2026-06-16T03:56:00Z,2026-06-16,2026-06-15,METAR,2026-06-16T06:16:27Z,37.2,99.0,0,32.0,1,230,SW,8,9.2,,,10+,10.0,19,,FEW12000,1011.6,1008.2,,,,,,VFR,METAR KLAS 160356Z 23008KT 10SM FEW120 37/00 A2987 RMK AO2 SLP082 T03720000
2026-06-16T02:56:00Z,2026-06-16,2026-06-15,METAR,2026-06-16T06:16:27Z,38.3,100.9,0.6,33.1,1,250,WSW,12,13.8,,,10+,10.0,19,,FEW12000,1011.3,1007.8,,,,,,VFR,METAR KLAS 160256Z 25012KT 10SM FEW120 38/01 A2986 RMK AO2 PK WND 24027/0222 SLP078 T03830006 53001
2026-06-16T01:56:00Z,2026-06-16,2026-06-15,METAR,2026-06-16T06:16:27Z,39.4,102.9,1.7,35.1,1,260,W,16,18.4,,,10+,10.0,19,,FEW12000,1011.3,1007.7,,,,,,VFR,METAR KLAS 160156Z 26016KT 10SM FEW120 39/02 A2986 RMK AO2 SLP077 T03940017
2026-06-16T00:56:00Z,2026-06-16,2026-06-15,METAR,2026-06-16T06:16:27Z,40,104.0,0,32.0,1,250,WSW,10,11.5,,,10+,10.0,19,,FEW12000,1010.9,1007.6,,,,,,VFR,METAR KLAS 160056Z 25010KT 10SM FEW120 40/00 A2985 RMK AO2 WSHFT 2352 SLP076 T04000000
2026-06-16T00:12:00Z,2026-06-16,2026-06-15,SPECI,2026-06-16T06:16:27Z,40.6,105.1,-1.1,30.0,1,270,W,8,9.2,18,20.7,10+,10.0,19,,FEW12000,1011.3,,,,,,,VFR,SPECI KLAS 160012Z 27008G18KT 230V300 10SM FEW120 41/M01 A2986 RMK AO2 WSHFT 2352 T04061011
2026-06-15T23:56:00Z,2026-06-15,2026-06-15,METAR,2026-06-16T06:16:27Z,41.1,106.0,-0.6,30.9,1,290,WNW,16,18.4,23,26.5,10+,10.0,19,,FEW12000,1011.3,1007.8,,,,,,VFR,METAR KLAS 152356Z 29016G23KT 10SM FEW120 41/M01 A2986 RMK AO2 SLP078 T04111006 10417 20356 56019
2026-06-16T10:56:00Z,2026-06-16,2026-06-16,METAR,2026-06-16T11:55:53Z,31.1,88.0,0.6,33.1,1,200,SSW,6,6.9,,,10+,10.0,,,,1011.9,1008.6,,,,,,VFR,METAR KLAS 161056Z 20006KT 10SM CLR 31/01 A2988 RMK AO2 SLP086 T03110006
2026-06-16T09:56:00Z,2026-06-16,2026-06-16,METAR,2026-06-16T11:55:53Z,31.1,88.0,0,32.0,1,220,SW,5,5.8,,,10+,10.0,,,,1011.9,1008.6,,,,,,VFR,METAR KLAS 160956Z 22005KT 10SM CLR 31/00 A2988 RMK AO2 SLP086 T03110000
2026-06-16T08:56:00Z,2026-06-16,2026-06-16,METAR,2026-06-16T11:55:53Z,32.8,91.0,-0.6,30.9,1,180,S,5,5.8,,,10+,10.0,,,,1012.3,1008.7,,,,,,VFR,METAR KLAS 160856Z 18005KT 10SM CLR 33/M01 A2989 RMK AO2 SLP087 T03281006 56000
2026-06-16T07:56:00Z,2026-06-16,2026-06-16,METAR,2026-06-16T11:55:53Z,33.9,93.0,-1.7,28.9,1,180,S,5,5.8,,,10+,10.0,,,,1012.3,1008.7,,,,,,VFR,METAR KLAS 160756Z 18005KT 10SM CLR 34/M02 A2989 RMK AO2 SLP087 T03391017 404170278
2026-06-16T06:56:00Z,2026-06-16,2026-06-15,METAR,2026-06-16T11:55:53Z,34.4,93.9,-0.6,30.9,1,200,SSW,9,10.4,,,10+,10.0,,,,1012.3,1008.7,,,,,,VFR,METAR KLAS 160656Z 20009KT 10SM CLR 34/M01 A2989 RMK AO2 SLP087 T03441006
2026-06-16T16:56:00Z,2026-06-16,2026-06-16,METAR,2026-06-16T17:50:05Z,37.2,99.0,-1.1,30.0,1,0,CALM,0,0.0,,,10+,10.0,44,,FEW13000 SCT20000,1013.3,1009.9,,,,,,VFR,METAR KLAS 161656Z 00000KT 10SM FEW130 SCT200 37/M01 A2992 RMK AO2 SLP099 FU SCT200 T03721011
2026-06-16T15:56:00Z,2026-06-16,2026-06-16,METAR,2026-06-16T17:50:05Z,35,95.0,2.2,36.0,1,VRB,VRB,4,4.6,,,10+,10.0,44,,SCT20000,1014,1010.4,,,,,,VFR,METAR KLAS 161556Z VRB04KT 10SM SCT200 35/02 A2994 RMK AO2 SLP104 FU SCT200 T03500022
2026-06-16T14:56:00Z,2026-06-16,2026-06-16,METAR,2026-06-16T17:50:05Z,33.9,93.0,2.2,36.0,1,0,CALM,0,0.0,,,10+,10.0,44,,SCT20000,1014,1010.5,,,,,,VFR,METAR KLAS 161456Z 00000KT 10SM SCT200 34/02 A2994 RMK AO2 SLP105 FU SCT200 T03390022 51014
2026-06-16T13:56:00Z,2026-06-16,2026-06-16,METAR,2026-06-16T17:50:05Z,31.1,88.0,1.7,35.1,1,0,CALM,0,0.0,,,10+,10.0,44,,SCT20000,1013.6,1010.1,,,,,,VFR,METAR KLAS 161356Z 00000KT 10SM SCT200 31/02 A2993 RMK AO2 SLP101 FU SCT200 T03110017
2026-06-16T12:56:00Z,2026-06-16,2026-06-16,METAR,2026-06-16T17:50:05Z,30.6,87.1,0.6,33.1,1,200,SSW,6,6.9,,,10+,10.0,44,,FEW15000 SCT20000,1013,1009.4,,,,,,VFR,METAR KLAS 161256Z 20006KT 10SM FEW150 SCT200 31/01 A2991 RMK AO2 SLP094 FU SCT200 T03060006
2026-06-16T11:56:00Z,2026-06-16,2026-06-16,METAR,2026-06-16T17:50:05Z,31.1,88.0,0.6,33.1,1,200,SSW,6,6.9,,,10+,10.0,,,,1012.3,1009,,,,,,VFR,METAR KLAS 161156Z 20006KT 10SM CLR 31/01 A2989 RMK AO2 SLP090 T03110006 10350 20311 53002
2026-06-16T20:56:00Z,2026-06-16,2026-06-16,METAR,2026-06-16T21:33:30Z,41.7,107.1,0.6,33.1,1,VRB,VRB,4,4.6,,,10+,10.0,75,20000,FEW13000 BKN20000,1010.6,1007,,,,,,VFR,METAR KLAS 162056Z COR VRB04KT 10SM FEW130 BKN200 42/01 A2984 RMK AO2 PK WND 21026/2008 WSHFT 2006 SLP070 FU BKN200 T04170006 58022
2026-06-16T20:21:00Z,2026-06-16,2026-06-16,SPECI,2026-06-16T21:33:30Z,41.7,107.1,0,32.0,1,220,SW,13,15.0,24,27.6,10+,10.0,75,20000,FEW13000 BKN20000,1010.9,,,,,,,VFR,SPECI KLAS 162021Z 22013G24KT 10SM FEW130 BKN200 42/00 A2985 RMK AO2 PK WND 21026/2008 WSHFT 2006 FU BKN200 T04170000
2026-06-16T19:56:00Z,2026-06-16,2026-06-16,METAR,2026-06-16T21:33:30Z,40.6,105.1,1.7,35.1,1,280,W,10,11.5,14,16.1,10+,10.0,75,20000,FEW13000 BKN20000,1011.3,1007.8,,,,,,VFR,METAR KLAS 161956Z 28010G14KT 10SM FEW130 BKN200 41/02 A2986 RMK AO2 SLP078 FU BKN200 T04060017
2026-06-16T18:56:00Z,2026-06-16,2026-06-16,METAR,2026-06-16T21:33:30Z,40,104.0,0.6,33.1,1,VRB,VRB,5,5.8,,,10+,10.0,75,20000,FEW13000 BKN20000,1012.3,1008.7,,,,,,VFR,METAR KLAS 161856Z VRB05KT 10SM FEW130 BKN200 40/01 A2989 RMK AO2 SLP087 FU BKN200 T04000006
2026-06-16T17:56:00Z,2026-06-16,2026-06-16,METAR,2026-06-16T21:33:30Z,38.3,100.9,-1.1,30.0,1,0,CALM,0,0.0,,,10+,10.0,44,,FEW13000 SCT20000,1013,1009.3,,,,,,VFR,METAR KLAS 161756Z 00000KT 10SM FEW130 SCT200 38/M01 A2991 RMK AO2 SLP093 FU SCT200 T03831011 10383 20306 58009
2026-06-17T04:56:00Z,2026-06-17,2026-06-16,METAR,2026-06-17T05:31:00Z,37.2,99.0,0,32.0,1,210,SSW,7,8.1,,,10+,10.0,19,,FEW13000 FEW20000,1008.2,1004.5,,,,,,VFR,METAR KLAS 170456Z 21007KT 10SM FEW130 FEW200 37/00 A2977 RMK AO2 SLP045 T03720000
2026-06-17T03:56:00Z,2026-06-17,2026-06-16,METAR,2026-06-17T05:31:00Z,38.3,100.9,0,32.0,1,230,SW,9,10.4,,,10+,10.0,19,,FEW13000 FEW20000,1007.9,1004.3,,,,,,VFR,METAR KLAS 170356Z 23009KT 10SM FEW130 FEW200 38/00 A2976 RMK AO2 SLP043 T03830000
2026-06-17T02:56:00Z,2026-06-17,2026-06-16,METAR,2026-06-17T05:31:00Z,39.4,102.9,0.6,33.1,1,240,WSW,11,12.7,19,21.9,10+,10.0,44,,FEW13000 SCT20000,1007.9,1004.1,,,,,,VFR,METAR KLAS 170256Z 24011G19KT 10SM FEW130 SCT200 39/01 A2976 RMK AO2 SLP041 FU SCT200 T03940006 55005
2026-06-17T01:56:00Z,2026-06-17,2026-06-16,METAR,2026-06-17T05:31:00Z,40.6,105.1,0,32.0,1,260,W,12,13.8,19,21.9,10+,10.0,44,,FEW13000 SCT20000,1007.5,1004,,,,,,VFR,METAR KLAS 170156Z 26012G19KT 10SM FEW130 SCT200 41/00 A2975 RMK AO2 SLP040 FU SCT200 T04060000
2026-06-17T00:56:00Z,2026-06-17,2026-06-16,METAR,2026-06-17T05:31:00Z,41.7,107.1,-1.7,28.9,1,210,SSW,11,12.7,22,25.3,10+,10.0,44,,FEW13000 SCT20000,1007.9,1004.2,,,,,,VFR,METAR KLAS 170056Z 21011G22KT 10SM FEW130 SCT200 42/M02 A2976 RMK AO2 SLP042 FU SCT200 T04171017
2026-06-16T23:56:00Z,2026-06-16,2026-06-16,METAR,2026-06-17T05:31:00Z,41.7,107.1,0,32.0,1,200,SSW,8,9.2,18,20.7,10+,10.0,44,,FEW13000 SCT20000,1008.2,1004.7,,,,,,VFR,METAR KLAS 162356Z 20008G18KT 10SM FEW130 SCT200 42/00 A2977 RMK AO2 SLP047 FU SCT200 T04170000 10428 20383 56021
2026-06-16T22:56:00Z,2026-06-16,2026-06-16,METAR,2026-06-17T05:31:00Z,42.2,108.0,1.1,34.0,1,200,SSW,13,15.0,25,28.8,10+,10.0,44,,FEW13000 SCT20000,1008.5,1005.1,,,,,,VFR,METAR KLAS 162256Z 20013G25KT 10SM FEW130 SCT200 42/01 A2978 RMK AO2 SLP051 FU SCT200 T04220011
2026-06-17T10:56:00Z,2026-06-17,2026-06-17,METAR,2026-06-17T11:22:40Z,32.2,90.0,3.9,39.0,1,200,SSW,8,9.2,,,10+,10.0,,,,1007.9,1004.2,,,,,,VFR,METAR KLAS 171056Z 20008KT 10SM CLR 32/04 A2976 RMK AO2 SLP042 T03220039
2026-06-17T09:56:00Z,2026-06-17,2026-06-17,METAR,2026-06-17T11:22:40Z,32.8,91.0,3.9,39.0,1,190,S,6,6.9,,,10+,10.0,19,,FEW20000,1007.9,1004.1,,,,,,VFR,METAR KLAS 170956Z 19006KT 10SM FEW200 33/04 A2976 RMK AO2 SLP041 T03280039
2026-06-17T08:56:00Z,2026-06-17,2026-06-17,METAR,2026-06-17T11:22:40Z,33.9,93.0,3.9,39.0,1,200,SSW,9,10.4,,,10+,10.0,19,,FEW20000,1007.9,1004,,,,,,VFR,METAR KLAS 170856Z 20009KT 10SM FEW200 34/04 A2976 RMK AO2 SLP040 T03390039 58001
2026-06-17T07:56:00Z,2026-06-17,2026-06-17,METAR,2026-06-17T11:22:40Z,35,95.0,2.8,37.0,1,200,SSW,12,13.8,18,20.7,10+,10.0,19,,FEW20000,1007.9,1004.1,,,,,,VFR,METAR KLAS 170756Z 20012G18KT 10SM FEW200 35/03 A2976 RMK AO2 SLP041 T03500028 404280306
2026-06-17T06:56:00Z,2026-06-17,2026-06-16,METAR,2026-06-17T11:22:40Z,35.6,96.1,1.7,35.1,1,210,SSW,8,9.2,,,10+,10.0,19,,FEW20000,1007.9,1004.2,,,,,,VFR,METAR KLAS 170656Z 21008KT 10SM FEW200 36/02 A2976 RMK AO2 SLP042 T03560017
2026-06-17T05:56:00Z,2026-06-17,2026-06-16,METAR,2026-06-17T11:22:40Z,36.7,98.1,-0.6,30.9,1,210,SSW,10,11.5,,,9,9.0,19,,FEW20000,1007.9,1004.1,,,,,,VFR,METAR KLAS 170556Z 21010KT 9SM FEW200 37/M01 A2976 RMK AO2 SLP041 T03671006 10422 20367 50001
2026-06-17T15:56:00Z,2026-06-17,2026-06-17,METAR,2026-06-17T16:28:30Z,36.1,97.0,4.4,39.9,1,VRB,VRB,4,4.6,,,10+,10.0,19,,FEW20000,1009.6,1005.8,,,,,,VFR,METAR KLAS 171556Z VRB04KT 10SM FEW200 36/04 A2981 RMK AO2 SLP058 FU FEW200 T03610044
2026-06-17T14:56:00Z,2026-06-17,2026-06-17,METAR,2026-06-17T16:28:30Z,33.3,91.9,5,41.0,1,190,S,9,10.4,16,18.4,10+,10.0,44,,SCT20000,1009.2,1005.5,,,,,,VFR,METAR KLAS 171456Z 19009G16KT 10SM SCT200 33/05 A2980 RMK AO2 SLP055 FU SCT200 T03330050 51010
2026-06-17T13:56:00Z,2026-06-17,2026-06-17,METAR,2026-06-17T16:28:30Z,31.7,89.1,4.4,39.9,1,190,S,9,10.4,,,10+,10.0,44,,SCT20000,1008.9,1005.5,,,,,,VFR,METAR KLAS 171356Z 19009KT 10SM SCT200 32/04 A2979 RMK AO2 SLP055 FU SCT200 T03170044
2026-06-17T12:56:00Z,2026-06-17,2026-06-17,METAR,2026-06-17T16:28:30Z,30.6,87.1,3.9,39.0,1,200,SSW,10,11.5,,,10+,10.0,19,,FEW20000 FEW25000,1008.5,1005.1,,,,,,VFR,METAR KLAS 171256Z 20010KT 10SM FEW200 FEW250 31/04 A2978 RMK AO2 SLP051 FU FEW200 T03060039
2026-06-17T11:56:00Z,2026-06-17,2026-06-17,METAR,2026-06-17T16:28:30Z,31.1,88.0,3.9,39.0,1,190,S,6,6.9,,,10+,10.0,,,,1008.2,1004.4,,,,,,VFR,METAR KLAS 171156Z 19006KT 10SM CLR 31/04 A2977 RMK AO2 SLP044 T03110039 10367 20311 53003
2026-06-17T19:56:00Z,2026-06-17,2026-06-17,METAR,2026-06-17T20:37:44Z,41.7,107.1,-0.6,30.9,1,260,W,11,12.7,19,21.9,10+,10.0,44,,FEW13000 SCT20000,1007.9,1004.2,,,,,,VFR,METAR KLAS 171956Z 26011G19KT 10SM FEW130 SCT200 42/M01 A2976 RMK AO2 SLP042 FU SCT200 T04171006
2026-06-17T18:56:00Z,2026-06-17,2026-06-17,METAR,2026-06-17T20:37:44Z,40.6,105.1,1.7,35.1,1,300,WNW,5,5.8,,,10+,10.0,44,,FEW13000 SCT20000,1008.2,1004.6,,,,,,VFR,METAR KLAS 171856Z 30005KT 10SM FEW130 SCT200 41/02 A2977 RMK AO2 SLP046 FU SCT200 T04060017
2026-06-17T17:56:00Z,2026-06-17,2026-06-17,METAR,2026-06-17T20:37:44Z,39.4,102.9,3.3,37.9,1,50,NE,4,4.6,,,10+,10.0,44,,FEW13000 SCT20000,1008.5,1005,,,,,,VFR,METAR KLAS 171756Z 05004KT 10SM FEW130 SCT200 39/03 A2978 RMK AO2 SLP050 FU SCT200 T03940033 10394 20306 58004
2026-06-17T16:56:00Z,2026-06-17,2026-06-17,METAR,2026-06-17T20:37:44Z,37.2,99.0,3.9,39.0,1,VRB,VRB,5,5.8,,,10+,10.0,19,,FEW20000,1009.2,1005.6,,,,,,VFR,METAR KLAS 171656Z VRB05KT 10SM FEW200 37/04 A2980 RMK AO2 SLP056 FU FEW200 T03720039
2026-06-18T04:56:00Z,2026-06-18,2026-06-17,METAR,2026-06-18T05:23:55Z,36.7,98.1,-8.3,17.1,1,220,SW,10,11.5,,,9,9.0,75,14000,BKN14000 BKN20000,1006.5,1002.7,,,,,,VFR,METAR KLAS 180456Z 22010KT 9SM BKN140 BKN200 37/M08 A2972 RMK AO2 SLP027 FU BKN140 FU BKN200 T03671083
2026-06-18T03:56:00Z,2026-06-18,2026-06-17,METAR,2026-06-18T05:23:55Z,37.8,100.0,-5,23.0,1,220,SW,9,10.4,,,10+,10.0,75,20000,FEW13000 BKN20000 BKN25000,1005.8,1002.1,,,,,,VFR,METAR KLAS 180356Z 22009KT 10SM FEW130 BKN200 BKN250 38/M05 A2970 RMK AO2 SLP021 FU BKN200 T03781050
2026-06-18T02:56:00Z,2026-06-18,2026-06-17,METAR,2026-06-18T05:23:55Z,38.9,102.0,-2.8,27.0,1,220,SW,13,15.0,,,10+,10.0,75,20000,FEW13000 BKN20000 BKN25000,1005.5,1001.8,,,,,,VFR,METAR KLAS 180256Z 22013KT 10SM FEW130 BKN200 BKN250 39/M03 A2969 RMK AO2 SLP018 FU BKN200 T03891028 55003
2026-06-18T01:56:00Z,2026-06-18,2026-06-17,METAR,2026-06-18T05:23:55Z,40,104.0,-1.7,28.9,1,240,WSW,12,13.8,,,10+,10.0,44,,FEW13000 SCT20000 SCT25000,1005.2,1001.5,,,,,,VFR,METAR KLAS 180156Z 24012KT 10SM FEW130 SCT200 SCT250 40/M02 A2968 RMK AO2 SLP015 FU SCT200 T04001017
2026-06-18T00:56:00Z,2026-06-18,2026-06-17,METAR,2026-06-18T05:23:55Z,41.1,106.0,-2.2,28.0,1,250,WSW,12,13.8,19,21.9,10+,10.0,44,,FEW13000 SCT20000 SCT25000,1005.2,1001.7,,,,,,VFR,METAR KLAS 180056Z 25012G19KT 10SM FEW130 SCT200 SCT250 41/M02 A2968 RMK AO2 SLP017 FU SCT200 T04111022
2026-06-17T23:56:00Z,2026-06-17,2026-06-17,METAR,2026-06-18T05:23:55Z,41.7,107.1,-1.7,28.9,1,180,S,12,13.8,22,25.3,10+,10.0,44,,FEW13000 SCT20000 SCT25000,1005.8,1002.1,,,,,,VFR,METAR KLAS 172356Z 18012G22KT 10SM FEW130 SCT200 SCT250 42/M02 A2970 RMK AO2 SLP021 FU SCT200 T04171017 10422 20389 56016
2026-06-17T22:56:00Z,2026-06-17,2026-06-17,METAR,2026-06-18T05:23:55Z,42.2,108.0,-1.1,30.0,1,230,SW,13,15.0,21,24.2,10+,10.0,44,,FEW13000 SCT20000,1006.2,1002.5,,,,,,VFR,METAR KLAS 172256Z 23013G21KT 10SM FEW130 SCT200 42/M01 A2971 RMK AO2 SLP025 FU SCT200 T04221011
2026-06-17T22:25:00Z,2026-06-17,2026-06-17,SPECI,2026-06-18T05:23:55Z,41.7,107.1,0.6,33.1,1,190,S,10,11.5,16,18.4,10+,10.0,44,,FEW13000 SCT20000,1006.5,,,,,,,VFR,SPECI KLAS 172225Z 19010G16KT 10SM FEW130 SCT200 42/01 A2972 RMK AO2 FU SCT200 T04170006
2026-06-18T10:56:00Z,2026-06-18,2026-06-18,METAR,2026-06-18T11:00:18Z,30.6,87.1,2.8,37.0,1,180,S,8,9.2,,,10+,10.0,75,19000,BKN19000,1007.9,1004.2,,,,,,VFR,METAR KLAS 181056Z 18008KT 10SM BKN190 31/03 A2976 RMK AO2 SLP042 FU BKN190 T03060028 $
2026-06-18T09:56:00Z,2026-06-18,2026-06-18,METAR,2026-06-18T11:00:18Z,31.1,88.0,3.3,37.9,1,180,S,8,9.2,,,10+,10.0,75,19000,BKN19000,1007.5,1003.9,,,,,,VFR,METAR KLAS 180956Z 18008KT 10SM BKN190 31/03 A2975 RMK AO2 SLP039 FU BKN190 T03110033 $
2026-06-18T08:56:00Z,2026-06-18,2026-06-18,METAR,2026-06-18T11:00:18Z,32.2,90.0,2.8,37.0,1,190,S,9,10.4,,,9,9.0,75,19000,BKN19000,1007.2,1003.4,,,,,,VFR,METAR KLAS 180856Z 19009KT 9SM BKN190 32/03 A2974 RMK AO2 SLP034 FU BKN190 T03220028 51007 $
2026-06-18T07:56:00Z,2026-06-18,2026-06-18,METAR,2026-06-18T11:00:18Z,33.3,91.9,2.8,37.0,1,190,S,9,10.4,16,18.4,10+,10.0,75,20000,BKN20000,1006.9,1003.2,,,,,,VFR,METAR KLAS 180756Z 19009G16KT 10SM BKN200 33/03 A2973 RMK AO2 SLP032 FU BKN200 T03330028 404220306 $
2026-06-18T06:56:00Z,2026-06-18,2026-06-17,METAR,2026-06-18T11:00:18Z,34.4,93.9,-2.8,27.0,1,210,SSW,12,13.8,18,20.7,10+,10.0,75,20000,BKN20000,1006.9,1003.1,,,,,,VFR,METAR KLAS 180656Z 21012G18KT 10SM BKN200 34/M03 A2973 RMK AO2 SLP031 FU BKN200 T03441028
2026-06-18T05:56:00Z,2026-06-18,2026-06-17,METAR,2026-06-18T11:00:18Z,36.1,97.0,-9.4,15.1,1,230,SW,11,12.7,,,10+,10.0,75,20000,FEW14000 BKN20000,1006.2,1002.6,,,,,,VFR,METAR KLAS 180556Z 23011KT 10SM FEW140 BKN200 36/M09 A2971 RMK AO2 SLP026 FU FEW140 FU BKN200 T03611094 10422 20356 50009
2026-06-18T15:56:00Z,2026-06-18,2026-06-18,METAR,2026-06-18T16:16:48Z,34.4,93.9,2.2,36.0,1,200,SSW,7,8.1,,,10+,10.0,44,,FEW15000 SCT20000,1010.9,1007.4,,,,,,VFR,METAR KLAS 181556Z 20007KT 10SM FEW150 SCT200 34/02 A2985 RMK AO2 SLP074 FU SCT200 T03440022
2026-06-18T14:56:00Z,2026-06-18,2026-06-18,METAR,2026-06-18T16:16:48Z,32.2,90.0,3.3,37.9,1,190,S,9,10.4,,,10+,10.0,44,,FEW15000 SCT20000,1010.6,1006.9,,,,,,VFR,METAR KLAS 181456Z 19009KT 10SM FEW150 SCT200 32/03 A2984 RMK AO2 SLP069 FU SCT200 T03220033 51021 $
2026-06-18T13:56:00Z,2026-06-18,2026-06-18,METAR,2026-06-18T16:16:48Z,30,86.0,3.3,37.9,1,180,S,6,6.9,,,10+,10.0,75,20000,FEW15000 BKN20000,1009.9,1006.5,,,,,,VFR,METAR KLAS 181356Z 18006KT 10SM FEW150 BKN200 30/03 A2982 RMK AO2 SLP065 FU BKN200 T03000033 $
2026-06-18T12:56:00Z,2026-06-18,2026-06-18,METAR,2026-06-18T16:16:48Z,29.4,84.9,2.8,37.0,1,200,SSW,9,10.4,,,10+,10.0,75,20000,SCT15000 BKN20000,1008.9,1005.4,,,,,,VFR,METAR KLAS 181256Z 20009KT 10SM SCT150 BKN200 29/03 A2979 RMK AO2 SLP054 FU BKN200 T02940028 $
2026-06-18T12:07:00Z,2026-06-18,2026-06-18,SPECI,2026-06-18T16:16:48Z,30,86.0,2.8,37.0,1,180,S,8,9.2,,,10+,10.0,75,19000,BKN19000 BKN25000,1008.2,,,,,,,VFR,SPECI KLAS 181207Z 18008KT 10SM BKN190 BKN250 30/03 A2977 RMK AO2 FU BKN250 T03000028 $
2026-06-18T11:56:00Z,2026-06-18,2026-06-18,METAR,2026-06-18T16:16:48Z,30.6,87.1,2.8,37.0,1,180,S,7,8.1,,,10+,10.0,75,19000,BKN19000 BKN25000,1008.2,1004.7,,,,,,VFR,METAR KLAS 181156Z COR 18007KT 10SM BKN190 BKN250 31/03 A2977 RMK AO2 SLP047 FU BKN200 T03060028 10367 20306 53011 $
2026-06-18T20:56:00Z,2026-06-18,2026-06-18,METAR,2026-06-18T21:09:26Z,40,104.0,0,32.0,1,VRB,VRB,3,3.5,,,10+,10.0,44,,FEW15000 SCT20000,1009.6,1005.9,,,,,,VFR,METAR KLAS 182056Z COR VRB03KT 10SM FEW150 SCT200 40/00 A2981 RMK AO2 SLP059 FU SCT200 T04000000 58013
2026-06-18T19:56:00Z,2026-06-18,2026-06-18,METAR,2026-06-18T21:09:26Z,39.4,102.9,-1.1,30.0,1,VRB,VRB,6,6.9,,,10+,10.0,44,,FEW15000 SCT20000,1010.2,1006.6,,,,,,VFR,METAR KLAS 181956Z VRB06KT 10SM FEW150 SCT200 39/M01 A2983 RMK AO2 SLP066 FU SCT200 T03941011
2026-06-18T18:56:00Z,2026-06-18,2026-06-18,METAR,2026-06-18T21:09:26Z,38.9,102.0,-2.2,28.0,1,190,S,12,13.8,20,23.0,10+,10.0,44,,FEW15000 SCT20000,1010.6,1006.9,,,,,,VFR,METAR KLAS 181856Z 19012G20KT 10SM FEW150 SCT200 39/M02 A2984 RMK AO2 SLP069 FU SCT200 T03891022
2026-06-18T17:56:00Z,2026-06-18,2026-06-18,METAR,2026-06-18T21:09:26Z,37.8,100.0,-2.2,28.0,1,230,SW,7,8.1,18,20.7,10+,10.0,44,,FEW15000 SCT20000,1010.9,1007.2,,,,,,VFR,METAR KLAS 181756Z 23007G18KT 190V280 10SM FEW150 SCT200 38/M02 A2985 RMK AO2 SLP072 FU SCT200 T03781022 10383 20294 50004
2026-06-18T16:56:00Z,2026-06-18,2026-06-18,METAR,2026-06-18T21:09:26Z,36.1,97.0,1.1,34.0,1,VRB,VRB,5,5.8,,,10+,10.0,44,,FEW15000 SCT20000,1010.9,1007.3,,,,,,VFR,METAR KLAS 181656Z VRB05KT 10SM FEW150 SCT200 36/01 A2985 RMK AO2 SLP073 FU SCT200 T03610011
2026-06-18T21:56:00Z,2026-06-18,2026-06-18,METAR,2026-06-18T22:39:03Z,40.6,105.1,0,32.0,1,230,SW,10,11.5,17,19.6,10+,10.0,44,,FEW15000 SCT20000,1008.9,1005.4,,,,,,VFR,METAR KLAS 182156Z 23010G17KT 10SM FEW150 SCT200 41/00 A2979 RMK AO2 SLP054 FU SCT200 T04060000
2026-06-19T05:56:00Z,2026-06-19,2026-06-18,METAR,2026-06-19T05:58:39Z,33.9,93.0,-1.1,30.0,1,210,SSW,10,11.5,,,10+,10.0,19,,FEW20000,1010.2,1006.7,,,,,,VFR,METAR KLAS 190556Z 21010KT 10SM FEW200 34/M01 A2983 RMK AO2 SLP067 T03391011 10406 20339 51020
2026-06-19T04:56:00Z,2026-06-19,2026-06-18,METAR,2026-06-19T05:58:39Z,35,95.0,-0.6,30.9,1,250,WSW,8,9.2,,,10+,10.0,19,,FEW20000,1009.9,1006.3,,,,,,VFR,METAR KLAS 190456Z 25008KT 10SM FEW200 35/M01 A2982 RMK AO2 SLP063 FU FEW200 T03501006
2026-06-19T03:56:00Z,2026-06-19,2026-06-18,METAR,2026-06-19T05:58:39Z,36.1,97.0,-1.7,28.9,1,220,SW,10,11.5,,,10+,10.0,19,,FEW20000,1008.5,1005.2,,,,,,VFR,METAR KLAS 190356Z 22010KT 10SM FEW200 36/M02 A2978 RMK AO2 SLP052 FU FEW200 T03611017
2026-06-19T02:56:00Z,2026-06-19,2026-06-18,METAR,2026-06-19T05:58:39Z,37.2,99.0,-2.2,28.0,1,170,S,9,10.4,19,21.9,10+,10.0,19,,FEW20000,1008.2,1004.6,,,,,,VFR,METAR KLAS 190256Z 17009G19KT 10SM FEW200 37/M02 A2977 RMK AO2 SLP046 FU FEW200 T03721022 53000
2026-06-19T01:56:00Z,2026-06-19,2026-06-18,METAR,2026-06-19T05:58:39Z,38.3,100.9,-1.1,30.0,1,160,SSE,9,10.4,20,23.0,10+,10.0,19,,FEW15000 FEW20000,1007.5,1004.2,,,,,,VFR,METAR KLAS 190156Z 16009G20KT 10SM FEW150 FEW200 38/M01 A2975 RMK AO2 SLP042 FU FEW200 T03831011
2026-06-19T01:09:00Z,2026-06-19,2026-06-18,SPECI,2026-06-19T05:58:39Z,39.4,102.9,0,32.0,1,140,SE,11,12.7,20,23.0,10+,10.0,19,,FEW15000 FEW20000,1007.5,,,,,,,VFR,SPECI KLAS 190109Z 14011G20KT 10SM FEW150 FEW200 39/00 A2975 RMK AO2 FU FEW200 T03940000
2026-06-19T00:56:00Z,2026-06-19,2026-06-18,METAR,2026-06-19T05:58:39Z,39.4,102.9,0,32.0,1,150,SSE,12,13.8,19,21.9,10+,10.0,19,,FEW15000 FEW20000,1007.5,1004.1,,,,,,VFR,METAR KLAS 190056Z 15012G19KT 10SM FEW150 FEW200 39/00 A2975 RMK AO2 SLP041 FU FEW200 T03940000
2026-06-19T00:29:00Z,2026-06-19,2026-06-18,SPECI,2026-06-19T05:58:39Z,40,104.0,0,32.0,1,170,S,11,12.7,19,21.9,10+,10.0,19,,FEW15000 FEW20000,1007.9,,,,,,,VFR,SPECI KLAS 190029Z 17011G19KT 10SM FEW150 FEW200 40/00 A2976 RMK AO2 FU FEW200 T04000000
2026-06-18T23:56:00Z,2026-06-18,2026-06-18,METAR,2026-06-19T05:58:39Z,40.6,105.1,0.6,33.1,1,150,SSE,10,11.5,20,23.0,10+,10.0,19,,FEW15000 FEW20000,1007.9,1004.5,,,,,,VFR,METAR KLAS 182356Z 15010G20KT 10SM FEW150 FEW200 41/01 A2976 RMK AO2 PK WND 21026/2318 WSHFT 2315 SLP045 FU FEW200 T04060006 10411 20378 56013
2026-06-18T23:35:00Z,2026-06-18,2026-06-18,SPECI,2026-06-19T05:58:39Z,40,104.0,0.6,33.1,1,140,SE,9,10.4,17,19.6,10+,10.0,19,,FEW15000 FEW20000,1008.2,,,,,,,VFR,SPECI KLAS 182335Z 14009G17KT 10SM FEW150 FEW200 40/01 A2977 RMK AO2 PK WND 21026/2318 WSHFT 2315 FU FEW200 T04000006
2026-06-19T10:56:00Z,2026-06-19,2026-06-19,METAR,2026-06-19T11:06:27Z,29.4,84.9,-1.7,28.9,1,190,S,5,5.8,,,10+,10.0,,,,1010.9,1007.5,,,,,,VFR,METAR KLAS 191056Z 19005KT 10SM CLR 29/M02 A2985 RMK AO2 SLP075 T02941017
2026-06-19T09:56:00Z,2026-06-19,2026-06-19,METAR,2026-06-19T11:06:27Z,29.4,84.9,-1.7,28.9,1,180,S,5,5.8,,,10+,10.0,,,,1010.6,1007.2,,,,,,VFR,METAR KLAS 190956Z 18005KT 10SM CLR 29/M02 A2984 RMK AO2 SLP072 T02941017
2026-06-19T08:56:00Z,2026-06-19,2026-06-19,METAR,2026-06-19T11:06:27Z,31.1,88.0,-1.7,28.9,1,180,S,6,6.9,,,10+,10.0,19,,FEW20000,1010.2,1006.9,,,,,,VFR,METAR KLAS 190856Z 18006KT 10SM FEW200 31/M02 A2983 RMK AO2 SLP069 T03111017 51001
2026-06-19T07:56:00Z,2026-06-19,2026-06-19,METAR,2026-06-19T11:06:27Z,31.7,89.1,-1.1,30.0,1,160,SSE,5,5.8,,,10+,10.0,19,,FEW20000,1010.2,1006.9,,,,,,VFR,METAR KLAS 190756Z 16005KT 10SM FEW200 32/M01 A2983 RMK AO2 SLP069 T03171011 404110294
2026-06-19T06:56:00Z,2026-06-19,2026-06-18,METAR,2026-06-19T11:06:27Z,32.8,91.0,-1.7,28.9,1,200,SSW,6,6.9,,,10+,10.0,19,,FEW20000,1010.2,1006.8,,,,,,VFR,METAR KLAS 190656Z 20006KT 10SM FEW200 33/M02 A2983 RMK AO2 SLP068 T03281017
2026-06-19T13:56:00Z,2026-06-19,2026-06-19,METAR,2026-06-19T15:53:04Z,30,86.0,1.1,34.0,1,190,S,4,4.6,,,10+,10.0,,,,1012.3,1008.9,,,,,,VFR,METAR KLAS 191356Z 19004KT 10SM CLR 30/01 A2989 RMK AO2 SLP089 T03000011
2026-06-19T12:56:00Z,2026-06-19,2026-06-19,METAR,2026-06-19T15:53:04Z,28.9,84.0,0,32.0,1,190,S,4,4.6,,,10+,10.0,19,,FEW14000,1011.6,1008.3,,,,,,VFR,METAR KLAS 191256Z 19004KT 10SM FEW140 29/00 A2987 RMK AO2 SLP083 T02890000
2026-06-19T11:56:00Z,2026-06-19,2026-06-19,METAR,2026-06-19T15:53:04Z,28.9,84.0,-0.6,30.9,1,190,S,6,6.9,,,10+,10.0,19,,FEW11000,1011.3,1007.8,,,,,,VFR,METAR KLAS 191156Z 19006KT 10SM FEW110 29/M01 A2986 RMK AO2 SLP078 T02891006 10339 20289 53007
2026-06-19T19:56:00Z,2026-06-19,2026-06-19,METAR,2026-06-19T20:19:42Z,36.7,98.1,-0.6,30.9,1,160,SSE,10,11.5,27,31.1,10+,10.0,,,,1010.9,1007.7,,,,,,VFR,METAR KLAS 191956Z 16010G27KT 120V200 10SM CLR 37/M01 A2985 RMK AO2 PK WND 18027/1954 SLP077 T03671006
2026-06-19T18:56:00Z,2026-06-19,2026-06-19,METAR,2026-06-19T20:19:42Z,35,95.0,0,32.0,1,160,SSE,7,8.1,17,19.6,10+,10.0,,,,1011.9,1008.4,,,,,,VFR,METAR KLAS 191856Z 16007G17KT 100V230 10SM CLR 35/00 A2988 RMK AO2 SLP084 T03500000
2026-06-20T03:56:00Z,2026-06-20,2026-06-19,METAR,2026-06-20T04:59:58Z,34.4,93.9,-0.6,30.9,1,210,SSW,7,8.1,,,10+,10.0,,,,1008.5,1005.2,,,,,,VFR,METAR KLAS 200356Z 21007KT 10SM CLR 34/M01 A2978 RMK AO2 SLP052 T03441006
2026-06-20T02:56:00Z,2026-06-20,2026-06-19,METAR,2026-06-20T04:59:58Z,35.6,96.1,-0.6,30.9,1,240,WSW,14,16.1,,,10+,10.0,,,,1008.2,1004.9,,,,,,VFR,METAR KLAS 200256Z 24014KT 10SM CLR 36/M01 A2977 RMK AO2 SLP049 T03561006 53003
2026-06-20T01:56:00Z,2026-06-20,2026-06-19,METAR,2026-06-20T04:59:58Z,36.7,98.1,-2.2,28.0,1,240,WSW,14,16.1,25,28.8,10+,10.0,,,,1007.9,1004.5,,,,,,VFR,METAR KLAS 200156Z 24014G25KT 10SM CLR 37/M02 A2976 RMK AO2 SLP045 T03671022 TSNO
2026-06-20T00:56:00Z,2026-06-20,2026-06-19,METAR,2026-06-20T04:59:58Z,38.3,100.9,-2.2,28.0,1,220,SW,17,19.6,24,27.6,10+,10.0,,,,1007.5,1004.2,,,,,,VFR,METAR KLAS 200056Z 22017G24KT 10SM CLR 38/M02 A2975 RMK AO2 SLP042 T03831022
2026-06-19T23:56:00Z,2026-06-19,2026-06-19,METAR,2026-06-20T04:59:58Z,38.3,100.9,-1.1,30.0,1,200,SSW,15,17.3,23,26.5,10+,10.0,,,,1007.9,1004.6,,,,,,VFR,METAR KLAS 192356Z 20015G23KT 10SM CLR 38/M01 A2976 RMK AO2 SLP046 T03831011 10389 20344 58020
2026-06-19T22:56:00Z,2026-06-19,2026-06-19,METAR,2026-06-20T04:59:58Z,38.3,100.9,-2.8,27.0,1,200,SSW,9,10.4,,,10+,10.0,,,,1008.5,1005.3,,,,,,VFR,METAR KLAS 192256Z 20009KT 10SM CLR 38/M03 A2978 RMK AO2 SLP053 T03831028
2026-06-19T22:00:00Z,2026-06-19,2026-06-19,SPECI,2026-06-20T04:59:58Z,38.3,100.9,-2.8,27.0,1,210,SSW,7,8.1,,,10+,10.0,,,,1009.2,1006.1,,,,,,VFR,SPECI KLAS 192200Z 21007KT 10SM CLR 38/M03 A2980 RMK AO2 SLP061 T03831028
2026-06-20T08:56:00Z,2026-06-20,2026-06-20,METAR,2026-06-20T09:52:05Z,28.3,82.9,-3.3,26.1,1,140,SE,11,12.7,17,19.6,10+,10.0,,,,1009.9,1006.8,,,,,,VFR,METAR KLAS 200856Z 14011G17KT 10SM CLR 28/M03 A2982 RMK A02 SLP068 T02831033 50001
2026-06-20T07:56:00Z,2026-06-20,2026-06-20,METAR,2026-06-20T09:52:05Z,29.4,84.9,-2.8,27.0,1,170,S,7,8.1,,,10+,10.0,,,,1010.2,1006.8,,,,,,VFR,METAR KLAS 200756Z 17007KT 10SM CLR 29/M03 A2983 RMK SLP068 T02941028 403890283
2026-06-20T06:56:00Z,2026-06-20,2026-06-19,METAR,2026-06-20T09:52:05Z,31.1,88.0,-2.2,28.0,1,200,SSW,9,10.4,18,20.7,10+,10.0,,,,1009.9,1006.7,,,,,,VFR,METAR KLAS 200656Z 20009G18KT 10SM CLR 31/M02 A2982 RMK A02 SLP067 T03111022
2026-06-20T05:56:00Z,2026-06-20,2026-06-19,METAR,2026-06-20T09:52:05Z,32.2,90.0,-2.2,28.0,1,210,SSW,9,10.4,,,10+,10.0,,,,1009.9,1006.6,,,,,,VFR,METAR KLAS 200556Z 21009KT 10SM CLR 32/M02 A2982 RMK A02 SLP066 T03221022 10389 20322 53016
2026-06-20T04:56:00Z,2026-06-20,2026-06-19,METAR,2026-06-20T09:52:05Z,33.9,93.0,-3.9,25.0,1,200,SSW,11,12.7,,,10+,10.0,,,,1009.2,1006.1,,,,,,VFR,METAR KLAS 200456Z 20011KT 10SM CLR 34/M04 A2980 RMK AO2 SLP061 T03391039
2026-06-20T13:56:00Z,2026-06-20,2026-06-20,METAR,2026-06-20T14:56:15Z,26.7,80.1,0.6,33.1,1,190,S,12,13.8,21,24.2,10+,10.0,,,,1010.9,1007.8,,,,,,VFR,METAR KLAS 201356Z 19012G21KT 10SM CLR 27/01 A2985 RMK AO2 SLP078 T02670006
2026-06-20T12:56:00Z,2026-06-20,2026-06-20,METAR,2026-06-20T14:56:15Z,25,77.0,-0.6,30.9,1,180,S,12,13.8,22,25.3,10+,10.0,,,,1010.6,1007.4,,,,,,VFR,METAR KLAS 201256Z 18012G22KT 10SM CLR 25/M01 A2984 RMK AO2 SLP074 T02501006
2026-06-20T11:56:00Z,2026-06-20,2026-06-20,METAR,2026-06-20T14:56:15Z,26.1,79.0,-0.6,30.9,1,160,SSE,9,10.4,16,18.4,10+,10.0,,,,1010.2,1006.9,,,,,,VFR,METAR KLAS 201156Z 16009G16KT 10SM CLR 26/M01 A2983 RMK A02 SLP069 T02611006 10322 20261 53001
2026-06-20T10:56:00Z,2026-06-20,2026-06-20,METAR,2026-06-20T14:56:15Z,26.1,79.0,-1.7,28.9,1,180,S,10,11.5,20,23.0,10+,10.0,,,,1009.9,1006.8,,,,,,VFR,METAR KLAS 201056Z 18010G20KT 10SM CLR 26/M02 A2982 RMK A02 SLP068 T02611017
2026-06-20T09:56:00Z,2026-06-20,2026-06-20,METAR,2026-06-20T14:56:15Z,27.2,81.0,-2.8,27.0,1,170,S,10,11.5,,,10+,10.0,,,,1009.9,1006.5,,,,,,VFR,METAR KLAS 200956Z 17010KT 10SM CLR 27/M03 A2982 RMK A02 SLP065 T02721028
2026-06-20T19:56:00Z,2026-06-20,2026-06-20,METAR,2026-06-20T20:06:20Z,36.7,98.1,-7.8,18.0,1,190,S,12,13.8,19,21.9,10+,10.0,,,,1010.2,1006.8,,,,,,VFR,METAR KLAS 201956Z 19012G19KT 10SM CLR 37/M08 A2983 RMK AO2 SLP068 T03671078
2026-06-20T18:56:00Z,2026-06-20,2026-06-20,METAR,2026-06-20T20:06:20Z,34.4,93.9,-10,14.0,1,200,SSW,8,9.2,,,10+,10.0,,,,1010.9,1007.7,,,,,,VFR,METAR KLAS 201856Z 20008KT 10SM CLR 34/M10 A2985 RMK AO2 SLP077 T03441100
2026-06-20T17:56:00Z,2026-06-20,2026-06-20,METAR,2026-06-20T20:06:20Z,33.3,91.9,-6.7,19.9,1,230,SW,6,6.9,,,10+,10.0,,,,1011.3,1008.2,,,,,,VFR,METAR KLAS 201756Z 23006KT 10SM CLR 33/M07 A2986 RMK AO2 SLP082 T03331067
2026-06-20T16:56:00Z,2026-06-20,2026-06-20,METAR,2026-06-20T20:06:20Z,31.7,89.1,-3.3,26.1,1,VRB,VRB,3,3.5,,,10+,10.0,,,,1011.6,1008.3,,,,,,VFR,METAR KLAS 201656Z VRB03KT 10SM CLR 32/M03 A2987 RMK AO2 SLP083 T03171033
2026-06-20T15:56:00Z,2026-06-20,2026-06-20,METAR,2026-06-20T20:06:20Z,29.4,84.9,-1.7,28.9,1,160,SSE,10,11.5,19,21.9,10+,10.0,,,,1011.6,1008.5,,,,,,VFR,METAR KLAS 201556Z 16010G19KT 10SM CLR 29/M02 A2987 RMK AO2 SLP085 T02941017
2026-06-20T14:56:00Z,2026-06-20,2026-06-20,METAR,2026-06-20T20:06:20Z,27.8,82.0,0.6,33.1,1,180,S,12,13.8,19,21.9,10+,10.0,,,,1011.3,1008.2,,,,,,VFR,METAR KLAS 201456Z 18012G19KT 10SM CLR 28/01 A2986 RMK AO2 SLP082 T02780006
2026-06-21T04:56:00Z,2026-06-21,2026-06-20,METAR,2026-06-21T05:30:30Z,32.8,91.0,-13.3,8.1,1,210,SSW,10,11.5,,,10+,10.0,,,,1007.9,1004.6,,,,,,VFR,METAR KLAS 210456Z 21010KT 10SM CLR 33/M13 A2976 RMK AO2 SLP046 T03281133 $
2026-06-21T03:56:00Z,2026-06-21,2026-06-20,METAR,2026-06-21T05:30:30Z,34.4,93.9,-12.2,10.0,1,210,SSW,8,9.2,,,10+,10.0,,,,1007.5,1004.4,,,,,,VFR,METAR KLAS 210356Z 21008KT 10SM CLR 34/M12 A2975 RMK AO2 SLP044 T03441122
2026-06-21T02:56:00Z,2026-06-21,2026-06-20,METAR,2026-06-21T05:30:30Z,35.6,96.1,-8.3,17.1,1,220,SW,12,13.8,21,24.2,10+,10.0,,,,1007.5,1004.3,,,,,,VFR,METAR KLAS 210256Z 22012G21KT 10SM CLR 36/M08 A2975 RMK AO2 SLP043 T03561083 53001
2026-06-21T01:56:00Z,2026-06-21,2026-06-20,METAR,2026-06-21T05:30:30Z,37.2,99.0,-6.1,21.0,1,250,WSW,12,13.8,22,25.3,10+,10.0,,,,1007.2,1004,,,,,,VFR,METAR KLAS 210156Z 25012G22KT 10SM CLR 37/M06 A2974 RMK AO2 SLP040 T03721061
2026-06-21T00:56:00Z,2026-06-21,2026-06-20,METAR,2026-06-21T05:30:30Z,38.3,100.9,-8,17.6,1,230,SW,13,15.0,,,10+,10.0,,,,1007.2,1003.9,,,,,,VFR,METAR KLAS 210056Z 23013KT 10SM CLR 38/M08 A2974 RMK AO2 SLP039 T038311083
2026-06-20T23:56:00Z,2026-06-20,2026-06-20,METAR,2026-06-21T05:30:30Z,38.9,102.0,-10.6,12.9,1,230,SW,10,11.5,18,20.7,10+,10.0,,,,1007.2,1004,,,,,,VFR,METAR KLAS 202356Z 23010G18KT 10SM CLR 39/M11 A2974 RMK AO2 SLP040 T03891106
2026-06-20T22:56:00Z,2026-06-20,2026-06-20,METAR,2026-06-21T05:30:30Z,38.9,102.0,-11.1,12.0,1,220,SW,13,15.0,21,24.2,10+,10.0,,,,1007.5,1004.4,,,,,,VFR,METAR KLAS 202256Z 22013G21KT 10SM CLR 39/M12 A2975 RMK AO2 SLP044 T03891111
2026-06-21T09:56:00Z,2026-06-21,2026-06-21,METAR,2026-06-21T10:21:03Z,27.8,82.0,-1.7,28.9,1,190,S,9,10.4,,,10+,10.0,,,,1007.9,1004.5,,,,,,VFR,METAR KLAS 210956Z 19009KT 10SM CLR 28/M02 A2976 RMK A02 SLP045 T02781017
2026-06-21T08:56:00Z,2026-06-21,2026-06-21,METAR,2026-06-21T10:21:03Z,28.9,84.0,-5,23.0,1,180,S,8,9.2,,,10+,10.0,,,,1007.9,1004.6,,,,,,VFR,METAR KLAS 210856Z 18008KT 10SM CLR 29/M05 A2976 RMK A02 SLP046 T02891050 50002
2026-06-21T07:56:00Z,2026-06-21,2026-06-21,METAR,2026-06-21T10:21:03Z,29.4,84.9,-9.4,15.1,1,190,S,6,6.9,,,10+,10.0,,,,1007.9,1004.6,,,,,,VFR,METAR KLAS 210756Z 19006KT 10SM CLR 29/M09 A2976 RMK A02 SLP046 T02941094 403890250
2026-06-21T06:56:00Z,2026-06-21,2026-06-20,METAR,2026-06-21T10:21:03Z,30.6,87.1,-12.8,9.0,1,210,SSW,7,8.1,,,10+,10.0,,,,1007.9,1004.7,,,,,,VFR,METAR KLAS 210656Z 21007KT 10SM CLR 31/M13 A2976 RMK A02 SLP047 T03061128
2026-06-21T05:56:00Z,2026-06-21,2026-06-20,METAR,2026-06-21T10:21:03Z,32.2,90.0,-12.8,9.0,1,220,SW,9,10.4,,,10+,10.0,,,,1007.5,1004.4,,,,,,VFR,METAR KLAS 210556Z 22009KT 10SM CLR 32/M13 A2975 RMK A02 SLP044 T03221128 10389 20322 50003
2026-06-21T14:56:00Z,2026-06-21,2026-06-21,METAR,2026-06-21T15:03:00Z,28.9,84.0,-2.8,27.0,1,260,W,5,5.8,,,10+,10.0,19,,FEW21000,1010.2,1007,,,,,,VFR,METAR KLAS 211456Z 26005KT 10SM FEW210 29/M03 A2983 RMK A02 SLP070 T02891028 51015
2026-06-21T13:56:00Z,2026-06-21,2026-06-21,METAR,2026-06-21T15:03:00Z,26.7,80.1,2.2,36.0,1,190,S,4,4.6,,,10+,10.0,19,,FEW21000,1009.6,1006.5,,,,,,VFR,METAR KLAS 211356Z 19004KT 10SM FEW210 27/02 A2981 RMK A02 SLP065 T02670022
2026-06-21T12:56:00Z,2026-06-21,2026-06-21,METAR,2026-06-21T15:03:00Z,26.1,79.0,0.6,33.1,1,230,SW,4,4.6,,,10+,10.0,19,,FEW21000,1009.2,1006,,,,,,VFR,METAR KLAS 211256Z 23004KT 10SM FEW210 26/01 A2980 RMK A02 SLP060 T02610006
2026-06-21T11:56:00Z,2026-06-21,2026-06-21,METAR,2026-06-21T15:03:00Z,26.1,79.0,0,32.0,1,200,SSW,6,6.9,,,10+,10.0,19,,FEW20000,1008.5,1005.4,,,,,,VFR,METAR KLAS 211156Z 20006KT 10SM FEW200 26/00 A2978 RMK A02 SLP054 T02610000 10322 20261 53007
2026-06-21T10:56:00Z,2026-06-21,2026-06-21,METAR,2026-06-21T15:03:00Z,27.2,81.0,0,32.0,1,190,S,8,9.2,,,10+,10.0,,,,1008.2,1004.8,,,,,,VFR,METAR KLAS 211056Z 19008KT 10SM CLR 27/00 A2977 RMK A02 SLP048 T02720000
2026-06-21T19:56:00Z,2026-06-21,2026-06-21,METAR,2026-06-21T20:15:09Z,36.1,97.0,-4.4,24.1,1,VRB,VRB,3,3.5,,,10+,10.0,,,,1009.2,1005.9,,,,,,VFR,METAR KLAS 211956Z VRB03KT 10SM CLR 36/M04 A2980 RMK A02 SLP059 T03611044
2026-06-21T18:56:00Z,2026-06-21,2026-06-21,METAR,2026-06-21T20:15:09Z,35.6,96.1,-2.8,27.0,1,VRB,VRB,3,3.5,,,10+,10.0,,,,1009.9,1006.6,,,,,,VFR,METAR KLAS 211856Z VRB03KT 10SM CLR 36/M03 A2982 RMK A02 SLP066 T03561028
2026-06-21T18:01:00Z,2026-06-21,2026-06-21,SPECI,2026-06-21T20:15:09Z,34.4,93.9,-3.3,26.1,1,70,ENE,5,5.8,,,10+,10.0,,,,1010.2,,,,,,,VFR,SPECI KLAS 211801Z 07005KT 10SM CLR 34/M03 A2983 RMK A02 T03441033
2026-06-21T17:59:00Z,2026-06-21,2026-06-21,SPECI,2026-06-21T20:15:09Z,33.9,93.0,-3.9,25.0,1,VRB,VRB,3,3.5,,,10+,10.0,,,,1010.2,,,,,,,VFR,SPECI KLAS 211759Z VRB03KT 10SM CLR 34/M04 A2983 RMK A02 T03391039
2026-06-21T17:56:00Z,2026-06-21,2026-06-21,METAR,2026-06-21T20:15:09Z,33.9,93.0,-3.9,25.0,1,VRB,VRB,4,4.6,,,10+,10.0,,,,1010.2,1006.9,,,,,,VFR,METAR KLAS 211756Z VRB04KT 10SM CLR 34/M04 A2983 RMK A02 SLP069 T03391039 10339 20250 50000
2026-06-21T16:56:00Z,2026-06-21,2026-06-21,METAR,2026-06-21T20:15:09Z,31.7,89.1,-3.9,25.0,1,350,N,4,4.6,,,10+,10.0,,,,1010.2,1007.1,,,,,,VFR,METAR KLAS 211656Z 35004KT 10SM CLR 32/M04 A2983 RMK A02 SLP071 T03171039
2026-06-21T15:56:00Z,2026-06-21,2026-06-21,METAR,2026-06-21T20:15:09Z,30,86.0,-3.9,25.0,1,VRB,VRB,3,3.5,,,10+,10.0,19,,FEW21000,1010.6,1007.3,,,,,,VFR,METAR KLAS 211556Z VRB03KT 10SM FEW210 30/M04 A2984 RMK A02 SLP073 T03001039
2026-06-22T04:56:00Z,2026-06-22,2026-06-21,METAR,2026-06-22T06:12:56Z,34.4,93.9,-10.6,12.9,1,180,S,6,6.9,,,10+,10.0,,,,1008.2,1004.7,,,,,,VFR,METAR KLAS 220456Z 18006KT 10SM CLR 34/M11 A2977 RMK SLP047 T03441106
2026-06-22T03:56:00Z,2026-06-22,2026-06-21,METAR,2026-06-22T06:12:56Z,35.6,96.1,-7.8,18.0,1,180,S,4,4.6,,,10+,10.0,,,,1007.2,1003.8,,,,,,VFR,METAR KLAS 220356Z 18004KT 10SM CLR 36/M08 A2974 RMK AO2 SLP038 T03561078
2026-06-22T02:56:00Z,2026-06-22,2026-06-21,METAR,2026-06-22T06:12:56Z,37.2,99.0,-7.8,18.0,1,180,S,10,11.5,17,19.6,10+,10.0,,,,1006.5,1003,,,,,,VFR,METAR KLAS 220256Z 18010G17KT 10SM CLR 37/M08 A2972 RMK AO2 SLP030 T03721078 53003
2026-06-22T01:56:00Z,2026-06-22,2026-06-21,METAR,2026-06-22T06:12:56Z,37.8,100.0,-10,14.0,1,140,SE,9,10.4,17,19.6,10+,10.0,,,,1006.2,1002.8,,,,,,VFR,METAR KLAS 220156Z 14009G17KT 100V160 10SM CLR 38/M10 A2971 RMK AO2 SLP028 T03781100
2026-06-22T00:56:00Z,2026-06-22,2026-06-21,METAR,2026-06-22T06:12:56Z,38.9,102.0,-8.9,16.0,1,0,CALM,0,0.0,,,10+,10.0,,,,1005.8,1002.5,,,,,,VFR,METAR KLAS 220056Z 00000KT 10SM CLR 39/M09 A2970 RMK AO2 SLP025 T03891089
2026-06-21T23:56:00Z,2026-06-21,2026-06-21,METAR,2026-06-22T06:12:56Z,38.9,102.0,-10,14.0,1,VRB,VRB,3,3.5,,,10+,10.0,,,,1006.2,1002.8,,,,,,VFR,METAR KLAS 212356Z VRB03KT 10SM CLR 39/M10 A2971 RMK AO2 SLP028 T03891100 10394 20339 58021
2026-06-22T11:56:00Z,2026-06-22,2026-06-22,METAR,2026-06-22T12:37:03Z,27.2,81.0,-3.9,25.0,1,230,SW,3,3.5,,,10+,10.0,,,,1009.9,1006.7,,,,,,VFR,METAR KLAS 221156Z 23003KT 10SM CLR 27/M04 A2982 RMK SLP067 T02721039 10328 20267 53014
2026-06-22T10:56:00Z,2026-06-22,2026-06-22,METAR,2026-06-22T12:37:03Z,27.2,81.0,-7.8,18.0,1,190,S,3,3.5,,,10+,10.0,,,,1009.2,1006,,,,,,VFR,METAR KLAS 221056Z 19003KT 10SM CLR 27/M08 A2980 RMK SLP060 T02721078
2026-06-22T09:56:00Z,2026-06-22,2026-06-22,METAR,2026-06-22T12:37:03Z,27.8,82.0,-10,14.0,1,200,SSW,3,3.5,,,10+,10.0,,,,1008.9,1005.6,,,,,,VFR,METAR KLAS 220956Z 20003 10SM CLR 28/M10 A2979 RMK SLP056 T02781100
2026-06-22T08:56:00Z,2026-06-22,2026-06-22,METAR,2026-06-22T12:37:03Z,29.4,84.9,-10.6,12.9,1,180,S,6,6.9,,,10+,10.0,,,,1008.5,1005.1,,,,,,VFR,METAR KLAS 220856Z 18006KT 10SM CLR 29/M11 A2978 RMK SLP051 T02941106 53002
2026-06-22T07:56:00Z,2026-06-22,2026-06-22,METAR,2026-06-22T12:37:03Z,30,86.0,-10.6,12.9,1,180,S,6,6.9,,,10+,10.0,,,,1008.2,1004.9,,,,,,VFR,METAR KLAS 220756Z 18006KT 10SM CLR 30/M11 A2977 RMK SLP049 T03001106 403940250
2026-06-22T06:56:00Z,2026-06-22,2026-06-21,METAR,2026-06-22T12:37:03Z,32.2,90.0,-12.2,10.0,1,200,SSW,6,6.9,,,10+,10.0,,,,1008.2,1004.9,,,,,,VFR,METAR KLAS 220656Z 20006KT 10SM CLR 32/M12 A2977 RMK SLP049 T03221122
2026-06-22T05:56:00Z,2026-06-22,2026-06-21,METAR,2026-06-22T12:37:03Z,32.2,90.0,-11.1,12.0,1,190,S,7,8.1,,,10+,10.0,,,,1008.2,1005,,,,,,VFR,METAR KLAS 220556Z 19007KT 10SM CLR 32/M11 A2977 RMK SLP050 T03221111 10394 20322 51018
2026-06-22T16:56:00Z,2026-06-22,2026-06-22,METAR,2026-06-22T17:19:03Z,32.8,91.0,-4.4,24.1,1,70,ENE,4,4.6,,,10+,10.0,,,,1013.3,1009.9,,,,,,VFR,METAR KLAS 221656Z 07004KT 10SM CLR 33/M04 A2992 RMK AO2 SLP099 T03281044
2026-06-22T15:56:00Z,2026-06-22,2026-06-22,METAR,2026-06-22T17:19:03Z,30.6,87.1,-5.6,21.9,1,350,N,3,3.5,,,10+,10.0,,,,1013.3,1009.9,,,,,,VFR,METAR KLAS 221556Z 35003KT 10SM CLR 31/M06 A2992 RMK AO2 SLP099 T03061056
2026-06-22T14:56:00Z,2026-06-22,2026-06-22,METAR,2026-06-22T17:19:03Z,28.9,84.0,-6.1,21.0,1,290,WNW,5,5.8,,,10+,10.0,,,,1012.6,1009.3,,,,,,VFR,METAR KLAS 221456Z 29005KT 10SM CLR 29/M06 A2990 RMK AO2 SLP093 T02891061 51024
2026-06-22T13:56:00Z,2026-06-22,2026-06-22,METAR,2026-06-22T17:19:03Z,27.8,82.0,-7.2,19.0,1,270,W,4,4.6,,,10+,10.0,,,,1011.6,1008.6,,,,,,VFR,METAR KLAS 221356Z 27004KT 10SM CLR 28/M07 A2987 RMK AO2 SLP086 T02781072
2026-06-22T12:56:00Z,2026-06-22,2026-06-22,METAR,2026-06-22T17:19:03Z,26.1,79.0,-6.1,21.0,1,270,W,5,5.8,,,10+,10.0,19,,FEW25000,1010.9,1007.7,,,,,,VFR,METAR KLAS 221256Z 27005KT 10SM FEW250 26/M06 A2985 RMK AO2 SLP077 T02611061
2026-06-22T20:56:00Z,2026-06-22,2026-06-22,METAR,2026-06-22T21:22:27Z,38.3,100.9,-5.6,21.9,1,VRB,VRB,5,5.8,,,10+,10.0,,,,1011.6,1008.4,,,,,,VFR,METAR KLAS 222056Z VRB05KT 10SM CLR 38/M06 A2987 RMK AO2 SLP084 T03831056 58015
2026-06-22T19:56:00Z,2026-06-22,2026-06-22,METAR,2026-06-22T21:22:27Z,37.2,99.0,-6.1,21.0,1,VRB,VRB,5,5.8,,,10+,10.0,,,,1012.6,1009.2,,,,,,VFR,METAR KLAS 221956Z VRB05KT 10SM CLR 37/M06 A2990 RMK AO2 SLP092 T03721061
2026-06-22T19:12:00Z,2026-06-22,2026-06-22,SPECI,2026-06-22T21:22:27Z,36.1,97.0,-5,23.0,1,VRB,VRB,4,4.6,,,10+,10.0,,,,1012.6,,,,,,,VFR,SPECI KLAS 221912Z VRB04KT 10SM CLR 36/M05 A2990 RMK AO2 T03611050
2026-06-22T18:56:00Z,2026-06-22,2026-06-22,METAR,2026-06-22T21:22:27Z,36.1,97.0,-5,23.0,1,50,NE,9,10.4,16,18.4,10+,10.0,,,,1013,1009.5,,,,,,VFR,METAR KLAS 221856Z 05009G16KT 10SM CLR 36/M05 A2991 RMK AO2 SLP095 T03611050
2026-06-22T17:56:00Z,2026-06-22,2026-06-22,METAR,2026-06-22T21:22:27Z,35,95.0,-2.8,27.0,1,60,ENE,8,9.2,,,10+,10.0,,,,1013.3,1010,,,,,,VFR,METAR KLAS 221756Z 06008KT 10SM CLR 35/M03 A2992 RMK AO2 SLP100 T03501028 10350 20256 51007
2026-06-23T03:56:00Z,2026-06-23,2026-06-22,METAR,2026-06-23T04:46:43Z,35.6,96.1,-6.7,19.9,1,230,SW,12,13.8,19,21.9,10+,10.0,,,,1011.9,1008.5,,,,,,VFR,METAR KLAS 230356Z 23012G19KT 10SM CLR 36/M07 A2988 RMK AO2 SLP085 T03561067
2026-06-23T02:56:00Z,2026-06-23,2026-06-22,METAR,2026-06-23T04:46:43Z,37.2,99.0,-8.9,16.0,1,230,SW,15,17.3,22,25.3,10+,10.0,,,,1010.9,1007.7,,,,,,VFR,METAR KLAS 230256Z 23015G22KT 10SM CLR 37/M09 A2985 RMK AO2 SLP077 T03721089 53008
2026-06-23T01:56:00Z,2026-06-23,2026-06-22,METAR,2026-06-23T04:46:43Z,39.4,102.9,-10.6,12.9,1,190,S,11,12.7,18,20.7,10+,10.0,,,,1010.2,1007.1,,,,,,VFR,METAR KLAS 230156Z 19011G18KT 10SM CLR 39/M11 A2983 RMK AO2 SLP071 T03941106
2026-06-23T00:56:00Z,2026-06-23,2026-06-22,METAR,2026-06-23T04:46:43Z,40,104.0,-8.9,16.0,1,170,S,7,8.1,15,17.3,10+,10.0,,,,1009.9,1006.7,,,,,,VFR,METAR KLAS 230056Z 17007G15KT 10SM CLR 40/M09 A2982 RMK AO2 SLP067 T04001089
2026-06-22T23:56:00Z,2026-06-22,2026-06-22,METAR,2026-06-23T04:46:43Z,40,104.0,-8.9,16.0,1,190,S,5,5.8,,,10+,10.0,,,,1010.2,1006.8,,,,,,VFR,METAR KLAS 222356Z 19005KT 10SM CLR 40/M09 A2983 RMK AO2 SLP068 T04001089 10406 20339 56015
2026-06-22T22:56:00Z,2026-06-22,2026-06-22,METAR,2026-06-23T04:46:43Z,39.4,102.9,-7.8,18.0,1,VRB,VRB,3,3.5,,,10+,10.0,,,,1010.6,1007.2,,,,,,VFR,METAR KLAS 222256Z VRB03KT 10SM CLR 39/M08 A2984 RMK AO2 SLP072 T03941078
2026-06-22T21:56:00Z,2026-06-22,2026-06-22,METAR,2026-06-23T04:46:43Z,38.9,102.0,-5,23.0,1,110,ESE,9,10.4,,,10+,10.0,,,,1011.3,1007.8,,,,,,VFR,METAR KLAS 222156Z 11009KT 10SM CLR 39/M05 A2986 RMK AO2 SLP078 T03891050
2026-06-23T09:56:00Z,2026-06-23,2026-06-23,METAR,2026-06-23T10:22:29Z,30.6,87.1,-10.6,12.9,1,180,S,6,6.9,,,10+,10.0,,,,1014,1010.7,,,,,,VFR,METAR KLAS 230956Z 18006KT 10SM CLR 31/M11 A2994 RMK SLP107 T03061106
2026-06-23T08:56:00Z,2026-06-23,2026-06-23,METAR,2026-06-23T10:22:29Z,30.6,87.1,-11.7,10.9,1,190,S,7,8.1,,,10+,10.0,,,,1013.6,1010.4,,,,,,VFR,METAR KLAS 230856Z 19007KT 10SM CLR 31/M12 A2993 RMK SLP104 T03061117
2026-06-23T07:56:00Z,2026-06-23,2026-06-23,METAR,2026-06-23T10:22:29Z,31.1,88.0,-11.7,10.9,1,210,SSW,8,9.2,,,10+,10.0,,,,1013.3,1010,,,,,,VFR,METAR KLAS 230756Z 21008KT 10SM CLR 31/M12 A2992 RMK SLP100 T03111117
2026-06-23T06:56:00Z,2026-06-23,2026-06-22,METAR,2026-06-23T10:22:29Z,32.8,91.0,-8.3,17.1,1,210,SSW,6,6.9,,,10+,10.0,,,,1013.3,1009.8,,,,,,VFR,METAR KLAS 230656Z 21006KT 10SM CLR 33/M08 A2992 RMK SLP098 T03281083
2026-06-23T05:56:00Z,2026-06-23,2026-06-22,METAR,2026-06-23T10:22:29Z,33.3,91.9,-6.7,19.9,1,190,S,5,5.8,,,10+,10.0,,,,1013,1009.7,,,,,,VFR,METAR KLAS 230556Z 19005KT 10SM CLR 33/M07 A2991 RMK SLP097 T03331067 10411 20333 51019
2026-06-23T04:56:00Z,2026-06-23,2026-06-22,METAR,2026-06-23T10:22:29Z,34.4,93.9,-5,23.0,1,220,SW,7,8.1,,,10+,10.0,,,,1013,1009.5,,,,,,VFR,METAR KLAS 230456Z 22007KT 10SM CLR 34/M05 A2991 RMK SLP095 T03441050
2026-06-23T14:56:00Z,2026-06-23,2026-06-23,METAR,2026-06-23T15:39:04Z,30.6,87.1,-5,23.0,1,310,NW,3,3.5,,,10+,10.0,19,,FEW12000,1016.7,1013.4,,,,,,VFR,METAR KLAS 231456Z 31003KT 10SM FEW120 31/M05 A3002 RMK AO2 SLP134 T03061050 53016
2026-06-23T13:56:00Z,2026-06-23,2026-06-23,METAR,2026-06-23T15:39:04Z,28.9,84.0,-4.4,24.1,1,0,CALM,0,0.0,,,10+,10.0,19,,FEW12000,1016,1012.7,,,,,,VFR,METAR KLAS 231356Z 00000KT 10SM FEW120 29/M04 A3000 RMK AO2 SLP127 T02891044
2026-06-23T12:56:00Z,2026-06-23,2026-06-23,METAR,2026-06-23T15:39:04Z,28.3,82.9,-4.4,24.1,1,0,CALM,0,0.0,,,10+,10.0,19,,FEW12000 FEW25000,1015.3,1012,,,,,,VFR,METAR KLAS 231256Z 00000KT 10SM FEW120 FEW250 28/M04 A2998 RMK AO2 SLP120 T02831044
2026-06-23T11:56:00Z,2026-06-23,2026-06-23,METAR,2026-06-23T15:39:04Z,30,86.0,-5.6,21.9,1,200,SSW,6,6.9,,,10+,10.0,,,,1015,1011.5,,,,,,VFR,METAR KLAS 231156Z 20006KT 10SM CLR 30/M06 A2997 RMK SLP115 T03001056 10333 20294 53011
2026-06-23T10:56:00Z,2026-06-23,2026-06-23,METAR,2026-06-23T15:39:04Z,29.4,84.9,-7.8,18.0,1,200,SSW,5,5.8,,,10+,10.0,,,,1014.3,1011.1,,,,,,VFR,METAR KLAS 231056Z 20005KT 10SM CLR 29/M08 A2995 RMK SLP111 T02941078
2026-06-23T19:56:00Z,2026-06-23,2026-06-23,METAR,2026-06-23T20:38:05Z,40,104.0,0.6,33.1,1,0,CALM,0,0.0,,,10+,10.0,19,,FEW12000,1015.3,1011.8,,,,,,VFR,METAR KLAS 231956Z 00000KT 10SM FEW120 40/01 A2998 RMK AO2 SLP118 T04000006
2026-06-23T18:56:00Z,2026-06-23,2026-06-23,METAR,2026-06-23T20:38:05Z,37.8,100.0,-2.2,28.0,1,VRB,VRB,4,4.6,,,10+,10.0,19,,FEW12000,1016.3,1012.8,,,,,,VFR,METAR KLAS 231856Z VRB04KT 10SM FEW120 38/M02 A3001 RMK AO2 SLP128 T03781022
2026-06-23T18:02:00Z,2026-06-23,2026-06-23,SPECI,2026-06-23T20:38:05Z,36.1,97.0,-2.8,27.0,1,60,ENE,6,6.9,,,10+,10.0,19,,FEW12000,1016.7,1013.5,,,,,,VFR,SPECI KLAS 231802Z 06006KT 10SM FEW120 36/M03 A3002 RMK AO2 SLP135 T03611028
2026-06-23T17:56:00Z,2026-06-23,2026-06-23,METAR,2026-06-23T20:38:05Z,36.1,97.0,-2.8,27.0,1,70,ENE,5,5.8,,,10+,10.0,19,,FEW12000,1016.7,1013.5,,,,,,VFR,METAR KLAS 231756Z 07005KT 10SM FEW120 36/M03 A3002 RMK AO2 SLP135 T03611028 10367 20278 50002
2026-06-23T16:56:00Z,2026-06-23,2026-06-23,METAR,2026-06-23T20:38:05Z,34.4,93.9,-3.9,25.0,1,70,ENE,5,5.8,,,10+,10.0,19,,FEW14000,1016.7,1013.5,,,,,,VFR,METAR KLAS 231656Z 07005KT 10SM FEW140 34/M04 A3002 RMK AO2 SLP135 T03441039
2026-06-23T15:56:00Z,2026-06-23,2026-06-23,METAR,2026-06-23T20:38:05Z,32.2,90.0,-4.4,24.1,1,0,CALM,0,0.0,,,10+,10.0,19,,FEW14000,1017,1013.7,,,,,,VFR,METAR KLAS 231556Z 00000KT 10SM FEW140 32/M04 A3003 RMK AO2 SLP137 T03221044
2026-06-24T03:56:00Z,2026-06-24,2026-06-23,METAR,2026-06-24T04:52:25Z,37.8,100.0,7.8,46.0,1,210,SSW,14,16.1,19,21.9,10+,10.0,44,,SCT12000 SCT20000,1013.6,1010.1,,,,,,VFR,METAR KLAS 240356Z 21014G19KT 10SM SCT120 SCT200 38/08 A2993 RMK AO2 PK WND 21030/0321 SLP101 T03780078
2026-06-24T01:56:00Z,2026-06-24,2026-06-23,METAR,2026-06-24T04:52:25Z,40,104.0,3.9,39.0,1,200,SSW,15,17.3,26,29.9,10+,10.0,19,,FEW12000 FEW20000,1012.3,1008.9,,,,,,VFR,METAR KLAS 240156Z 20015G26KT 10SM FEW120 FEW200 40/04 A2989 RMK AO2 PK WND 21029/0124 SLP089 T04000039
2026-06-24T00:56:00Z,2026-06-24,2026-06-23,METAR,2026-06-24T04:52:25Z,42.2,108.0,3.3,37.9,1,210,SSW,14,16.1,20,23.0,10+,10.0,19,,FEW12000 FEW20000,1011.9,1008.5,,,,,,VFR,METAR KLAS 240056Z 21014G20KT 10SM FEW120 FEW200 42/03 A2988 RMK AO2 PK WND 15026/2338 SLP085 T04220033
2026-06-23T23:56:00Z,2026-06-23,2026-06-23,METAR,2026-06-24T04:52:25Z,42.2,108.0,2.8,37.0,1,170,S,10,11.5,23,26.5,10+,10.0,19,,FEW12000 FEW22000,1012.3,1008.7,,,,,,VFR,METAR KLAS 232356Z 17010G23KT 10SM FEW120 FEW220 42/03 A2989 RMK AO2 PK WND 15026/2338 SLP087 T04220028 10428 20361 56020
2026-06-23T22:56:00Z,2026-06-23,2026-06-23,METAR,2026-06-24T04:52:25Z,41.1,106.0,0.6,33.1,1,VRB,VRB,4,4.6,,,10+,10.0,19,,FEW12000 FEW22000,1012.6,1009.3,,,,,,VFR,METAR KLAS 232256Z VRB04KT 10SM FEW120 FEW220 41/01 A2990 RMK AO2 SLP093 T04110006
2026-06-23T21:56:00Z,2026-06-23,2026-06-23,METAR,2026-06-24T04:52:25Z,41.7,107.1,0.6,33.1,1,200,SSW,9,10.4,14,16.1,10+,10.0,19,,FEW12000,1013.6,1010.2,,,,,,VFR,METAR KLAS 232156Z 20009G14KT 10SM FEW120 42/01 A2993 RMK AO2 SLP102 T04170006
2026-06-24T09:56:00Z,2026-06-24,2026-06-24,METAR,2026-06-24T10:00:24Z,33.3,91.9,10.6,51.1,1,0,CALM,0,0.0,,,10+,10.0,75,15000,FEW10000 SCT12000 BKN15000,1013.6,1010.1,,,,,TS,VFR,METAR KLAS 240956Z 00000KT 10SM TS FEW100CB SCT120 BKN150 33/11 A2993 RMK AO2 TSB55 SLP101 OCNL LTGIC W-N TS W-N T03330106 $
2026-06-24T09:47:00Z,2026-06-24,2026-06-24,SPECI,2026-06-24T10:00:24Z,33.3,91.9,10.6,51.1,1,310,NW,4,4.6,,,10+,10.0,75,15000,FEW9500 SCT12000 BKN15000,1013.6,,,,,,VCTS,VFR,SPECI KLAS 240947Z 31004KT 10SM VCTS FEW095CB SCT120 BKN150 33/11 A2993 RMK AO2 LTG DSNT W AND NW OCNL LTGIC VC W-N TS VC W-N T03330106 $
2026-06-24T08:56:00Z,2026-06-24,2026-06-24,METAR,2026-06-24T10:00:24Z,33.3,91.9,11.1,52.0,1,200,SSW,6,6.9,,,10+,10.0,75,15000,FEW9500 SCT12000 BKN15000,1013.6,1010.1,,0.01,,,,VFR,METAR KLAS 240856Z 20006KT 10SM FEW095 SCT120 BKN150 33/11 A2993 RMK AO2 LTG DSNT N AND W SLP101 CB DSNT N AND W 60000 T03330111 56006 $
2026-06-24T07:56:00Z,2026-06-24,2026-06-24,METAR,2026-06-24T10:00:24Z,34.4,93.9,11.1,52.0,1,190,S,5,5.8,,,10+,10.0,75,13000,FEW6000 SCT9500 BKN13000,1014,1010.4,0.01,,,,,VFR,METAR KLAS 240756Z 19005KT 10SM FEW060 SCT095 BKN130 34/11 A2994 RMK AO2 LTG DSNT NE RAB09E22 SLP104 TS VC NE-E DSIPTD CB DSNT NE-E P0000 T03440111 404280278 $
2026-06-24T07:53:00Z,2026-06-24,2026-06-24,SPECI,2026-06-24T10:00:24Z,34,93.2,12,53.6,1,200,SSW,6,6.9,,,10+,10.0,75,13000,FEW6000 SCT9500 BKN13000,1014,,0.01,,,,,VFR,SPECI KLAS 240753Z 20006KT 10SM FEW060 SCT095 BKN130 34/12 A2994 RMK AO2 LTG DSNT NE RAB09E22 TS VC NE-E DSIPTD CB DSNT NE-E P0000 $
2026-06-24T07:34:00Z,2026-06-24,2026-06-24,SPECI,2026-06-24T10:00:24Z,34.4,93.9,11.7,53.1,1,300,WNW,5,5.8,,,10+,10.0,75,13000,FEW6000 SCT9500 BKN13000,1014,,0.01,,,,VCTS,VFR,SPECI KLAS 240734Z 30005KT 10SM VCTS FEW060 SCT095CB BKN130 34/12 A2994 RMK AO2 RAB09E22 FRQ LTGIC VC NE-E TS VC NE-E VCSH P0000 T03440117
2026-06-24T06:56:00Z,2026-06-24,2026-06-23,METAR,2026-06-24T10:00:24Z,35.6,96.1,9.4,48.9,1,200,SSW,11,12.7,24,27.6,10+,10.0,75,11000,FEW6000 SCT8500 BKN11000,1014.3,1010.8,,,,,,VFR,METAR KLAS 240656Z 20011G24KT 10SM FEW060 SCT085 BKN110 36/09 A2995 RMK AO2 SLP108 VCSH E-S T03560094
2026-06-24T05:56:00Z,2026-06-24,2026-06-23,METAR,2026-06-24T10:00:24Z,37.2,99.0,7.8,46.0,1,190,S,13,15.0,20,23.0,10+,10.0,75,17000,FEW12000 SCT15000 BKN17000,1014,1010.5,,,,,,VFR,METAR KLAS 240556Z 19013G20KT 10SM FEW120 SCT150 BKN170 37/08 A2994 RMK AO2 SLP105 VIRGA S-W-NW T03720078 10428 20367 51011
2026-06-24T04:56:00Z,2026-06-24,2026-06-23,METAR,2026-06-24T10:00:24Z,37.2,99.0,7.8,46.0,1,220,SW,14,16.1,24,27.6,10+,10.0,75,17000,SCT12000 BKN17000,1014,1010.4,,,,,,VFR,METAR KLAS 240456Z 22014G24KT 10SM SCT120 BKN170 37/08 A2994 RMK AO2 SLP104 T03720078
2026-06-24T14:56:00Z,2026-06-24,2026-06-24,METAR,2026-06-24T15:26:12Z,31.1,88.0,14.4,57.9,16,310,NW,15,17.3,19,21.9,10+,10.0,100,12000,FEW5500 SCT10000 OVC12000,1016,1012.6,0.01,0.01,,,,VFR,METAR KLAS 241456Z 31015G19KT 10SM FEW055 SCT100 OVC120 31/14 A3000 RMK AO2 RAE00B43E52 SLP126 P0000 60001 T03110144 53017
2026-06-24T13:56:00Z,2026-06-24,2026-06-24,METAR,2026-06-24T15:26:12Z,30,86.0,18.3,64.9,42,0,CALM,0,0.0,,,10+,10.0,100,9000,FEW4700 SCT7000 BKN9000 OVC13000,1014.6,1011.3,0.01,,,,-RA,VFR,METAR KLAS 241356Z 00000KT 10SM -RA FEW047 SCT070 BKN090 OVC130 30/18 A2996 RMK AO2 LTG DSNT NW SLP113 P0000 T03000183 $
2026-06-24T12:56:00Z,2026-06-24,2026-06-24,METAR,2026-06-24T15:26:12Z,30,86.0,18.3,64.9,42,230,SW,5,5.8,,,10+,10.0,100,9000,FEW4500 FEW7000 BKN9000 OVC13000,1014.3,1010.9,0.01,,,,-RA,VFR,METAR KLAS 241256Z 23005KT 10SM -RA FEW045 FEW070 BKN090 OVC130 30/18 A2995 RMK AO2 RAB13 SLP109 P0001 T03000183 $
2026-06-24T11:56:00Z,2026-06-24,2026-06-24,METAR,2026-06-24T15:26:12Z,32.2,90.0,12.8,55.0,3,150,SSE,4,4.6,,,10+,10.0,100,11000,FEW9500 BKN11000 OVC14000,1014.3,1010.6,0.01,,0.01,,,VFR,METAR KLAS 241156Z COR 15004KT 10SM FEW095 BKN110 OVC140 32/13 A2995 RMK AO2 LTG DSNT NE RAB14E27 PRESRR SLP106 CB DSNT NE-E P0000 60000 T03220128 10383 20317 53004 $
2026-06-24T10:56:00Z,2026-06-24,2026-06-24,METAR,2026-06-24T15:26:12Z,32.8,91.0,11.7,53.1,1,0,CALM,0,0.0,,,10+,10.0,100,15000,SCT12000 BKN15000 OVC19000,1014,1010.4,,,,,,VFR,METAR KLAS 241056Z 00000KT 10SM SCT120 BKN150 OVC190 33/12 A2994 RMK AO2 TSE15 SLP104 T03280117 $
2026-06-24T10:21:00Z,2026-06-24,2026-06-24,SPECI,2026-06-24T15:26:12Z,33.3,91.9,10.6,51.1,1,260,W,5,5.8,,,10+,10.0,100,15000,FEW10000 SCT12000 OVC15000,1013.6,,,,,,,VFR,SPECI KLAS 241021Z 26005KT 10SM FEW100 SCT120 OVC150 33/11 A2993 RMK AO2 TSE15 TS W-N DSIPTD CB DSNT W-N T03330106 $
2026-06-24T19:56:00Z,2026-06-24,2026-06-24,METAR,2026-06-24T20:22:16Z,32.2,90.0,12.8,55.0,3,0,CALM,0,0.0,,,10+,10.0,75,12000,SCT8500 BKN12000,1016,1012.8,,,,,,VFR,METAR KLAS 241956Z 00000KT 10SM SCT085 BKN120 32/13 A3000 RMK AO2 SLP128 VIRGA DSNT S T03220128
2026-06-24T18:56:00Z,2026-06-24,2026-06-24,METAR,2026-06-24T20:22:16Z,30.6,87.1,13.9,57.0,16,VRB,VRB,5,5.8,,,10+,10.0,75,12000,SCT8500 BKN12000,1017,1013.6,0.01,,,,,VFR,METAR KLAS 241856Z VRB05KT 10SM SCT085 BKN120 31/14 A3003 RMK AO2 RAB1759E30 SLP136 P0001 T03060139
2026-06-24T17:56:00Z,2026-06-24,2026-06-24,METAR,2026-06-24T20:22:16Z,30.6,87.1,13.9,57.0,16,330,NNW,4,4.6,,,10+,10.0,75,12000,SCT9000 BKN12000,1017.4,1014.1,,,0.01,,,VFR,METAR KLAS 241756Z 33004KT 10SM SCT090 BKN120 31/14 A3004 RMK AO2 SLP141 VCSH SW 60001 T03060139 10322 20283 51013
2026-06-24T16:56:00Z,2026-06-24,2026-06-24,METAR,2026-06-24T20:22:16Z,28.9,84.0,16.1,61.0,36,60,ENE,3,3.5,,,10+,10.0,75,12000,FEW6500 SCT10000 BKN12000,1017,1013.8,0.01,,,,,VFR,METAR KLAS 241656Z 06003KT 10SM FEW065 SCT100 BKN120 29/16 A3003 RMK AO2 RAE20 SLP138 VCSH SE P0000 T02890161
2026-06-24T15:56:00Z,2026-06-24,2026-06-24,METAR,2026-06-24T20:22:16Z,28.9,84.0,16.1,61.0,36,280,W,6,6.9,16,18.4,10+,10.0,100,11000,SCT7000 OVC11000,1017.7,1014.3,0.01,,,,-RA,VFR,METAR KLAS 241556Z 28006G16KT 10SM -RA SCT070 OVC110 29/16 A3005 RMK AO2 RAB46 SLP143 P0000 T02890161
2026-06-25T03:56:00Z,2026-06-25,2026-06-24,METAR,2026-06-25T04:52:37Z,35,95.0,11.1,52.0,1,110,ESE,5,5.8,,,10+,10.0,19,,FEW12000 FEW22000,1009.9,1006.8,,,,,,VFR,METAR KLAS 250356Z 11005KT 10SM FEW120 FEW220 35/11 A2982 RMK AO2 SLP068 T03500111
2026-06-25T02:56:00Z,2026-06-25,2026-06-24,METAR,2026-06-25T04:52:37Z,35,95.0,11.7,53.1,1,90,E,9,10.4,,,10+,10.0,19,,FEW12000 FEW22000,1009.9,1006.7,,,,,,VFR,METAR KLAS 250256Z 09009KT 10SM FEW120 FEW220 35/12 A2982 RMK AO2 SLP067 T03500117 56019
2026-06-25T01:56:00Z,2026-06-25,2026-06-24,METAR,2026-06-25T04:52:37Z,36.1,97.0,11.7,53.1,1,80,E,11,12.7,17,19.6,10+,10.0,19,,FEW20000,1010.2,1007,,,,,,VFR,METAR KLAS 250156Z 08011G17KT 10SM FEW200 36/12 A2983 RMK AO2 SLP070 T03610117
2026-06-25T00:56:00Z,2026-06-25,2026-06-24,METAR,2026-06-25T04:52:37Z,36.1,97.0,12.2,54.0,1,100,E,8,9.2,,,10+,10.0,19,,FEW12000 FEW20000,1010.9,1007.5,,,,,,VFR,METAR KLAS 250056Z 10008KT 10SM FEW120 FEW200 36/12 A2985 RMK AO2 SLP075 T03610122
2026-06-24T23:56:00Z,2026-06-24,2026-06-24,METAR,2026-06-25T04:52:37Z,36.1,97.0,12.2,54.0,1,70,ENE,14,16.1,22,25.3,10+,10.0,44,,FEW8500 FEW12000 SCT20000,1011.9,1008.6,,,0.01,,,VFR,METAR KLAS 242356Z 07014G22KT 10SM FEW085 FEW120 SCT200 36/12 A2988 RMK AO2 SLP086 60001 T03610122 10361 20289 56033
2026-06-24T23:30:00Z,2026-06-24,2026-06-24,SPECI,2026-06-25T04:52:37Z,35.6,96.1,12.2,54.0,1,60,ENE,15,17.3,23,26.5,10+,10.0,44,,FEW8500 FEW12000 SCT20000,1012.6,,,,,,,VFR,SPECI KLAS 242330Z 06015G23KT 10SM FEW085 FEW120 SCT200 36/12 A2990 RMK AO2 T03560122
2026-06-24T22:56:00Z,2026-06-24,2026-06-24,METAR,2026-06-25T04:52:37Z,35.6,96.1,11.7,53.1,1,70,ENE,14,16.1,23,26.5,10+,10.0,44,,FEW8500 FEW12000 SCT20000,1013,1009.6,,,,,,VFR,METAR KLAS 242256Z 07014G23KT 10SM FEW085 FEW120 SCT200 36/12 A2991 RMK AO2 SLP096 T03560117
2026-06-24T21:56:00Z,2026-06-24,2026-06-24,METAR,2026-06-25T04:52:37Z,35,95.0,12.2,54.0,1,50,NE,9,10.4,,,10+,10.0,75,20000,SCT8500 SCT12000 BKN20000,1014.3,1011,,,,,,VFR,METAR KLAS 242156Z 05009KT 10SM SCT085 SCT120 BKN200 35/12 A2995 RMK AO2 SLP110 VIRGA DSNT E-S T03500122
2026-06-25T08:56:00Z,2026-06-25,2026-06-25,METAR,2026-06-25T09:56:32Z,31.1,88.0,11.7,53.1,3,0,CALM,0,0.0,,,10+,10.0,,,,1010.2,1007.1,,,,,,VFR,METAR KLAS 250856Z 00000KT 10SM CLR 31/12 A2983 RMK AO2 SLP071 T03110117 52000
2026-06-25T07:56:00Z,2026-06-25,2026-06-25,METAR,2026-06-25T09:56:32Z,31.7,89.1,12.2,54.0,2,0,CALM,0,0.0,,,10+,10.0,,,,1010.2,1007,,,,,,VFR,METAR KLAS 250756Z 00000KT 10SM CLR 32/12 A2983 RMK AO2 SLP070 T03170122 403610283
2026-06-25T06:56:00Z,2026-06-25,2026-06-24,METAR,2026-06-25T09:56:32Z,32.2,90.0,12.2,54.0,1,0,CALM,0,0.0,,,10+,10.0,,,,1010.2,1007.3,,,,,,VFR,METAR KLAS 250656Z 00000KT 10SM CLR 32/12 A2983 RMK AO2 SLP073 T03220122
2026-06-25T05:56:00Z,2026-06-25,2026-06-24,METAR,2026-06-25T09:56:32Z,33.3,91.9,11.7,53.1,1,0,CALM,0,0.0,,,10+,10.0,,,,1010.2,1007.1,,,,,,VFR,METAR KLAS 250556Z 00000KT 10SM CLR 33/12 A2983 RMK AO2 SLP071 T03330117 10361 20333 50003
2026-06-25T04:56:00Z,2026-06-25,2026-06-24,METAR,2026-06-25T09:56:32Z,34.4,93.9,11.7,53.1,1,130,SE,3,3.5,,,10+,10.0,,,,1010.2,1007.2,,,,,,VFR,METAR KLAS 250456Z 13003KT 10SM CLR 34/12 A2983 RMK AO2 SLP072 T03440117
2026-06-25T14:56:00Z,2026-06-25,2026-06-25,METAR,2026-06-25T15:33:31Z,31.1,88.0,10,50.0,1,240,WSW,3,3.5,,,10+,10.0,,,,1011.3,1007.9,,,,,,VFR,METAR KLAS 251456Z 24003KT 10SM CLR 31/10 A2986 RMK AO2 SLP079 T03110100 51004
2026-06-25T13:56:00Z,2026-06-25,2026-06-25,METAR,2026-06-25T15:33:31Z,29.4,84.9,9.4,48.9,1,200,SSW,5,5.8,,,10+,10.0,,,,1011.3,1008,,,,,,VFR,METAR KLAS 251356Z 20005KT 10SM CLR 29/09 A2986 RMK AO2 SLP080 T02940094
2026-06-25T12:56:00Z,2026-06-25,2026-06-25,METAR,2026-06-25T15:33:31Z,27.8,82.0,7.2,45.0,1,210,SSW,5,5.8,,,10+,10.0,,,,1010.9,1007.8,,,,,,VFR,METAR KLAS 251256Z 21005KT 10SM CLR 28/07 A2985 RMK AO2 SLP078 T02780072
2026-06-25T11:56:00Z,2026-06-25,2026-06-25,METAR,2026-06-25T15:33:31Z,28.3,82.9,3.9,39.0,1,180,S,6,6.9,,,10+,10.0,,,,1010.6,1007.5,,,,0.02,,VFR,METAR KLAS 251156Z 18006KT 10SM CLR 28/04 A2984 RMK AO2 SLP075 70002 T02830039 10333 20283 53004
2026-06-25T10:56:00Z,2026-06-25,2026-06-25,METAR,2026-06-25T15:33:31Z,28.3,82.9,8.9,48.0,3,220,SW,6,6.9,,,10+,10.0,,,,1010.6,1007.3,,,,,,VFR,METAR KLAS 251056Z 22006KT 10SM CLR 28/09 A2984 RMK AO2 SLP073 T02830089
2026-06-25T09:56:00Z,2026-06-25,2026-06-25,METAR,2026-06-25T15:33:31Z,29.4,84.9,11.1,52.0,9,0,CALM,0,0.0,,,10+,10.0,,,,1010.2,1007.1,,,,,,VFR,METAR KLAS 250956Z 00000KT 10SM CLR 29/11 A2983 RMK AO2 SLP071 T02940111
2026-06-25T19:56:00Z,2026-06-25,2026-06-25,METAR,2026-06-25T20:34:29Z,38.3,100.9,7.2,45.0,1,160,SSE,5,5.8,,,10+,10.0,19,,FEW12000,1008.9,1005.4,,,,,,VFR,METAR KLAS 251956Z 16005KT 10SM FEW120 38/07 A2979 RMK AO2 SLP054 T03830072
2026-06-25T18:56:00Z,2026-06-25,2026-06-25,METAR,2026-06-25T20:34:29Z,36.7,98.1,7.2,45.0,1,100,E,6,6.9,,,10+,10.0,19,,FEW12000,1010.2,1006.7,,,,,,VFR,METAR KLAS 251856Z 10006KT 10SM FEW120 37/07 A2983 RMK AO2 SLP067 T03670072
2026-06-25T17:56:00Z,2026-06-25,2026-06-25,METAR,2026-06-25T20:34:29Z,35,95.0,5.6,42.1,1,90,E,5,5.8,,,10+,10.0,19,,FEW12000,1010.9,1007.4,,,,,,VFR,METAR KLAS 251756Z 09005KT 10SM FEW120 35/06 A2985 RMK AO2 SLP074 T03500056 10356 20272 58004
2026-06-25T16:56:00Z,2026-06-25,2026-06-25,METAR,2026-06-25T20:34:29Z,33.9,93.0,6.1,43.0,1,110,ESE,4,4.6,,,10+,10.0,19,,FEW12000,1011.3,1007.8,,,,,,VFR,METAR KLAS 251656Z 11004KT 10SM FEW120 34/06 A2986 RMK AO2 SLP078 T03390061
2026-06-25T15:56:00Z,2026-06-25,2026-06-25,METAR,2026-06-25T20:34:29Z,32.2,90.0,8.3,46.9,1,0,CALM,0,0.0,,,10+,10.0,,,,1011.3,1008,,,,,,VFR,METAR KLAS 251556Z 00000KT 10SM CLR 32/08 A2986 RMK AO2 SLP080 T03220083
2026-06-26T03:56:00Z,2026-06-26,2026-06-25,METAR,2026-06-26T04:58:25Z,36.1,97.0,-7.8,18.0,1,220,SW,10,11.5,20,23.0,10+,10.0,,,,1005.5,1002.2,,,,,,VFR,METAR KLAS 260356Z 22010G20KT 10SM CLR 36/M08 A2969 RMK AO2 SLP022 T03611078
2026-06-26T02:56:00Z,2026-06-26,2026-06-25,METAR,2026-06-26T04:58:25Z,37.2,99.0,-10,14.0,1,220,SW,12,13.8,20,23.0,10+,10.0,19,,FEW12000,1005.5,1002.1,,,,,,VFR,METAR KLAS 260256Z 22012G20KT 10SM FEW120 37/M10 A2969 RMK AO2 PK WND 24026/0206 SLP021 T03721100 55000
2026-06-26T01:56:00Z,2026-06-26,2026-06-25,METAR,2026-06-26T04:58:25Z,38.3,100.9,-8.9,16.0,1,220,SW,15,17.3,25,28.8,10+,10.0,19,,FEW12000,1005.5,1002,,,,,,VFR,METAR KLAS 260156Z 22015G25KT 10SM FEW120 38/M09 A2969 RMK AO2 PK WND 24030/0057 SLP020 T03831089
2026-06-26T00:56:00Z,2026-06-26,2026-06-25,METAR,2026-06-26T04:58:25Z,39.4,102.9,-7.8,18.0,1,230,SW,19,21.9,26,29.9,10+,10.0,19,,FEW12000,1005.5,1002.2,,,,,,VFR,METAR KLAS 260056Z 23019G26KT 10SM FEW120 39/M08 A2969 RMK AO2 PK WND 25029/0011 SLP022 T03941078
2026-06-25T23:56:00Z,2026-06-25,2026-06-25,METAR,2026-06-26T04:58:25Z,41.1,106.0,-7.2,19.0,1,240,WSW,19,21.9,26,29.9,10+,10.0,19,,FEW12000,1005.5,1002.1,,,,,,VFR,METAR KLAS 252356Z 24019G26KT 10SM FEW120 41/M07 A2969 RMK AO2 PK WND 26029/2339 SLP021 T04111072 10417 20350 56019
2026-06-25T22:56:00Z,2026-06-25,2026-06-25,METAR,2026-06-26T04:58:25Z,41.1,106.0,0.6,33.1,1,240,WSW,16,18.4,27,31.1,10+,10.0,19,,FEW12000,1006.2,1002.6,,,,,,VFR,METAR KLAS 252256Z 24016G27KT 10SM FEW120 41/01 A2971 RMK AO2 PK WND 22031/2239 SLP026 T04110006
2026-06-26T09:56:00Z,2026-06-26,2026-06-26,METAR,2026-06-26T10:00:27Z,28.9,84.0,1.1,34.0,1,180,S,11,12.7,19,21.9,10+,10.0,,,,1006.9,1003.5,,,,,,VFR,METAR KLAS 260956Z 18011G19KT 10SM CLR 29/01 A2973 RMK AO2 SLP035 T02890011
2026-06-26T08:56:00Z,2026-06-26,2026-06-26,METAR,2026-06-26T10:00:27Z,30,86.0,1.7,35.1,1,200,SSW,13,15.0,21,24.2,10+,10.0,,,,1006.5,1003.2,,,,,,VFR,METAR KLAS 260856Z 20013G21KT 10SM CLR 30/02 A2972 RMK AO2 SLP032 T03000017 51005
2026-06-26T07:56:00Z,2026-06-26,2026-06-26,METAR,2026-06-26T10:00:27Z,31.1,88.0,0,32.0,1,190,S,12,13.8,,,10+,10.0,,,,1006.5,1003.2,,,,,,VFR,METAR KLAS 260756Z 19012KT 10SM CLR 31/00 A2972 RMK AO2 SLP032 T03110000 404170272
2026-06-26T06:56:00Z,2026-06-26,2026-06-25,METAR,2026-06-26T10:00:27Z,32.8,91.0,-2.8,27.0,1,210,SSW,13,15.0,21,24.2,10+,10.0,,,,1006.9,1003.3,,,,,,VFR,METAR KLAS 260656Z 21013G21KT 10SM CLR 33/M03 A2973 RMK AO2 SLP033 T03281028
2026-06-26T05:56:00Z,2026-06-26,2026-06-25,METAR,2026-06-26T10:00:27Z,33.9,93.0,-7.8,18.0,1,210,SSW,11,12.7,,,10+,10.0,,,,1006.2,1002.6,,,,,,VFR,METAR KLAS 260556Z 21011KT 10SM CLR 34/M08 A2971 RMK AO2 SLP026 T03391078 10411 20339 51005
2026-06-26T04:56:00Z,2026-06-26,2026-06-25,METAR,2026-06-26T10:00:27Z,35,95.0,-8.3,17.1,1,210,SSW,13,15.0,,,10+,10.0,,,,1005.8,1002.5,,,,,,VFR,METAR KLAS 260456Z 21013KT 10SM CLR 35/M08 A2970 RMK AO2 SLP025 T03501083
2026-06-26T14:56:00Z,2026-06-26,2026-06-26,METAR,2026-06-26T15:16:33Z,30.6,87.1,0.6,33.1,1,190,S,10,11.5,21,24.2,10+,10.0,19,,FEW15000,1008.5,1005.2,,,,,,VFR,METAR KLAS 261456Z 19010G21KT 10SM FEW150 31/01 A2978 RMK AO2 SLP052 T03060006 51017
2026-06-26T13:56:00Z,2026-06-26,2026-06-26,METAR,2026-06-26T15:16:33Z,28.9,84.0,2.2,36.0,1,170,S,8,9.2,17,19.6,10+,10.0,19,,FEW15000,1008.2,1005,,,,,,VFR,METAR KLAS 261356Z 17008G17KT 10SM FEW150 29/02 A2977 RMK AO2 SLP050 T02890022
2026-06-26T12:56:00Z,2026-06-26,2026-06-26,METAR,2026-06-26T15:16:33Z,27.2,81.0,2.2,36.0,1,130,SE,7,8.1,,,10+,10.0,19,,FEW15000,1007.5,1004.2,,,,,,VFR,METAR KLAS 261256Z 13007KT 10SM FEW150 27/02 A2975 RMK AO2 SLP042 T02720022
2026-06-26T11:56:00Z,2026-06-26,2026-06-26,METAR,2026-06-26T15:16:33Z,27.8,82.0,2.2,36.0,1,180,S,10,11.5,18,20.7,10+,10.0,,,,1006.9,1003.3,,,,,,VFR,METAR KLAS 261156Z 18010G18KT 10SM CLR 28/02 A2973 RMK AO2 SLP033 T02780022 10339 20278 50001
2026-06-26T10:56:00Z,2026-06-26,2026-06-26,METAR,2026-06-26T15:16:33Z,28.3,82.9,1.7,35.1,1,0,CALM,0,0.0,,,10+,10.0,,,,1006.9,1003.4,,,,,,VFR,METAR KLAS 261056Z 00000KT 10SM CLR 28/02 A2973 RMK AO2 SLP034 T02830017
2026-06-26T19:56:00Z,2026-06-26,2026-06-26,METAR,2026-06-26T20:21:34Z,38.3,100.9,-9.4,15.1,1,210,SSW,15,17.3,27,31.1,10+,10.0,19,,FEW14000 FEW20000 FEW25000,1007.9,1004.5,,,,,,VFR,METAR KLAS 261956Z 21015G27KT 10SM FEW140 FEW200 FEW250 38/M09 A2976 RMK AO2 PK WND 22029/1943 SLP045 T03831094
2026-06-26T18:56:00Z,2026-06-26,2026-06-26,METAR,2026-06-26T20:21:34Z,37.8,100.0,-5.6,21.9,1,200,SSW,18,20.7,24,27.6,10+,10.0,19,,FEW14000 FEW20000 FEW25000,1008.2,1004.7,,,,,,VFR,METAR KLAS 261856Z 20018G24KT 10SM FEW140 FEW200 FEW250 38/M06 A2977 RMK AO2 PK WND 22027/1758 SLP047 T03781056
2026-06-26T17:56:00Z,2026-06-26,2026-06-26,METAR,2026-06-26T20:21:34Z,36.1,97.0,-2.2,28.0,1,210,SSW,19,21.9,28,32.2,10+,10.0,19,,FEW14000 FEW20000,1008.2,1004.9,,,,,,VFR,METAR KLAS 261756Z 21019G28KT 10SM FEW140 FEW200 36/M02 A2977 RMK AO2 PK WND 20031/1732 SLP049 T03611022 10361 20272 58002
2026-06-26T16:56:00Z,2026-06-26,2026-06-26,METAR,2026-06-26T20:21:34Z,35,95.0,-1.7,28.9,1,180,S,15,17.3,25,28.8,10+,10.0,19,,FEW20000,1008.5,1005.1,,,,,,VFR,METAR KLAS 261656Z 18015G25KT 10SM FEW200 35/M02 A2978 RMK AO2 SLP051 T03501017
2026-06-26T15:56:00Z,2026-06-26,2026-06-26,METAR,2026-06-26T20:21:34Z,32.2,90.0,-0.6,30.9,1,180,S,12,13.8,23,26.5,10+,10.0,19,,FEW15000,1008.5,1005.3,,,,,,VFR,METAR KLAS 261556Z 18012G23KT 10SM FEW150 32/M01 A2978 RMK AO2 SLP053 T03221006
2026-06-27T03:56:00Z,2026-06-27,2026-06-26,METAR,2026-06-27T04:40:32Z,32.2,90.0,-2.2,28.0,1,220,SW,15,17.3,32,36.8,10+,10.0,19,,FEW14000 FEW22000,1005.5,1002.3,,,,,,VFR,METAR KLAS 270356Z 22015G32KT 10SM FEW140 FEW220 32/M02 A2969 RMK AO2 PK WND 23041/0325 SLP023 T03221022
2026-06-27T02:56:00Z,2026-06-27,2026-06-26,METAR,2026-06-27T04:40:32Z,34.4,93.9,-3.3,26.1,1,230,SW,16,18.4,35,40.3,10+,10.0,44,,FEW14000 SCT18000 SCT22000,1005.2,1002,,,,,,VFR,METAR KLAS 270256Z 23016G35KT 10SM FEW140 SCT180 SCT220 34/M03 A2968 RMK AO2 PK WND 24036/0238 SLP020 T03441033 55007
2026-06-27T01:56:00Z,2026-06-27,2026-06-26,METAR,2026-06-27T04:40:32Z,37.2,99.0,-7.2,19.0,1,220,SW,20,23.0,31,35.7,10+,10.0,44,,FEW14000 SCT18000 SCT22000,1004.8,1001.4,,,,,,VFR,METAR KLAS 270156Z 22020G31KT 10SM FEW140 SCT180 SCT220 37/M07 A2967 RMK AO2 PK WND 24032/0137 SLP014 T03721072
2026-06-27T00:56:00Z,2026-06-27,2026-06-26,METAR,2026-06-27T04:40:32Z,37.8,100.0,-7.2,19.0,1,210,SSW,22,25.3,32,36.8,10+,10.0,75,18000,FEW14000 BKN18000 BKN22000,1005.2,1002,,,,,,VFR,METAR KLAS 270056Z 21022G32KT 10SM FEW140 BKN180 BKN220 38/M07 A2968 RMK AO2 PK WND 20032/0055 SLP020 ACSL NW-NE-SE T03781072
2026-06-26T23:56:00Z,2026-06-26,2026-06-26,METAR,2026-06-27T04:40:32Z,38.3,100.9,-5.6,21.9,1,200,SSW,12,13.8,26,29.9,10+,10.0,75,18000,FEW14000 BKN18000 BKN22000,1005.8,1002.6,,,,,,VFR,METAR KLAS 262356Z 20012G26KT 10SM FEW140 BKN180 BKN220 38/M06 A2970 RMK AO2 PK WND 22033/2323 SLP026 ACSL NW-NE-SE T03831056 10394 20361 56009
2026-06-26T22:56:00Z,2026-06-26,2026-06-26,METAR,2026-06-27T04:40:32Z,38.9,102.0,-6.7,19.9,1,230,SW,21,24.2,31,35.7,10+,10.0,75,18000,BKN18000 BKN22000,1006.2,1002.8,,,,,,VFR,METAR KLAS 262256Z 23021G31KT 10SM BKN180 BKN220 39/M07 A2971 RMK AO2 PK WND 21037/2224 SLP028 ACSL N-E T03891067
2026-06-26T21:56:00Z,2026-06-26,2026-06-26,METAR,2026-06-27T04:40:32Z,38.3,100.9,-12.8,9.0,1,220,SW,22,25.3,31,35.7,10+,10.0,44,,FEW18000 SCT20000,1006.5,1003.2,,,,,,VFR,METAR KLAS 262156Z 22022G31KT 10SM FEW180 SCT200 38/M13 A2972 RMK AO2 PK WND 22034/2100 SLP032 ACSL N-NE T03831128
2026-06-27T08:56:00Z,2026-06-27,2026-06-27,METAR,2026-06-27T09:15:19Z,27.2,81.0,4.4,39.9,1,230,SW,23,26.5,32,36.8,10+,10.0,,,,1005.8,1002.4,,,,,,VFR,METAR KLAS 270856Z 23023G32KT 10SM CLR 27/04 A2970 RMK AO2 PK WND 23037/0805 SLP024 T02720044 58011
2026-06-27T07:56:00Z,2026-06-27,2026-06-27,METAR,2026-06-27T09:15:19Z,28.3,82.9,4.4,39.9,1,240,WSW,26,29.9,34,39.1,10+,10.0,19,,FEW22000,1006.2,1002.7,,,,,,VFR,METAR KLAS 270756Z 24026G34KT 10SM FEW220 28/04 A2971 RMK AO2 PK WND 24034/0756 SLP027 T02830044 403940272
2026-06-27T06:56:00Z,2026-06-27,2026-06-26,METAR,2026-06-27T09:15:19Z,29.4,84.9,3.3,37.9,1,220,SW,13,15.0,21,24.2,10+,10.0,19,,FEW14000 FEW22000,1006.9,1003.3,,,,,,VFR,METAR KLAS 270656Z 22013G21KT 10SM FEW140 FEW220 29/03 A2973 RMK AO2 SLP033 T02940033
2026-06-27T06:17:00Z,2026-06-27,2026-06-26,SPECI,2026-06-27T09:15:19Z,30,86.0,2.8,37.0,1,200,SSW,7,8.1,17,19.6,10+,10.0,19,,FEW14000 FEW22000,1006.9,,,,,,,VFR,SPECI KLAS 270617Z 20007G17KT 10SM FEW140 FEW220 30/03 A2973 RMK AO2 T03000028
2026-06-27T05:56:00Z,2026-06-27,2026-06-26,METAR,2026-06-27T09:15:19Z,30,86.0,2.8,37.0,1,VRB,VRB,3,3.5,22,25.3,10+,10.0,19,,FEW14000 FEW22000,1006.9,1003.5,,,,,,VFR,METAR KLAS 270556Z VRB03G22KT 10SM FEW140 FEW220 30/03 A2973 RMK AO2 PK WND 22034/0507 SLP035 T03000028 10383 20300 52015
2026-06-27T04:56:00Z,2026-06-27,2026-06-26,METAR,2026-06-27T09:15:19Z,31.1,88.0,2.2,36.0,1,210,SSW,15,17.3,23,26.5,10+,10.0,19,,FEW14000 FEW22000,1006.5,1003.2,,,,,,VFR,METAR KLAS 270456Z 21015G23KT 10SM FEW140 FEW220 31/02 A2972 RMK AO2 PK WND 22030/0401 SLP032 T03110022
2026-06-27T13:56:00Z,2026-06-27,2026-06-27,METAR,2026-06-27T14:17:33Z,25.6,78.1,5,41.0,1,210,SSW,17,19.6,23,26.5,10+,10.0,19,,FEW20000,1007.5,1004.3,,,,,,VFR,METAR KLAS 271356Z 21017G23KT 10SM FEW200 26/05 A2975 RMK AO2 SLP043 T02560050
2026-06-27T12:56:00Z,2026-06-27,2026-06-27,METAR,2026-06-27T14:17:33Z,25,77.0,4.4,39.9,1,220,SW,16,18.4,29,33.4,10+,10.0,19,,FEW20000,1007.2,1003.9,,,,,,VFR,METAR KLAS 271256Z 22016G29KT 10SM FEW200 25/04 A2974 RMK AO2 PK WND 23034/1157 SLP039 T02500044
2026-06-27T11:56:00Z,2026-06-27,2026-06-27,METAR,2026-06-27T14:17:33Z,25.6,78.1,3.9,39.0,1,230,SW,21,24.2,33,38.0,10+,10.0,,,,1005.8,1002.6,,,,,,VFR,METAR KLAS 271156Z 23021G33KT 10SM CLR 26/04 A2970 RMK AO2 PK WND 22045/1109 SLP026 T02560039 10300 20256 53002
2026-06-27T10:56:00Z,2026-06-27,2026-06-27,METAR,2026-06-27T14:17:33Z,25.6,78.1,3.9,39.0,1,220,SW,32,36.8,44,50.6,10+,10.0,,,,1004.8,1001.5,,,,,,VFR,METAR KLAS 271056Z 22032G44KT 10SM CLR 26/04 A2967 RMK AO2 PK WND 22044/1054 SLP015 T02560039
2026-06-27T09:56:00Z,2026-06-27,2026-06-27,METAR,2026-06-27T14:17:33Z,26.1,79.0,3.9,39.0,1,220,SW,27,31.1,38,43.7,10+,10.0,,,,1005.8,1002.4,,,,,,VFR,METAR KLAS 270956Z 22027G38KT 10SM CLR 26/04 A2970 RMK AO2 PK WND 23040/0942 SLP024 T02610039
2026-06-27T18:56:00Z,2026-06-27,2026-06-27,METAR,2026-06-27T19:55:17Z,32.8,91.0,3.9,39.0,1,210,SSW,13,15.0,25,28.8,10+,10.0,,,,1007.2,1004,,,,,,VFR,METAR KLAS 271856Z 21013G25KT 10SM CLR 33/04 A2974 RMK AO2 PK WND 21028/1823 SLP040 T03280039
2026-06-27T17:56:00Z,2026-06-27,2026-06-27,METAR,2026-06-27T19:55:17Z,31.7,89.1,3.9,39.0,1,210,SSW,15,17.3,21,24.2,10+,10.0,,,,1007.5,1004.6,,,,,,VFR,METAR KLAS 271756Z 21015G21KT 10SM CLR 32/04 A2975 RMK AO2 SLP046 T03170039 10317 20250 58004
2026-06-27T16:56:00Z,2026-06-27,2026-06-27,METAR,2026-06-27T19:55:17Z,30.6,87.1,5,41.0,1,220,SW,17,19.6,24,27.6,10+,10.0,19,,FEW20000,1007.9,1004.9,,,,,,VFR,METAR KLAS 271656Z 22017G24KT 10SM FEW200 31/05 A2976 RMK AO2 SLP049 T03060050
2026-06-27T15:56:00Z,2026-06-27,2026-06-27,METAR,2026-06-27T19:55:17Z,28.9,84.0,5,41.0,1,200,SSW,12,13.8,20,23.0,10+,10.0,19,,FEW20000,1008.5,1005.5,,,,,,VFR,METAR KLAS 271556Z 20012G20KT 10SM FEW200 29/05 A2978 RMK AO2 PK WND 23026/1507 SLP055 T02890050
2026-06-27T14:56:00Z,2026-06-27,2026-06-27,METAR,2026-06-27T19:55:17Z,27.2,81.0,5,41.0,1,230,SW,13,15.0,,,10+,10.0,19,,FEW20000,1007.9,1005,,,,,,VFR,METAR KLAS 271456Z 23013KT 10SM FEW200 27/05 A2976 RMK AO2 SLP050 T02720050 51020
2026-06-28T04:56:00Z,2026-06-28,2026-06-27,METAR,2026-06-28T05:08:09Z,28.9,84.0,-1.1,30.0,1,200,SSW,13,15.0,24,27.6,10+,10.0,,,,1004.5,1001.5,,,,,,VFR,METAR KLAS 280456Z 20013G24KT 10SM CLR 29/M01 A2966 RMK AO2 PK WND 21033/0410 SLP015 T02891011
2026-06-28T03:56:00Z,2026-06-28,2026-06-27,METAR,2026-06-28T05:08:09Z,30,86.0,0,32.0,1,210,SSW,17,19.6,29,33.4,10+,10.0,,,,1004.1,1001.3,,,,,,VFR,METAR KLAS 280356Z 21017G29KT 10SM CLR 30/00 A2965 RMK AO2 PK WND 20030/0340 SLP013 T03000000
2026-06-28T02:56:00Z,2026-06-28,2026-06-27,METAR,2026-06-28T05:08:09Z,31.7,89.1,0,32.0,1,210,SSW,18,20.7,28,32.2,10+,10.0,,,,1003.8,1000.9,,,,,,VFR,METAR KLAS 280256Z 21018G28KT 10SM CLR 32/00 A2964 RMK AO2 PK WND 23031/0157 SLP009 T03170000 56007
2026-06-28T01:56:00Z,2026-06-28,2026-06-27,METAR,2026-06-28T05:08:09Z,33.3,91.9,0,32.0,1,220,SW,18,20.7,28,32.2,10+,10.0,,,,1003.8,1001,,,,,,VFR,METAR KLAS 280156Z 22018G28KT 10SM CLR 33/00 A2964 RMK AO2 PK WND 23030/0122 SLP010 T03330000
2026-06-28T00:56:00Z,2026-06-28,2026-06-27,METAR,2026-06-28T05:08:09Z,34.4,93.9,-0.6,30.9,1,220,SW,19,21.9,30,34.5,10+,10.0,,,,1004.1,1001.1,,,,,,VFR,METAR KLAS 280056Z 22019G30KT 10SM CLR 34/M01 A2965 RMK AO2 PK WND 24036/0026 SLP011 T03441006
2026-06-27T23:56:00Z,2026-06-27,2026-06-27,METAR,2026-06-28T05:08:09Z,35,95.0,1.7,35.1,1,220,SW,19,21.9,30,34.5,10+,10.0,,,,1004.5,1001.6,,,,,,VFR,METAR KLAS 272356Z 22019G30KT 10SM CLR 35/02 A2966 RMK AO2 PK WND 25039/2317 SLP016 T03500017 10356 20317 56017
2026-06-27T22:56:00Z,2026-06-27,2026-06-27,METAR,2026-06-28T05:08:09Z,35,95.0,3.9,39.0,1,220,SW,22,25.3,29,33.4,10+,10.0,19,,FEW23000,1004.8,1001.9,,,,,,VFR,METAR KLAS 272256Z 22022G29KT 10SM FEW230 35/04 A2967 RMK AO2 PK WND 22032/2238 SLP019 T03500039
2026-06-28T08:56:00Z,2026-06-28,2026-06-28,METAR,2026-06-28T09:45:48Z,25,77.0,3.3,37.9,1,210,SSW,17,19.6,24,27.6,10+,10.0,,,,1003.8,1000.8,,,,,,VFR,METAR KLAS 280856Z 21017G24KT 10SM CLR 25/03 A2964 RMK AO2 PK WND 21032/0812 SLP008 T02500033 51005
2026-06-28T07:56:00Z,2026-06-28,2026-06-28,METAR,2026-06-28T09:45:48Z,25.6,78.1,1.1,34.0,1,220,SW,21,24.2,34,39.1,10+,10.0,,,,1003.5,1000.5,,,,,,VFR,METAR KLAS 280756Z 22021G34KT 10SM CLR 26/01 A2963 RMK AO2 PK WND 22039/0744 SLP005 T02560011 403560250
2026-06-28T06:56:00Z,2026-06-28,2026-06-27,METAR,2026-06-28T09:45:48Z,26.7,80.1,1.7,35.1,1,220,SW,20,23.0,31,35.7,10+,10.0,,,,1003.5,1000.6,,,,,,VFR,METAR KLAS 280656Z 22020G31KT 10SM CLR 27/02 A2963 RMK AO2 PK WND 22038/0558 SLP006 T02670017
2026-06-28T05:56:00Z,2026-06-28,2026-06-27,METAR,2026-06-28T09:45:48Z,27.8,82.0,1.7,35.1,1,220,SW,28,32.2,42,48.3,10+,10.0,,,,1003.1,1000.2,,,,,,VFR,METAR KLAS 280556Z 22028G42KT 10SM CLR 28/02 A2962 RMK AO2 PK WND 22042/0549 SLP002 T02780017 10350 20278 58005
2026-06-28T13:56:00Z,2026-06-28,2026-06-28,METAR,2026-06-28T14:26:42Z,23.9,75.0,6.1,43.0,11,200,SSW,9,10.4,15,17.3,10+,10.0,,,,1006.9,1004.1,,,,,,VFR,METAR KLAS 281356Z AUTO 20009G15KT 10SM CLR 24/06 A2973 RMK AO2 SLP041 T02390061
2026-06-28T12:56:00Z,2026-06-28,2026-06-28,METAR,2026-06-28T14:26:42Z,22.8,73.0,6.1,43.0,16,180,S,10,11.5,,,10+,10.0,,,,1006.2,1003.4,,,,,,VFR,METAR KLAS 281256Z 18010KT 10SM CLR 23/06 A2971 RMK AO2 SLP034 T02280061
2026-06-28T11:56:00Z,2026-06-28,2026-06-28,METAR,2026-06-28T14:26:42Z,23.3,73.9,5,41.0,8,200,SSW,12,13.8,,,10+,10.0,,,,1005.5,1002.6,,,,,,VFR,METAR KLAS 281156Z 20012KT 10SM CLR 23/05 A2969 RMK AO2 SLP026 T02330050 10278 20228 51017
2026-06-28T10:56:00Z,2026-06-28,2026-06-28,METAR,2026-06-28T14:26:42Z,23.9,75.0,3.3,37.9,1,210,SSW,13,15.0,,,10+,10.0,,,,1004.8,1002.1,,,,,,VFR,METAR KLAS 281056Z 21013KT 10SM CLR 24/03 A2967 RMK AO2 SLP021 T02390033
2026-06-28T09:56:00Z,2026-06-28,2026-06-28,METAR,2026-06-28T14:26:42Z,24.4,75.9,3.3,37.9,1,210,SSW,14,16.1,,,10+,10.0,,,,1004.5,1001.6,,,,,,VFR,METAR KLAS 280956Z 21014KT 10SM CLR 24/03 A2966 RMK AO2 PK WND 21026/0906 SLP016 T02440033
2026-06-28T18:56:00Z,2026-06-28,2026-06-28,METAR,2026-06-28T19:56:30Z,30,86.0,2.2,36.0,1,VRB,VRB,3,3.5,,,10+,10.0,,,,1007.2,1004.6,,,,,,VFR,METAR KLAS 281856Z VRB03KT 10SM CLR 30/02 A2974 RMK AO2 SLP046 T03000022
2026-06-28T17:56:00Z,2026-06-28,2026-06-28,METAR,2026-06-28T19:56:30Z,28.9,84.0,2.2,36.0,1,180,S,4,4.6,,,10+,10.0,,,,1007.5,1004.9,,,,,,VFR,METAR KLAS 281756Z 18004KT 10SM CLR 29/02 A2975 RMK AO2 SLP049 T02890022 10294 20228 58001
2026-06-28T16:56:00Z,2026-06-28,2026-06-28,METAR,2026-06-28T19:56:30Z,28.3,82.9,3.3,37.9,1,VRB,VRB,3,3.5,,,10+,10.0,,,,1007.9,1005.1,,,,,,VFR,METAR KLAS 281656Z VRB03KT 10SM CLR 28/03 A2976 RMK AO2 SLP051 T02830033
2026-06-28T15:56:00Z,2026-06-28,2026-06-28,METAR,2026-06-28T19:56:30Z,26.7,80.1,5,41.0,1,180,S,7,8.1,,,10+,10.0,,,,1007.9,1005.2,,,,,,VFR,METAR KLAS 281556Z 18007KT 150V210 10SM CLR 27/05 A2976 RMK AO2 SLP052 T02670050
2026-06-28T14:56:00Z,2026-06-28,2026-06-28,METAR,2026-06-28T19:56:30Z,25,77.0,6.1,43.0,6,180,S,7,8.1,,,10+,10.0,,,,1007.5,1005,,,,,,VFR,METAR KLAS 281456Z AUTO 18007KT 10SM CLR 25/06 A2975 RMK AO2 SLP050 T02500061 53020
2026-06-29T04:56:00Z,2026-06-29,2026-06-28,METAR,2026-06-29T05:18:46Z,29.4,84.9,-9.4,15.1,1,320,NW,15,17.3,23,26.5,10+,10.0,,,,1006.2,1003.4,,,,,,VFR,METAR KLAS 290456Z 32015G23KT 10SM CLR 29/M09 A2971 RMK AO2 SLP034 T02941094
2026-06-29T03:56:00Z,2026-06-29,2026-06-28,METAR,2026-06-29T05:18:46Z,30.6,87.1,-9.4,15.1,1,330,NNW,14,16.1,20,23.0,10+,10.0,19,,FEW13000,1005.2,1002.3,,,,,,VFR,METAR KLAS 290356Z 33014G20KT 10SM FEW130 31/M09 A2968 RMK AO2 PK WND 32027/0342 SLP023 T03061094
2026-06-29T02:56:00Z,2026-06-29,2026-06-28,METAR,2026-06-29T05:18:46Z,31.7,89.1,-6.1,21.0,1,340,NNW,14,16.1,23,26.5,10+,10.0,19,,FEW13000,1004.5,1001.6,,,,,,VFR,METAR KLAS 290256Z 34014G23KT 10SM FEW130 32/M06 A2966 RMK AO2 SLP016 T03171061 53005
2026-06-29T01:56:00Z,2026-06-29,2026-06-28,METAR,2026-06-29T05:18:46Z,32.8,91.0,-3.3,26.1,1,350,N,11,12.7,,,10+,10.0,19,,FEW13000,1004.1,1001.3,,,,,,VFR,METAR KLAS 290156Z COR 35011KT 10SM FEW130 33/M03 A2965 RMK AO2 SLP013 T03281033
2026-06-29T00:56:00Z,2026-06-29,2026-06-28,METAR,2026-06-29T05:18:46Z,33.3,91.9,1.7,35.1,1,280,W,13,15.0,22,25.3,10+,10.0,19,,FEW13000,1003.8,1000.9,,,,,,VFR,METAR KLAS 290056Z 28013G22KT 10SM FEW130 33/02 A2964 RMK AO2 PK WND 25026/0040 SLP009 T03330017
2026-06-28T23:56:00Z,2026-06-28,2026-06-28,METAR,2026-06-29T05:18:46Z,33.3,91.9,2.2,36.0,1,270,W,11,12.7,,,10+,10.0,19,,FEW13000,1003.8,1001.1,,,,,,VFR,METAR KLAS 282356Z 27011KT 10SM FEW130 33/02 A2964 RMK AO2 SLP011 T03330022 10339 20289 56017
2026-06-28T22:56:00Z,2026-06-28,2026-06-28,METAR,2026-06-29T05:18:46Z,33.3,91.9,0.6,33.1,1,230,SW,11,12.7,21,24.2,10+,10.0,19,,FEW13000,1004.1,1001.3,,,,,,VFR,METAR KLAS 282256Z 23011G21KT 10SM FEW130 33/01 A2965 RMK AO2 SLP013 T03330006
2026-06-29T10:56:00Z,2026-06-29,2026-06-29,METAR,2026-06-29T11:34:11Z,23.3,73.9,-3.3,26.1,1,40,NE,13,15.0,22,25.3,10+,10.0,,,,1010.6,1008,,,,,,VFR,METAR KLAS 291056Z 04013G22KT 10SM CLR 23/M03 A2984 RMK AO2 SLP080 T02331033
2026-06-29T09:56:00Z,2026-06-29,2026-06-29,METAR,2026-06-29T11:34:11Z,24.4,75.9,-3.9,25.0,1,40,NE,16,18.4,,,10+,10.0,,,,1009.9,1007.2,,,,,,VFR,METAR KLAS 290956Z 04016KT 10SM CLR 24/M04 A2982 RMK AO2 WSHFT 0851 SLP072 T02441039
2026-06-29T09:11:00Z,2026-06-29,2026-06-29,SPECI,2026-06-29T11:34:11Z,25,77.0,-5,23.0,1,40,NE,9,10.4,,,10+,10.0,,,,1009.2,,,,,,,VFR,SPECI KLAS 290911Z 04009KT 10SM CLR 25/M05 A2980 RMK AO2 WSHFT 0851 T02501050
2026-06-29T08:56:00Z,2026-06-29,2026-06-29,METAR,2026-06-29T11:34:11Z,26.7,80.1,-8.3,17.1,1,20,NNE,16,18.4,20,23.0,10+,10.0,,,,1009.2,1006.4,,,,,,VFR,METAR KLAS 290856Z 02016G20KT 10SM CLR 27/M08 A2980 RMK AO2 PK WND 33026/0814 SLP064 T02671083 53024
2026-06-29T07:56:00Z,2026-06-29,2026-06-29,METAR,2026-06-29T11:34:11Z,27.2,81.0,-8.9,16.0,1,340,NNW,16,18.4,23,26.5,10+,10.0,,,,1008.2,1005.2,,,,,,VFR,METAR KLAS 290756Z 34016G23KT 10SM CLR 27/M09 A2977 RMK AO2 PK WND 34032/0735 SLP052 T02721089 403390228
2026-06-29T06:56:00Z,2026-06-29,2026-06-28,METAR,2026-06-29T11:34:11Z,27.8,82.0,-8.9,16.0,1,340,NNW,13,15.0,23,26.5,10+,10.0,,,,1007.5,1004.7,,,,,,VFR,METAR KLAS 290656Z 34013G23KT 10SM CLR 28/M09 A2975 RMK AO2 SLP047 T02781089
2026-06-29T05:56:00Z,2026-06-29,2026-06-28,METAR,2026-06-29T11:34:11Z,28.9,84.0,-8.9,16.0,1,330,NNW,16,18.4,26,29.9,10+,10.0,,,,1006.9,1003.9,,,,,,VFR,METAR KLAS 290556Z 33016G26KT 10SM CLR 29/M09 A2973 RMK AO2 PK WND 33027/0526 SLP039 T02891089 10339 20283 51022
2026-06-29T15:56:00Z,2026-06-29,2026-06-29,METAR,2026-06-29T16:27:49Z,25,77.0,-5,23.0,1,40,NE,7,8.1,,,10+,10.0,,,,1013.3,1010.8,,,,,,VFR,METAR KLAS 291556Z 04007KT 10SM CLR 25/M05 A2992 RMK AO2 SLP108 T02501050
2026-06-29T14:56:00Z,2026-06-29,2026-06-29,METAR,2026-06-29T16:27:49Z,23.9,75.0,-4.4,24.1,1,20,NNE,7,8.1,,,10+,10.0,,,,1013.3,1010.7,,,,,,VFR,METAR KLAS 291456Z 02007KT 10SM CLR 24/M04 A2992 RMK AO2 SLP107 T02391044 51017
2026-06-29T13:56:00Z,2026-06-29,2026-06-29,METAR,2026-06-29T16:27:49Z,22.8,73.0,-3.9,25.0,1,30,NNE,11,12.7,,,10+,10.0,,,,1013,1010.3,,,,,,VFR,METAR KLAS 291356Z 03011KT 10SM CLR 23/M04 A2991 RMK AO2 SLP103 T02281039
2026-06-29T12:56:00Z,2026-06-29,2026-06-29,METAR,2026-06-29T16:27:49Z,22.2,72.0,-3.9,25.0,1,30,NNE,13,15.0,,,10+,10.0,,,,1012.3,1009.7,,,,,,VFR,METAR KLAS 291256Z 03013KT 10SM CLR 22/M04 A2989 RMK AO2 SLP097 T02221039
2026-06-29T11:56:00Z,2026-06-29,2026-06-29,METAR,2026-06-29T16:27:49Z,22.2,72.0,-3.3,26.1,1,50,NE,17,19.6,23,26.5,10+,10.0,,,,1011.6,1008.9,,,,,,VFR,METAR KLAS 291156Z 05017G23KT 10SM CLR 22/M03 A2987 RMK AO2 SLP089 T02221033 10289 20222 53022
2026-06-29T19:56:00Z,2026-06-29,2026-06-29,METAR,2026-06-29T20:29:53Z,29.4,84.9,-6.1,21.0,1,350,N,6,6.9,,,10+,10.0,,,,1011.3,1008.7,,,,,,VFR,METAR KLAS 291956Z 35006KT 10SM CLR 29/M06 A2986 RMK AO2 SLP087 T02941061
2026-06-29T18:56:00Z,2026-06-29,2026-06-29,METAR,2026-06-29T20:29:53Z,27.8,82.0,-6.7,19.9,1,360,N,6,6.9,,,10+,10.0,,,,1011.9,1009.4,,,,,,VFR,METAR KLAS 291856Z 36006KT 10SM CLR 28/M07 A2988 RMK AO2 SLP094 T02781067
2026-06-29T17:56:00Z,2026-06-29,2026-06-29,METAR,2026-06-29T20:29:53Z,26.7,80.1,-6.1,21.0,1,100,E,5,5.8,,,10+,10.0,,,,1012.6,1010,,,,,,VFR,METAR KLAS 291756Z 10005KT 10SM CLR 27/M06 A2990 RMK AO2 SLP100 T02671061 10272 20217 58007
2026-06-29T16:56:00Z,2026-06-29,2026-06-29,METAR,2026-06-29T20:29:53Z,25.6,78.1,-5,23.0,1,VRB,VRB,4,4.6,,,10+,10.0,,,,1013.3,1010.5,,,,,,VFR,METAR KLAS 291656Z VRB04KT 10SM CLR 26/M05 A2992 RMK AO2 SLP105 T02561050
2026-06-30T03:56:00Z,2026-06-30,2026-06-29,METAR,2026-06-30T04:51:31Z,31.7,89.1,-3.3,26.1,1,150,SSE,9,10.4,16,18.4,10+,10.0,,,,1006.2,1003.6,,,,,,VFR,METAR KLAS 300356Z 15009G16KT 10SM CLR 32/M03 A2971 RMK AO2 SLP036 T03171033
2026-06-30T02:56:00Z,2026-06-30,2026-06-29,METAR,2026-06-30T04:51:31Z,32.2,90.0,-5.6,21.9,1,60,ENE,9,10.4,,,10+,10.0,,,,1006.2,1003.4,,,,,,VFR,METAR KLAS 300256Z 06009KT 10SM CLR 32/M06 A2971 RMK AO2 SLP034 T03221056 56012
2026-06-30T01:56:00Z,2026-06-30,2026-06-29,METAR,2026-06-30T04:51:31Z,32.8,91.0,-5,23.0,1,100,E,5,5.8,,,10+,10.0,,,,1006.2,1003.6,,,,,,VFR,METAR KLAS 300156Z 10005KT 10SM CLR 33/M05 A2971 RMK AO2 SLP036 T03281050
2026-06-30T00:56:00Z,2026-06-30,2026-06-29,METAR,2026-06-30T04:51:31Z,33.3,91.9,-5.6,21.9,1,100,E,6,6.9,,,10+,10.0,,,,1006.5,1003.9,,,,,,VFR,METAR KLAS 300056Z 10006KT 10SM CLR 33/M06 A2972 RMK AO2 SLP039 T03331056
2026-06-29T23:56:00Z,2026-06-29,2026-06-29,METAR,2026-06-30T04:51:31Z,33.3,91.9,-5.6,21.9,1,VRB,VRB,4,4.6,,,10+,10.0,,,,1007.2,1004.7,,,,,,VFR,METAR KLAS 292356Z COR VRB04KT 10SM CLR 33/M06 A2974 RMK AO2 SLP047 T03331056 10333 20267 56028
2026-06-29T22:56:00Z,2026-06-29,2026-06-29,METAR,2026-06-30T04:51:31Z,32.8,91.0,-6.1,21.0,1,180,S,3,3.5,,,10+,10.0,,,,1008.2,1005.5,,,,,,VFR,METAR KLAS 292256Z 18003KT 10SM CLR 33/M06 A2977 RMK AO2 SLP055 T03281061
2026-06-29T21:56:00Z,2026-06-29,2026-06-29,METAR,2026-06-30T04:51:31Z,31.1,88.0,-6.1,21.0,1,70,ENE,4,4.6,,,10+,10.0,,,,1009.2,1006.7,,,,,,VFR,METAR KLAS 292156Z 07004KT 10SM CLR 31/M06 A2980 RMK AO2 SLP067 T03111061
2026-06-30T09:56:00Z,2026-06-30,2026-06-30,METAR,2026-06-30T10:18:02Z,26.1,79.0,0,32.0,1,200,SSW,7,8.1,,,10+,10.0,,,,1007.2,1004.5,,,,,,VFR,METAR KLAS 300956Z 20007KT 10SM CLR 26/00 A2974 RMK AO2 SLP045 T02610000
2026-06-30T08:56:00Z,2026-06-30,2026-06-30,METAR,2026-06-30T10:18:02Z,26.7,80.1,-2.2,28.0,1,180,S,8,9.2,,,10+,10.0,,,,1007.2,1004.5,,,,,,VFR,METAR KLAS 300856Z 18008KT 10SM CLR 27/M02 A2974 RMK AO2 SLP045 T02671022 50002
2026-06-30T07:56:00Z,2026-06-30,2026-06-30,METAR,2026-06-30T10:18:02Z,27.8,82.0,-4.4,24.1,1,180,S,5,5.8,,,10+,10.0,,,,1007.2,1004.5,,,,,,VFR,METAR KLAS 300756Z 18005KT 10SM CLR 28/M04 A2974 RMK AO2 SLP045 T02781044 403390217
2026-06-30T06:56:00Z,2026-06-30,2026-06-29,METAR,2026-06-30T10:18:02Z,28.9,84.0,-4.4,24.1,1,180,S,5,5.8,,,10+,10.0,,,,1007.2,1004.5,,,,,,VFR,METAR KLAS 300656Z 18005KT 10SM CLR 29/M04 A2974 RMK AO2 SLP045 T02891044
2026-06-30T05:56:00Z,2026-06-30,2026-06-29,METAR,2026-06-30T10:18:02Z,30,86.0,-6.1,21.0,1,210,SSW,7,8.1,,,10+,10.0,,,,1007.2,1004.4,,,,,,VFR,METAR KLAS 300556Z 21007KT 10SM CLR 30/M06 A2974 RMK AO2 SLP044 T03001061 10339 20300 53009
2026-06-30T04:56:00Z,2026-06-30,2026-06-29,METAR,2026-06-30T10:18:02Z,31.1,88.0,-3.3,26.1,1,190,S,4,4.6,,,10+,10.0,,,,1006.5,1003.9,,,,,,VFR,METAR KLAS 300456Z 19004KT 10SM CLR 31/M03 A2972 RMK AO2 SLP039 T03111033
2026-06-30T14:56:00Z,2026-06-30,2026-06-30,METAR,2026-06-30T15:18:40Z,26.1,79.0,-0.6,30.9,1,280,W,5,5.8,,,10+,10.0,,,,1010.2,1007.5,,,,,,VFR,METAR KLAS 301456Z 28005KT 10SM CLR 26/M01 A2983 RMK AO2 SLP075 T02611006 53019
2026-06-30T13:56:00Z,2026-06-30,2026-06-30,METAR,2026-06-30T15:18:40Z,25,77.0,5,41.0,1,210,SSW,8,9.2,,,10+,10.0,,,,1009.6,1006.9,,,,,,VFR,METAR KLAS 301356Z 21008KT 10SM CLR 25/05 A2981 RMK AO2 SLP069 T02500050
2026-06-30T12:56:00Z,2026-06-30,2026-06-30,METAR,2026-06-30T15:18:40Z,23.3,73.9,5.6,42.1,11,180,S,6,6.9,,,10+,10.0,19,,FEW14000,1008.9,1006.1,,,,,,VFR,METAR KLAS 301256Z 18006KT 10SM FEW140 23/06 A2979 RMK AO2 SLP061 T02330056
2026-06-30T11:56:00Z,2026-06-30,2026-06-30,METAR,2026-06-30T15:18:40Z,23.9,75.0,3.9,39.0,1,0,CALM,0,0.0,,,10+,10.0,19,,FEW18000,1008.2,1005.5,,,,,,VFR,METAR KLAS 301156Z 00000KT 10SM FEW180 24/04 A2977 RMK AO2 SLP055 T02390039 10300 20239 53009
2026-06-30T10:56:00Z,2026-06-30,2026-06-30,METAR,2026-06-30T15:18:40Z,25,77.0,2.2,36.0,1,180,S,7,8.1,,,10+,10.0,,,,1007.5,1004.6,,,,,,VFR,METAR KLAS 301056Z 18007KT 10SM CLR 25/02 A2975 RMK AO2 SLP046 T02500022
2026-06-30T19:56:00Z,2026-06-30,2026-06-30,METAR,2026-06-30T20:32:15Z,32.8,91.0,-0.6,30.9,1,VRB,VRB,3,3.5,,,10+,10.0,19,,FEW14000,1010.2,1007.3,,,,,,VFR,METAR KLAS 301956Z VRB03KT 10SM FEW140 33/M01 A2983 RMK AO2 SLP073 T03281006
2026-06-30T18:56:00Z,2026-06-30,2026-06-30,METAR,2026-06-30T20:32:15Z,31.1,88.0,2.2,36.0,1,0,CALM,0,0.0,,,10+,10.0,19,,FEW14000,1010.6,1007.6,,,,,,VFR,METAR KLAS 301856Z 00000KT 10SM FEW140 31/02 A2984 RMK AO2 SLP076 T03110022
2026-06-30T17:56:00Z,2026-06-30,2026-06-30,METAR,2026-06-30T20:32:15Z,30,86.0,3.3,37.9,1,100,E,6,6.9,,,10+,10.0,19,,FEW14000,1010.9,1007.8,,,,,,VFR,METAR KLAS 301756Z 10006KT 10SM FEW140 30/03 A2985 RMK AO2 SLP078 T03000033 10300 20233 51004
2026-06-30T16:56:00Z,2026-06-30,2026-06-30,METAR,2026-06-30T20:32:15Z,29.4,84.9,2.8,37.0,1,VRB,VRB,4,4.6,,,10+,10.0,,,,1010.6,1007.8,,,,,,VFR,METAR KLAS 301656Z VRB04KT 10SM CLR 29/03 A2984 RMK AO2 SLP078 T02940028
2026-06-30T15:56:00Z,2026-06-30,2026-06-30,METAR,2026-06-30T20:32:15Z,27.2,81.0,4.4,39.9,1,130,SE,4,4.6,,,10+,10.0,,,,1010.6,1007.9,,,,,,VFR,METAR KLAS 301556Z 13004KT 10SM CLR 27/04 A2984 RMK AO2 SLP079 T02720044
2026-07-01T04:56:00Z,2026-07-01,2026-06-30,METAR,2026-07-01T05:11:39Z,30.6,87.1,-5,23.0,1,170,S,9,10.4,17,19.6,10+,10.0,,,,1007.9,1005,,,,,,VFR,METAR KLAS 010456Z 17009G17KT 10SM CLR 31/M05 A2976 RMK AO2 SLP050 T03061050
2026-07-01T03:56:00Z,2026-07-01,2026-06-30,METAR,2026-07-01T05:11:39Z,31.1,88.0,-3.3,26.1,1,160,SSE,9,10.4,17,19.6,10+,10.0,,,,1007.5,1004.7,,,,,,VFR,METAR KLAS 010356Z 16009G17KT 10SM CLR 31/M03 A2975 RMK AO2 SLP047 T03111033
2026-07-01T02:56:00Z,2026-07-01,2026-06-30,METAR,2026-07-01T05:11:39Z,32.2,90.0,-3.9,25.0,1,160,SSE,10,11.5,16,18.4,10+,10.0,,,,1007.2,1004.4,,,,,,VFR,METAR KLAS 010256Z 16010G16KT 10SM CLR 32/M04 A2974 RMK AO2 SLP044 T03221039 55005
2026-07-01T02:02:00Z,2026-07-01,2026-06-30,SPECI,2026-07-01T05:11:39Z,33.3,91.9,-4.4,24.1,1,110,ESE,10,11.5,,,10+,10.0,,,,1007.2,,,,,,,VFR,SPECI KLAS 010202Z 11010KT 10SM CLR 33/M04 A2974 RMK AO2 T03331044
2026-07-01T01:56:00Z,2026-07-01,2026-06-30,METAR,2026-07-01T05:11:39Z,33.3,91.9,-4.4,24.1,1,100,E,10,11.5,20,23.0,10+,10.0,,,,1007.2,1004.4,,,,,,VFR,METAR KLAS 010156Z 10010G20KT 10SM CLR 33/M04 A2974 RMK AO2 SLP044 T03331044
2026-07-01T00:56:00Z,2026-07-01,2026-06-30,METAR,2026-07-01T05:11:39Z,33.9,93.0,-3.3,26.1,1,40,NE,7,8.1,,,10+,10.0,19,,FEW14000,1007.2,1004.5,,,,,,VFR,METAR KLAS 010056Z 04007KT 10SM FEW140 34/M03 A2974 RMK AO2 SLP045 T03391033
2026-07-01T00:20:00Z,2026-07-01,2026-06-30,SPECI,2026-07-01T05:11:39Z,33.9,93.0,-3.3,26.1,1,90,E,5,5.8,,,10+,10.0,19,,FEW14000,1007.5,,,,,,,VFR,SPECI KLAS 010020Z 09005KT 10SM FEW140 34/M03 A2975 RMK AO2 T03391033
2026-07-01T00:04:00Z,2026-07-01,2026-06-30,SPECI,2026-07-01T05:11:39Z,34.4,93.9,-3.3,26.1,1,50,NE,8,9.2,15,17.3,10+,10.0,19,,FEW14000,1007.5,,,,,,,VFR,SPECI KLAS 010004Z 05008G15KT 030V120 10SM FEW140 34/M03 A2975 RMK AO2 T03441033
2026-06-30T23:56:00Z,2026-06-30,2026-06-30,METAR,2026-07-01T05:11:39Z,34.4,93.9,-3.9,25.0,1,80,E,6,6.9,16,18.4,10+,10.0,19,,FEW14000,1007.9,1005,,,,,,VFR,METAR KLAS 302356Z 08006G16KT 10SM FEW140 34/M04 A2976 RMK AO2 SLP050 T03441039 10350 20300 56017
2026-06-30T22:56:00Z,2026-06-30,2026-06-30,METAR,2026-07-01T05:11:39Z,34.4,93.9,-5.6,21.9,1,110,ESE,5,5.8,,,10+,10.0,19,,FEW14000,1008.2,1005.4,,,,,,VFR,METAR KLAS 302256Z 11005KT 10SM FEW140 34/M06 A2977 RMK AO2 SLP054 T03441056
2026-07-01T09:56:00Z,2026-07-01,2026-07-01,METAR,2026-07-01T10:31:28Z,26.1,79.0,-0.6,30.9,1,180,S,7,8.1,,,10+,10.0,,,,1007.9,1004.8,,,,,,VFR,METAR KLAS 010956Z 18007KT 10SM CLR 26/M01 A2976 RMK AO2 SLP048 T02611006
2026-07-01T08:56:00Z,2026-07-01,2026-07-01,METAR,2026-07-01T10:31:28Z,27.2,81.0,-2.2,28.0,1,160,SSE,8,9.2,,,10+,10.0,,,,1007.9,1004.8,,,,,,VFR,METAR KLAS 010856Z 16008KT 10SM CLR 27/M02 A2976 RMK AO2 SLP048 T02721022 55002
2026-07-01T07:56:00Z,2026-07-01,2026-07-01,METAR,2026-07-01T10:31:28Z,28.3,82.9,-1.7,28.9,1,190,S,5,5.8,,,10+,10.0,,,,1007.9,1004.8,,,,,,VFR,METAR KLAS 010756Z 19005KT 10SM CLR 28/M02 A2976 RMK AO2 SLP048 T02831017 403500233
2026-07-01T06:56:00Z,2026-07-01,2026-06-30,METAR,2026-07-01T10:31:28Z,28.9,84.0,-1.7,28.9,1,190,S,6,6.9,,,10+,10.0,,,,1007.9,1005,,,,,,VFR,METAR KLAS 010656Z 19006KT 10SM CLR 29/M02 A2976 RMK AO2 SLP050 T02891017
2026-07-01T05:56:00Z,2026-07-01,2026-06-30,METAR,2026-07-01T10:31:28Z,29.4,84.9,-5,23.0,1,190,S,9,10.4,18,20.7,10+,10.0,,,,1007.9,1005,,,,,,VFR,METAR KLAS 010556Z 19009G18KT 10SM CLR 29/M05 A2976 RMK AO2 SLP050 T02941050 10350 20294 50006
2026-07-01T14:56:00Z,2026-07-01,2026-07-01,METAR,2026-07-01T15:29:02Z,26.7,80.1,1.7,35.1,1,210,SSW,4,4.6,,,10+,10.0,,,,1010.2,1007.6,,,,,,VFR,METAR KLAS 011456Z 21004KT 10SM CLR 27/02 A2983 RMK AO2 SLP076 T02670017 51019
2026-07-01T13:56:00Z,2026-07-01,2026-07-01,METAR,2026-07-01T15:29:02Z,25,77.0,-0.6,30.9,1,280,W,5,5.8,,,10+,10.0,,,,1009.9,1006.9,,,,,,VFR,METAR KLAS 011356Z 28005KT 10SM CLR 25/M01 A2982 RMK AO2 SLP069 T02501006
2026-07-01T12:56:00Z,2026-07-01,2026-07-01,METAR,2026-07-01T15:29:02Z,24.4,75.9,3.9,39.0,1,180,S,4,4.6,,,10+,10.0,,,,1009.2,1006.3,,,,,,VFR,METAR KLAS 011256Z 18004KT 10SM CLR 24/04 A2980 RMK AO2 SLP063 T02440039
2026-07-01T11:56:00Z,2026-07-01,2026-07-01,METAR,2026-07-01T15:29:02Z,25,77.0,2.8,37.0,1,0,CALM,0,0.0,,,10+,10.0,,,,1008.5,1005.4,,,,,,VFR,METAR KLAS 011156Z 00000KT 10SM CLR 25/03 A2978 RMK AO2 SLP054 T02500028 10294 20250 53006
2026-07-01T10:56:00Z,2026-07-01,2026-07-01,METAR,2026-07-01T15:29:02Z,25.6,78.1,1.7,35.1,1,190,S,6,6.9,,,10+,10.0,,,,1007.9,1005,,,,,,VFR,METAR KLAS 011056Z 19006KT 10SM CLR 26/02 A2976 RMK AO2 SLP050 T02560017
2026-07-01T19:56:00Z,2026-07-01,2026-07-01,METAR,2026-07-01T20:28:00Z,33.3,91.9,0.6,33.1,1,220,SW,7,8.1,,,10+,10.0,19,,FEW15000,1009.9,1007,,,,,,VFR,METAR KLAS 011956Z 22007KT 10SM FEW150 33/01 A2982 RMK AO2 SLP070 T03330006
2026-07-01T18:56:00Z,2026-07-01,2026-07-01,METAR,2026-07-01T20:28:00Z,33.3,91.9,0.6,33.1,1,100,E,11,12.7,16,18.4,10+,10.0,,,,1010.2,1007.3,,,,,,VFR,METAR KLAS 011856Z 10011G16KT 10SM CLR 33/01 A2983 RMK AO2 SLP073 T03330006
2026-07-01T17:56:00Z,2026-07-01,2026-07-01,METAR,2026-07-01T20:28:00Z,31.1,88.0,0.6,33.1,1,VRB,VRB,3,3.5,,,10+,10.0,,,,1010.6,1007.6,,,,,,VFR,METAR KLAS 011756Z VRB03KT 10SM CLR 31/01 A2984 RMK AO2 SLP076 T03110006 10311 20244 50001
2026-07-01T16:56:00Z,2026-07-01,2026-07-01,METAR,2026-07-01T20:28:00Z,29.4,84.9,1.1,34.0,1,VRB,VRB,3,3.5,,,10+,10.0,,,,1010.6,1007.8,,,,,,VFR,METAR KLAS 011656Z VRB03KT 10SM CLR 29/01 A2984 RMK AO2 SLP078 T02940011
2026-07-01T15:56:00Z,2026-07-01,2026-07-01,METAR,2026-07-01T20:28:00Z,28.3,82.9,2.2,36.0,1,150,SSE,5,5.8,,,10+,10.0,,,,1010.6,1007.7,,,,,,VFR,METAR KLAS 011556Z 15005KT 10SM CLR 28/02 A2984 RMK AO2 SLP077 T02830022
2026-07-02T03:56:00Z,2026-07-02,2026-07-01,METAR,2026-07-02T04:46:44Z,32.8,91.0,-0.6,30.9,1,230,SW,7,8.1,,,10+,10.0,,,,1007.9,1005,,,,,,VFR,METAR KLAS 020356Z 23007KT 10SM CLR 33/M01 A2976 RMK AO2 SLP050 T03281006
2026-07-02T02:56:00Z,2026-07-02,2026-07-01,METAR,2026-07-02T04:46:44Z,33.9,93.0,-1.1,30.0,1,240,WSW,10,11.5,,,10+,10.0,19,,FEW14000,1007.2,1004.2,,,,,,VFR,METAR KLAS 020256Z 24010KT 10SM FEW140 34/M01 A2974 RMK AO2 SLP042 T03391011 53001
2026-07-02T01:56:00Z,2026-07-02,2026-07-01,METAR,2026-07-02T04:46:44Z,35,95.0,-1.1,30.0,1,230,SW,10,11.5,19,21.9,10+,10.0,19,,FEW14000,1006.9,1004,,,,,,VFR,METAR KLAS 020156Z 23010G19KT 10SM FEW140 35/M01 A2973 RMK AO2 SLP040 T03501011
2026-07-02T00:56:00Z,2026-07-02,2026-07-01,METAR,2026-07-02T04:46:44Z,36.1,97.0,-0.6,30.9,1,220,SW,12,13.8,,,10+,10.0,19,,FEW14000,1006.9,1003.8,,,,,,VFR,METAR KLAS 020056Z 22012KT 10SM FEW140 36/M01 A2973 RMK AO2 SLP038 T03611006
2026-07-01T23:56:00Z,2026-07-01,2026-07-01,METAR,2026-07-02T04:46:44Z,36.1,97.0,0,32.0,1,190,S,10,11.5,18,20.7,10+,10.0,19,,FEW14000,1007.2,1004.1,,,,,,VFR,METAR KLAS 012356Z 19010G18KT 10SM FEW140 36/00 A2974 RMK AO2 SLP041 T03610000 10367 20311 56022
2026-07-01T22:58:00Z,2026-07-01,2026-07-01,SPECI,2026-07-02T04:46:44Z,35.6,96.1,0.6,33.1,1,180,S,7,8.1,16,18.4,10+,10.0,19,,FEW14000,1007.9,,,,,,,VFR,SPECI KLAS 012258Z 18007G16KT 10SM FEW140 36/01 A2976 RMK AO2 T03560006
2026-07-01T22:56:00Z,2026-07-01,2026-07-01,METAR,2026-07-02T04:46:44Z,36.1,97.0,0,32.0,1,VRB,VRB,6,6.9,16,18.4,10+,10.0,19,,FEW14000,1007.9,1004.7,,,,,,VFR,METAR KLAS 012256Z VRB06G16KT 10SM FEW140 36/00 A2976 RMK AO2 SLP047 T03610000
2026-07-01T21:56:00Z,2026-07-01,2026-07-01,METAR,2026-07-02T04:46:44Z,35,95.0,1.1,34.0,1,VRB,VRB,4,4.6,,,10+,10.0,19,,FEW14000,1008.9,1005.8,,,,,,VFR,METAR KLAS 012156Z VRB04KT 10SM FEW140 35/01 A2979 RMK AO2 SLP058 T03500011
2026-07-02T08:56:00Z,2026-07-02,2026-07-02,METAR,2026-07-02T09:46:35Z,28.3,82.9,1.7,35.1,1,190,S,4,4.6,,,10+,10.0,,,,1009.6,1006.6,,,,,,VFR,METAR KLAS 020856Z 19004KT 10SM CLR 28/02 A2981 RMK AO2 SLP066 T02830017 51006
2026-07-02T07:56:00Z,2026-07-02,2026-07-02,METAR,2026-07-02T09:46:35Z,28.9,84.0,0.6,33.1,1,220,SW,7,8.1,,,10+,10.0,,,,1009.2,1006.3,,,,,,VFR,METAR KLAS 020756Z 22007KT 10SM CLR 29/01 A2980 RMK AO2 SLP063 T02890006 403670244
2026-07-02T06:56:00Z,2026-07-02,2026-07-01,METAR,2026-07-02T09:46:35Z,30,86.0,0.6,33.1,1,180,S,6,6.9,,,10+,10.0,,,,1009.2,1006.1,,,,,,VFR,METAR KLAS 020656Z 18006KT 10SM CLR 30/01 A2980 RMK AO2 SLP061 T03000006
2026-07-02T05:56:00Z,2026-07-02,2026-07-01,METAR,2026-07-02T09:46:35Z,30.6,87.1,0.6,33.1,1,180,S,8,9.2,,,10+,10.0,,,,1008.9,1005.9,,,,,,VFR,METAR KLAS 020556Z 18008KT 10SM CLR 31/01 A2979 RMK AO2 SLP059 T03060006 10361 20306 51016
2026-07-02T04:56:00Z,2026-07-02,2026-07-01,METAR,2026-07-02T09:46:35Z,32.2,90.0,0.6,33.1,1,190,S,6,6.9,,,10+,10.0,,,,1008.9,1005.7,,,,,,VFR,METAR KLAS 020456Z 19006KT 10SM CLR 32/01 A2979 RMK AO2 SLP057 T03220006
2026-07-02T14:56:00Z,2026-07-02,2026-07-02,METAR,2026-07-02T14:58:49Z,28.3,82.9,-0.6,30.9,1,160,SSE,12,13.8,17,19.6,10+,10.0,,,,1012.3,1009.3,,,,,,VFR,METAR KLAS 021456Z 16012G17KT 10SM CLR 28/M01 A2989 RMK AO2 SLP093 T02831006 53020
2026-07-02T13:56:00Z,2026-07-02,2026-07-02,METAR,2026-07-02T14:58:49Z,26.1,79.0,0,32.0,1,210,SSW,7,8.1,,,10+,10.0,,,,1011.3,1008.5,,,,,,VFR,METAR KLAS 021356Z 21007KT 10SM CLR 26/00 A2986 RMK AO2 SLP085 T02610000
2026-07-02T12:56:00Z,2026-07-02,2026-07-02,METAR,2026-07-02T14:58:49Z,25.6,78.1,0,32.0,1,180,S,8,9.2,18,20.7,10+,10.0,,,,1010.9,1007.7,,,,,,VFR,METAR KLAS 021256Z 18008G18KT 10SM CLR 26/00 A2985 RMK AO2 SLP077 T02560000
2026-07-02T11:56:00Z,2026-07-02,2026-07-02,METAR,2026-07-02T14:58:49Z,25.6,78.1,0.6,33.1,1,180,S,9,10.4,15,17.3,10+,10.0,,,,1010.2,1007.1,,,,,,VFR,METAR KLAS 021156Z 18009G15KT 10SM CLR 26/01 A2983 RMK AO2 SLP071 T02560006 10306 20256 53005
2026-07-02T10:56:00Z,2026-07-02,2026-07-02,METAR,2026-07-02T14:58:49Z,26.7,80.1,1.1,34.0,1,160,SSE,8,9.2,,,10+,10.0,,,,1009.9,1006.6,,,,,,VFR,METAR KLAS 021056Z 16008KT 10SM CLR 27/01 A2982 RMK AO2 SLP066 T02670011
2026-07-02T09:56:00Z,2026-07-02,2026-07-02,METAR,2026-07-02T14:58:49Z,27.2,81.0,1.7,35.1,1,170,S,7,8.1,,,10+,10.0,,,,1009.6,1006.6,,,,,,VFR,METAR KLAS 020956Z 17007KT 10SM CLR 27/02 A2981 RMK AO2 SLP066 T02720017
2026-07-02T19:56:00Z,2026-07-02,2026-07-02,METAR,2026-07-02T20:05:38Z,35,95.0,-0.6,30.9,1,210,SSW,10,11.5,,,10+,10.0,19,,FEW25000,1011.9,1008.8,,,,,,VFR,METAR KLAS 021956Z 21010KT 10SM FEW250 35/M01 A2988 RMK AO2 SLP088 T03501006
2026-07-02T18:56:00Z,2026-07-02,2026-07-02,METAR,2026-07-02T20:05:38Z,33.9,93.0,0,32.0,1,100,E,6,6.9,,,10+,10.0,19,,FEW25000,1012.6,1009.4,,,,,,VFR,METAR KLAS 021856Z 10006KT 10SM FEW250 34/00 A2990 RMK AO2 SLP094 T03390000
2026-07-02T17:56:00Z,2026-07-02,2026-07-02,METAR,2026-07-02T20:05:38Z,32.8,91.0,0,32.0,1,170,S,8,9.2,17,19.6,10+,10.0,19,,FEW25000,1013,1009.8,,,,,,VFR,METAR KLAS 021756Z 17008G17KT 10SM FEW250 33/00 A2991 RMK AO2 SLP098 T03280000 10328 20250 51005
2026-07-02T16:56:00Z,2026-07-02,2026-07-02,METAR,2026-07-02T20:05:38Z,31.7,89.1,-0.6,30.9,1,VRB,VRB,3,3.5,,,10+,10.0,,,,1012.6,1009.5,,,,,,VFR,METAR KLAS 021656Z VRB03KT 10SM CLR 32/M01 A2990 RMK AO2 SLP095 T03171006
2026-07-02T15:56:00Z,2026-07-02,2026-07-02,METAR,2026-07-02T20:05:38Z,30,86.0,-1.1,30.0,1,160,SSE,9,10.4,15,17.3,10+,10.0,,,,1012.6,1009.5,,,,,,VFR,METAR KLAS 021556Z 16009G15KT 10SM CLR 30/M01 A2990 RMK AO2 SLP095 T03001011
2026-07-03T03:56:00Z,2026-07-03,2026-07-02,METAR,2026-07-03T04:31:07Z,32.8,91.0,-8.3,17.1,1,220,SW,7,8.1,,,10+,10.0,,,,1010.6,1007.4,,,,,,VFR,METAR KLAS 030356Z 22007KT 10SM CLR 33/M08 A2984 RMK AO2 SLP074 T03281083
2026-07-03T02:56:00Z,2026-07-03,2026-07-02,METAR,2026-07-03T04:31:07Z,34.4,93.9,-7.8,18.0,1,230,SW,8,9.2,19,21.9,10+,10.0,,,,1009.9,1006.9,,,,,,VFR,METAR KLAS 030256Z 23008G19KT 10SM CLR 34/M08 A2982 RMK AO2 SLP069 T03441078 53003
2026-07-03T01:56:00Z,2026-07-03,2026-07-02,METAR,2026-07-03T04:31:07Z,35.6,96.1,-6.7,19.9,1,230,SW,14,16.1,,,10+,10.0,,,,1009.6,1006.5,,,,,,VFR,METAR KLAS 030156Z 23014KT 10SM CLR 36/M07 A2981 RMK AO2 SLP065 T03561067
2026-07-03T00:56:00Z,2026-07-03,2026-07-02,METAR,2026-07-03T04:31:07Z,36.7,98.1,-6.1,21.0,1,270,W,9,10.4,,,10+,10.0,19,,FEW22000,1009.2,1006.3,,,,,,VFR,METAR KLAS 030056Z 27009KT 10SM FEW220 37/M06 A2980 RMK AO2 SLP063 T03671061
2026-07-02T23:56:00Z,2026-07-02,2026-07-02,METAR,2026-07-03T04:31:07Z,36.7,98.1,-6.1,21.0,1,230,SW,7,8.1,16,18.4,10+,10.0,,,,1009.6,1006.6,,,,,,VFR,METAR KLAS 022356Z 23007G16KT 10SM CLR 37/M06 A2981 RMK AO2 SLP066 T03671061 10378 20322 56015
2026-07-02T22:59:00Z,2026-07-02,2026-07-02,SPECI,2026-07-03T04:31:07Z,36.7,98.1,-3.9,25.0,1,200,SSW,9,10.4,15,17.3,10+,10.0,19,,FEW25000,1009.9,,,,,,,VFR,SPECI KLAS 022259Z 20009G15KT 10SM FEW250 37/M04 A2982 RMK AO2 T03671039
2026-07-02T22:56:00Z,2026-07-02,2026-07-02,METAR,2026-07-03T04:31:07Z,36.1,97.0,-3.9,25.0,1,VRB,VRB,3,3.5,15,17.3,10+,10.0,19,,FEW25000,1009.9,1006.9,,,,,,VFR,METAR KLAS 022256Z VRB03G15KT 10SM FEW250 36/M04 A2982 RMK AO2 SLP069 T03611039
2026-07-02T21:56:00Z,2026-07-02,2026-07-02,METAR,2026-07-03T04:31:07Z,35.6,96.1,-3.3,26.1,1,170,S,3,3.5,16,18.4,10+,10.0,19,,FEW25000,1010.6,1007.5,,,,,,VFR,METAR KLAS 022156Z 17003G16KT 10SM FEW250 36/M03 A2984 RMK AO2 SLP075 T03561033
2026-07-03T08:56:00Z,2026-07-03,2026-07-03,METAR,2026-07-03T09:44:11Z,27.2,81.0,-5,23.0,1,200,SSW,4,4.6,,,10+,10.0,,,,1011.6,1008.5,,,,,,VFR,METAR KLAS 030856Z 20004KT 10SM CLR 27/M05 A2987 RMK AO2 SLP085 T02721050 53003
2026-07-03T07:56:00Z,2026-07-03,2026-07-03,METAR,2026-07-03T09:44:11Z,28.3,82.9,-5.6,21.9,1,220,SW,7,8.1,,,10+,10.0,,,,1011.3,1008.2,,,,,,VFR,METAR KLAS 030756Z 22007KT 10SM CLR 28/M06 A2986 RMK AO2 SLP082 T02831056 403780250
2026-07-03T06:56:00Z,2026-07-03,2026-07-02,METAR,2026-07-03T09:44:11Z,29.4,84.9,-5.6,21.9,1,190,S,4,4.6,,,10+,10.0,,,,1011.3,1008.3,,,,,,VFR,METAR KLAS 030656Z 19004KT 10SM CLR 29/M06 A2986 RMK AO2 SLP083 T02941056
2026-07-03T05:56:00Z,2026-07-03,2026-07-02,METAR,2026-07-03T09:44:11Z,30.6,87.1,-6.1,21.0,1,190,S,3,3.5,,,10+,10.0,,,,1011.3,1008.2,,,,,,VFR,METAR KLAS 030556Z 19003KT 10SM CLR 31/M06 A2986 RMK AO2 SLP082 T03061061 10372 20306 51012
2026-07-03T04:56:00Z,2026-07-03,2026-07-02,METAR,2026-07-03T09:44:11Z,31.7,89.1,-7.8,18.0,1,200,SSW,4,4.6,,,10+,10.0,,,,1011.3,1008,,,,,,VFR,METAR KLAS 030456Z 20004KT 10SM CLR 32/M08 A2986 RMK AO2 SLP080 T03171078
2026-07-03T13:56:00Z,2026-07-03,2026-07-03,METAR,2026-07-03T14:57:32Z,26.7,80.1,-3.3,26.1,1,0,CALM,0,0.0,,,10+,10.0,19,,FEW25000,1014.3,1011.3,,,,,,VFR,METAR KLAS 031356Z 00000KT 10SM FEW250 27/M03 A2995 RMK AO2 SLP113 T02671033
2026-07-03T12:56:00Z,2026-07-03,2026-07-03,METAR,2026-07-03T14:57:32Z,24.4,75.9,-3.9,25.0,1,270,W,3,3.5,,,10+,10.0,19,,FEW25000,1013.6,1010.7,,,,,,VFR,METAR KLAS 031256Z 27003KT 10SM FEW250 24/M04 A2993 RMK AO2 SLP107 T02441039
2026-07-03T11:56:00Z,2026-07-03,2026-07-03,METAR,2026-07-03T14:57:32Z,25.6,78.1,-5,23.0,1,230,SW,3,3.5,,,10+,10.0,19,,FEW20000,1013,1009.9,,,,,,VFR,METAR KLAS 031156Z 23003KT 10SM FEW200 26/M05 A2991 RMK AO2 SLP099 T02561050 10306 20256 51012
2026-07-03T10:56:00Z,2026-07-03,2026-07-03,METAR,2026-07-03T14:57:32Z,26.7,80.1,-5,23.0,1,200,SSW,6,6.9,,,10+,10.0,,,,1012.6,1009.5,,,,,,VFR,METAR KLAS 031056Z 20006KT 10SM CLR 27/M05 A2990 RMK AO2 SLP095 T02671050
2026-07-03T09:56:00Z,2026-07-03,2026-07-03,METAR,2026-07-03T14:57:32Z,27.2,81.0,-5,23.0,1,190,S,5,5.8,,,10+,10.0,,,,1012.3,1009,,,,,,VFR,METAR KLAS 030956Z 19005KT 10SM CLR 27/M05 A2989 RMK AO2 SLP090 T02721050
2026-07-03T18:56:00Z,2026-07-03,2026-07-03,METAR,2026-07-03T20:01:38Z,34.4,93.9,-3.3,26.1,1,VRB,VRB,3,3.5,,,10+,10.0,19,,FEW25000,1015,1011.7,,,,,,VFR,METAR KLAS 031856Z COR VRB03KT 10SM FEW250 34/M03 A2997 RMK AO2 SLP117 T03441033
2026-07-03T17:56:00Z,2026-07-03,2026-07-03,METAR,2026-07-03T20:01:38Z,32.8,91.0,-3.3,26.1,1,40,NE,6,6.9,,,10+,10.0,19,,FEW25000,1015.3,1012.1,,,,,,VFR,METAR KLAS 031756Z 04006KT 10SM FEW250 33/M03 A2998 RMK AO2 SLP121 T03281033 10333 20244 50002
2026-07-03T16:56:00Z,2026-07-03,2026-07-03,METAR,2026-07-03T20:01:38Z,31.7,89.1,-3.3,26.1,1,40,NE,3,3.5,,,10+,10.0,19,,FEW25000,1015.3,1012.2,,,,,,VFR,METAR KLAS 031656Z 04003KT 10SM FEW250 32/M03 A2998 RMK AO2 SLP122 T03171033
2026-07-03T15:56:00Z,2026-07-03,2026-07-03,METAR,2026-07-03T20:01:38Z,29.4,84.9,-3.3,26.1,1,0,CALM,0,0.0,,,10+,10.0,19,,FEW25000,1015.3,1012.4,,,,,,VFR,METAR KLAS 031556Z 00000KT 10SM FEW250 29/M03 A2998 RMK AO2 SLP124 T02941033
2026-07-03T14:56:00Z,2026-07-03,2026-07-03,METAR,2026-07-03T20:01:38Z,27.8,82.0,-3.3,26.1,1,0,CALM,0,0.0,,,10+,10.0,19,,FEW25000,1015,1012,,,,,,VFR,METAR KLAS 031456Z 00000KT 10SM FEW250 28/M03 A2997 RMK AO2 SLP120 T02781033 51020
2026-07-04T03:56:00Z,2026-07-04,2026-07-03,METAR,2026-07-04T04:24:30Z,34.4,93.9,-10,14.0,1,240,WSW,10,11.5,,,10+,10.0,19,,FEW25000,1012.6,1009.6,,,,,,VFR,METAR KLAS 040356Z 24010KT 10SM FEW250 34/M10 A2990 RMK AO2 SLP096 T03441100
2026-07-04T02:56:00Z,2026-07-04,2026-07-03,METAR,2026-07-04T04:24:30Z,36.1,97.0,-10.6,12.9,1,230,SW,10,11.5,,,10+,10.0,19,,FEW25000,1011.9,1008.9,,,,,,VFR,METAR KLAS 040256Z COR 23010KT 10SM FEW250 36/M11 A2988 RMK AO2 SLP089 T03611106 53001
2026-07-04T01:56:00Z,2026-07-04,2026-07-03,METAR,2026-07-04T04:24:30Z,37.8,100.0,-9.4,15.1,1,230,SW,9,10.4,,,10+,10.0,19,,FEW25000,1011.6,1008.5,,,,,,VFR,METAR KLAS 040156Z 23009KT 10SM FEW250 38/M09 A2987 RMK AO2 SLP085 T03781094
2026-07-04T01:21:00Z,2026-07-04,2026-07-03,SPECI,2026-07-04T04:24:30Z,37.8,100.0,-4.4,24.1,1,VRB,VRB,3,3.5,,,10+,10.0,,,,1011.3,,,,,,,VFR,SPECI KLAS 040121Z VRB03KT 10SM CLR 38/M04 A2986 RMK AO2 T03781044
2026-07-04T00:56:00Z,2026-07-04,2026-07-03,METAR,2026-07-04T04:24:30Z,38.3,100.9,-5,23.0,1,60,ENE,13,15.0,,,10+,10.0,,,,1011.6,1008.3,,,,,,VFR,METAR KLAS 040056Z 06013KT 10SM CLR 38/M05 A2987 RMK AO2 SLP083 T03831050
2026-07-04T00:01:00Z,2026-07-04,2026-07-03,SPECI,2026-07-04T04:24:30Z,38.9,102.0,-4.4,24.1,1,80,E,13,15.0,,,10+,10.0,,,,1011.9,,,,,,,VFR,SPECI KLAS 040001Z 08013KT 10SM CLR 39/M04 A2988 RMK AO2 T03891044
2026-07-03T23:56:00Z,2026-07-03,2026-07-03,METAR,2026-07-04T04:24:30Z,38.9,102.0,-4.4,24.1,1,70,ENE,13,15.0,19,21.9,10+,10.0,,,,1011.9,1008.7,,,,,,VFR,METAR KLAS 032356Z 07013G19KT 10SM CLR 39/M04 A2988 RMK AO2 SLP087 T03891044 10389 20328 56016
2026-07-03T22:56:00Z,2026-07-03,2026-07-03,METAR,2026-07-04T04:24:30Z,38.3,100.9,-3.3,26.1,1,90,E,7,8.1,22,25.3,10+,10.0,19,,FEW25000,1012.3,1009.2,,,,,,VFR,METAR KLAS 032256Z 09007G22KT 10SM FEW250 38/M03 A2989 RMK AO2 SLP092 T03831033
2026-07-03T21:56:00Z,2026-07-03,2026-07-03,METAR,2026-07-04T04:24:30Z,37.2,99.0,-2.8,27.0,1,VRB,VRB,4,4.6,,,10+,10.0,,,,1013,1009.7,,,,,,VFR,METAR KLAS 032156Z VRB04KT 10SM CLR 37/M03 A2991 RMK AO2 SLP097 T03721028
2026-07-04T08:56:00Z,2026-07-04,2026-07-04,METAR,2026-07-04T09:07:20Z,29.4,84.9,-8.9,16.0,1,210,SSW,8,9.2,,,10+,10.0,,,,1013.6,1010.4,,,,,,VFR,METAR KLAS 040856Z 21008KT 10SM CLR 29/M09 A2993 RMK AO2 SLP104 T02941089 55000 $
2026-07-04T07:56:00Z,2026-07-04,2026-07-04,METAR,2026-07-04T09:07:20Z,28.9,84.0,-7.8,18.0,1,220,SW,6,6.9,,,10+,10.0,,,,1013.6,1010.3,,,,,,VFR,METAR KLAS 040756Z 22006KT 10SM CLR 29/M08 A2993 RMK AO2 SLP103 T02891078 403890244 $
2026-07-04T06:56:00Z,2026-07-04,2026-07-03,METAR,2026-07-04T09:07:20Z,31.7,89.1,-8.9,16.0,1,190,S,6,6.9,,,10+,10.0,,,,1013.6,1010.3,,,,,,VFR,METAR KLAS 040656Z 19006KT 10SM CLR 32/M09 A2993 RMK AO2 SLP103 T03171089
2026-07-04T05:56:00Z,2026-07-04,2026-07-03,METAR,2026-07-04T09:07:20Z,31.7,89.1,-7.2,19.0,1,170,S,4,4.6,,,10+,10.0,,,,1013.6,1010.5,,,,,,VFR,METAR KLAS 040556Z 17004KT 10SM CLR 32/M07 A2993 RMK AO2 SLP105 T03171072 10389 20317 51015
2026-07-04T04:56:00Z,2026-07-04,2026-07-03,METAR,2026-07-04T09:07:20Z,33.3,91.9,-8.3,17.1,1,230,SW,6,6.9,,,10+,10.0,19,,FEW25000,1013.6,1010.3,,,,,,VFR,METAR KLAS 040456Z 23006KT 10SM FEW250 33/M08 A2993 RMK AO2 SLP103 T03331083
2026-07-04T13:56:00Z,2026-07-04,2026-07-04,METAR,2026-07-04T14:15:03Z,27.8,82.0,-3.3,26.1,1,120,ESE,3,3.5,,,10+,10.0,19,,FEW20000 FEW25000,1016.3,1013.1,,,,,,VFR,METAR KLAS 041356Z 12003KT 10SM FEW200 FEW250 28/M03 A3001 RMK AO2 SLP131 T02781033 $
2026-07-04T12:56:00Z,2026-07-04,2026-07-04,METAR,2026-07-04T14:15:03Z,26.7,80.1,-4.4,24.1,1,0,CALM,0,0.0,,,10+,10.0,,,,1015.7,1012.6,,,,,,VFR,METAR KLAS 041256Z 00000KT 10SM CLR 27/M04 A2999 RMK AO2 SLP126 T02671044 $
2026-07-04T11:56:00Z,2026-07-04,2026-07-04,METAR,2026-07-04T14:15:03Z,27.2,81.0,-5,23.0,1,210,SSW,8,9.2,,,10+,10.0,,,,1015,1011.6,,,,,,VFR,METAR KLAS 041156Z 21008KT 10SM CLR 27/M05 A2997 RMK AO2 SLP116 T02721050 10317 20272 53011 $
2026-07-04T10:56:00Z,2026-07-04,2026-07-04,METAR,2026-07-04T14:15:03Z,28.3,82.9,-6.1,21.0,1,180,S,7,8.1,,,10+,10.0,,,,1014.3,1011,,,,,,VFR,METAR KLAS 041056Z 18007KT 10SM CLR 28/M06 A2995 RMK AO2 SLP110 T02831061 $
2026-07-04T09:56:00Z,2026-07-04,2026-07-04,METAR,2026-07-04T14:15:03Z,28.9,84.0,-7.8,18.0,1,200,SSW,7,8.1,,,10+,10.0,,,,1014,1010.8,,,,,,VFR,METAR KLAS 040956Z 20007KT 10SM CLR 29/M08 A2994 RMK AO2 SLP108 T02891078 $
2026-07-04T18:56:00Z,2026-07-04,2026-07-04,METAR,2026-07-04T19:49:38Z,36.1,97.0,-4.4,24.1,1,VRB,VRB,5,5.8,,,10+,10.0,19,,FEW20000 FEW25000,1016.3,1013.2,,,,,,VFR,METAR KLAS 041856Z VRB05KT 10SM FEW200 FEW250 36/M04 A3001 RMK AO2 SLP132 T03611044 $
2026-07-04T17:56:00Z,2026-07-04,2026-07-04,METAR,2026-07-04T19:49:38Z,34.4,93.9,-3.3,26.1,1,90,E,6,6.9,,,10+,10.0,19,,FEW25000,1016.7,1013.6,,,,,,VFR,METAR KLAS 041756Z 09006KT 10SM FEW250 34/M03 A3002 RMK AO2 SLP136 T03441033 10344 20261 50000 $
2026-07-04T16:56:00Z,2026-07-04,2026-07-04,METAR,2026-07-04T19:49:38Z,32.8,91.0,-5,23.0,1,10,N,5,5.8,,,10+,10.0,19,,FEW25000,1017,1013.8,,,,,,VFR,METAR KLAS 041656Z 01005KT 10SM FEW250 33/M05 A3003 RMK AO2 SLP138 T03281050 $
2026-07-04T15:56:00Z,2026-07-04,2026-07-04,METAR,2026-07-04T19:49:38Z,31.1,88.0,-5,23.0,1,0,CALM,0,0.0,,,10+,10.0,19,,FEW25000,1017.4,1014.1,,,,,,VFR,METAR KLAS 041556Z 00000KT 10SM FEW250 31/M05 A3004 RMK AO2 SLP141 T03111050 $
2026-07-04T14:56:00Z,2026-07-04,2026-07-04,METAR,2026-07-04T19:49:38Z,29.4,84.9,-3.3,26.1,1,0,CALM,0,0.0,,,10+,10.0,19,,FEW20000 FEW25000,1016.7,1013.6,,,,,,VFR,METAR KLAS 041456Z 00000KT 10SM FEW200 FEW250 29/M03 A3002 RMK AO2 SLP136 T02941033 51018 $
2026-07-05T04:09:00Z,2026-07-05,2026-07-04,SPECI,2026-07-05T04:45:27Z,36.1,97.0,-1.1,30.0,1,230,SW,10,11.5,,,10+,10.0,75,20000,FEW500 BKN20000 BKN25000,1013,,,,,,,VFR,SPECI KLAS 050409Z 23010KT 10SM FEW005 BKN200 BKN250 36/M01 A2991 RMK AO2 FU FEW005 T03611011 $
2026-07-05T03:56:00Z,2026-07-05,2026-07-04,METAR,2026-07-05T04:45:27Z,36.1,97.0,-1.1,30.0,1,230,SW,8,9.2,,,10+,10.0,75,20000,BKN20000 BKN25000,1013,1009.6,,,,,,VFR,METAR KLAS 050356Z 23008KT 10SM BKN200 BKN250 36/M01 A2991 RMK AO2 SLP096 T03611011 $
2026-07-05T02:56:00Z,2026-07-05,2026-07-04,METAR,2026-07-05T04:45:27Z,37.2,99.0,-1.1,30.0,1,220,SW,12,13.8,,,10+,10.0,75,25000,SCT20000 BKN25000,1012.3,1009,,,,,,VFR,METAR KLAS 050256Z 22012KT 10SM SCT200 BKN250 37/M01 A2989 RMK AO2 SLP090 T03721011 55003 $
2026-07-05T01:56:00Z,2026-07-05,2026-07-04,METAR,2026-07-05T04:45:27Z,38.3,100.9,-3.9,25.0,1,230,SW,11,12.7,16,18.4,10+,10.0,75,25000,FEW20000 BKN25000,1011.9,1008.8,,,,,,VFR,METAR KLAS 050156Z 23011G16KT 10SM FEW200 BKN250 38/M04 A2988 RMK AO2 SLP088 T03831039 $
2026-07-05T00:56:00Z,2026-07-05,2026-07-04,METAR,2026-07-05T04:45:27Z,38.9,102.0,-4.4,24.1,1,0,CALM,0,0.0,,,10+,10.0,75,25000,FEW20000 BKN25000,1011.9,1008.6,,,,,,VFR,METAR KLAS 050056Z 00000KT 10SM FEW200 BKN250 39/M04 A2988 RMK AO2 SLP086 T03891044 $
2026-07-04T23:56:00Z,2026-07-04,2026-07-04,METAR,2026-07-05T04:45:27Z,40,104.0,-5,23.0,1,130,SE,7,8.1,,,10+,10.0,75,25000,FEW20000 BKN25000,1012.6,1009.3,,,,,,VFR,METAR KLAS 042356Z 13007KT 10SM FEW200 BKN250 40/M05 A2990 RMK AO2 SLP093 T04001050 10400 20344 56022 $
2026-07-04T22:56:00Z,2026-07-04,2026-07-04,METAR,2026-07-05T04:45:27Z,39.4,102.9,-5.6,21.9,1,110,ESE,8,9.2,,,10+,10.0,44,,FEW20000 SCT25000,1013.3,1010,,,,,,VFR,METAR KLAS 042256Z 11008KT 10SM FEW200 SCT250 39/M06 A2992 RMK AO2 SLP100 T03941056 $
2026-07-04T21:56:00Z,2026-07-04,2026-07-04,METAR,2026-07-05T04:45:27Z,38.9,102.0,-6.1,21.0,1,VRB,VRB,6,6.9,,,10+,10.0,44,,FEW20000 SCT25000,1014,1010.7,,,,,,VFR,METAR KLAS 042156Z VRB06KT 10SM FEW200 SCT250 39/M06 A2994 RMK AO2 SLP107 T03891061 $
2026-07-05T08:56:00Z,2026-07-05,2026-07-05,METAR,2026-07-05T09:30:23Z,32.2,90.0,7.8,46.0,1,200,SSW,5,5.8,,,10+,10.0,,,,1013,1009.5,,,,,,VFR,METAR KLAS 050856Z 20005KT 10SM CLR 32/08 A2991 RMK AO2 SLP095 T03220078 58003 $
2026-07-05T07:56:00Z,2026-07-05,2026-07-05,METAR,2026-07-05T09:30:23Z,32.8,91.0,8.3,46.9,1,220,SW,7,8.1,,,10+,10.0,,,,1013,1009.6,,,,,,VFR,METAR KLAS 050756Z 22007KT 10SM CLR 33/08 A2991 RMK AO2 SLP096 T03280083 404000261 $
2026-07-05T06:56:00Z,2026-07-05,2026-07-04,METAR,2026-07-05T09:30:23Z,33.9,93.0,2.2,36.0,1,210,SSW,6,6.9,,,10+,10.0,75,20000,BKN20000 BKN25000,1013.3,1009.9,,,,,,VFR,METAR KLAS 050656Z 21006KT 10SM BKN200 BKN250 34/02 A2992 RMK AO2 SLP099 T03390022 $
2026-07-05T05:56:00Z,2026-07-05,2026-07-04,METAR,2026-07-05T09:30:23Z,35,95.0,1.1,34.0,1,220,SW,8,9.2,,,10+,10.0,75,20000,BKN20000 BKN25000,1013.3,1009.9,,,,,,VFR,METAR KLAS 050556Z 22008KT 10SM BKN200 BKN250 35/01 A2992 RMK AO2 SLP099 T03500011 10400 20350 50009 $
2026-07-05T04:56:00Z,2026-07-05,2026-07-04,METAR,2026-07-05T09:30:23Z,35.6,96.1,0,32.0,1,220,SW,6,6.9,,,10+,10.0,75,20000,BKN20000 BKN25000,1013.3,1010,,,,,,VFR,METAR KLAS 050456Z 22006KT 10SM BKN200 BKN250 36/00 A2992 RMK AO2 SLP100 T03560000 $
2026-07-05T13:56:00Z,2026-07-05,2026-07-05,METAR,2026-07-05T14:20:32Z,30,86.0,10,50.0,1,210,SSW,4,4.6,,,10+,10.0,75,25000,FEW14000 SCT18000 BKN25000,1014,1010.7,,,,,,VFR,METAR KLAS 051356Z 21004KT 10SM FEW140 SCT180 BKN250 30/10 A2994 RMK AO2 SLP107 T03000100 $
2026-07-05T12:56:00Z,2026-07-05,2026-07-05,METAR,2026-07-05T14:20:32Z,29.4,84.9,10,50.0,3,200,SSW,5,5.8,,,10+,10.0,75,20000,FEW15000 BKN20000,1013.6,1010.4,,,,,,VFR,METAR KLAS 051256Z 20005KT 10SM FEW150 BKN200 29/10 A2993 RMK AO2 SLP104 T02940100 $
2026-07-05T11:56:00Z,2026-07-05,2026-07-05,METAR,2026-07-05T14:20:32Z,30,86.0,10.6,51.1,3,180,S,7,8.1,,,10+,10.0,75,20000,BKN20000,1013.3,1009.8,,,,,,VFR,METAR KLAS 051156Z 18007KT 10SM BKN200 30/11 A2992 RMK AO2 SLP098 T03000106 10350 20300 53002 $
2026-07-05T10:56:00Z,2026-07-05,2026-07-05,METAR,2026-07-05T14:20:32Z,30.6,87.1,9.4,48.9,1,180,S,5,5.8,,,10+,10.0,75,20000,BKN20000,1013,1009.6,,,,,,VFR,METAR KLAS 051056Z 18005KT 10SM BKN200 31/09 A2991 RMK AO2 SLP096 T03060094 $
2026-07-05T09:56:00Z,2026-07-05,2026-07-05,METAR,2026-07-05T14:20:32Z,31.7,89.1,8.9,48.0,1,210,SSW,7,8.1,,,10+,10.0,75,20000,BKN20000,1013,1009.5,,,,,,VFR,METAR KLAS 050956Z 21007KT 10SM BKN200 32/09 A2991 RMK AO2 SLP095 T03170089 $
2026-07-05T18:56:00Z,2026-07-05,2026-07-05,METAR,2026-07-05T19:54:46Z,36.7,98.1,7.2,45.0,1,150,SSE,5,5.8,,,10+,10.0,75,25000,FEW14000 SCT18000 BKN25000,1013.6,1010.2,,,,,,VFR,METAR KLAS 051856Z 15005KT 10SM FEW140 SCT180 BKN250 37/07 A2993 RMK AO2 SLP102 T03670072 $
2026-07-05T17:56:00Z,2026-07-05,2026-07-05,METAR,2026-07-05T19:54:46Z,36.7,98.1,6.7,44.1,1,210,SSW,8,9.2,17,19.6,10+,10.0,75,25000,FEW14000 FEW18000 BKN25000,1014.3,1010.7,,,,,,VFR,METAR KLAS 051756Z 21008G17KT 10SM FEW140 FEW180 BKN250 37/07 A2995 RMK AO2 SLP107 T03670067 10367 20294 58004 $
2026-07-05T16:56:00Z,2026-07-05,2026-07-05,METAR,2026-07-05T19:54:46Z,35,95.0,8.3,46.9,1,VRB,VRB,6,6.9,,,10+,10.0,75,25000,FEW14000 FEW18000 BKN25000,1014.3,1010.8,,,,,,VFR,METAR KLAS 051656Z VRB06KT 10SM FEW140 FEW180 BKN250 35/08 A2995 RMK AO2 SLP108 T03500083 $
2026-07-05T15:56:00Z,2026-07-05,2026-07-05,METAR,2026-07-05T19:54:46Z,32.8,91.0,10.6,51.1,1,190,S,4,4.6,,,10+,10.0,75,25000,FEW14000 FEW18000 BKN25000,1015,1011.5,,,,,,VFR,METAR KLAS 051556Z 19004KT 10SM FEW140 FEW180 BKN250 33/11 A2997 RMK AO2 SLP115 T03280106 $
2026-07-05T14:56:00Z,2026-07-05,2026-07-05,METAR,2026-07-05T19:54:46Z,32.2,90.0,6.1,43.0,1,260,W,4,4.6,,,10+,10.0,75,25000,FEW14000 SCT18000 BKN25000,1014.6,1011.3,,,,,,VFR,METAR KLAS 051456Z 26004KT 10SM FEW140 SCT180 BKN250 32/06 A2996 RMK AO2 SLP113 T03220061 53014 $
2026-07-06T03:56:00Z,2026-07-06,2026-07-05,METAR,2026-07-06T04:59:26Z,35.6,96.1,6.1,43.0,1,230,SW,9,10.4,,,10+,10.0,75,25000,SCT15000 BKN25000,1010.2,1007,,,,,,VFR,METAR KLAS 060356Z 23009KT 10SM SCT150 BKN250 36/06 A2983 RMK AO2 SLP070 T03560061 $
2026-07-06T02:56:00Z,2026-07-06,2026-07-05,METAR,2026-07-06T04:59:26Z,37.2,99.0,5,41.0,1,230,SW,10,11.5,,,10+,10.0,75,25000,SCT15000 BKN25000,1009.9,1006.5,,,,,,VFR,METAR KLAS 060256Z 23010KT 10SM SCT150 BKN250 37/05 A2982 RMK AO2 SLP065 T03720050 55002 $
2026-07-06T01:56:00Z,2026-07-06,2026-07-05,METAR,2026-07-06T04:59:26Z,38.3,100.9,4.4,39.9,1,220,SW,12,13.8,,,10+,10.0,75,25000,SCT15000 BKN25000,1009.6,1006.3,,,,,,VFR,METAR KLAS 060156Z 22012KT 10SM SCT150 BKN250 38/04 A2981 RMK AO2 SLP063 T03830044 $
2026-07-06T00:56:00Z,2026-07-06,2026-07-05,METAR,2026-07-06T04:59:26Z,39.4,102.9,4.4,39.9,1,230,SW,10,11.5,,,10+,10.0,75,25000,SCT15000 BKN25000,1009.6,1006.2,,,,,,VFR,METAR KLAS 060056Z 23010KT 10SM SCT150 BKN250 39/04 A2981 RMK AO2 SLP062 T03940044 $
2026-07-05T23:56:00Z,2026-07-05,2026-07-05,METAR,2026-07-06T04:59:26Z,39.4,102.9,6.7,44.1,1,220,SW,13,15.0,18,20.7,10+,10.0,75,15000,BKN15000 BKN25000,1009.9,1006.7,,,,,,VFR,METAR KLAS 052356Z COR 22013G18KT 10SM BKN150 BKN250 39/07 A2982 RMK AO2 SLP067 T03940067 10400 20361 58020 $
2026-07-05T22:56:00Z,2026-07-05,2026-07-05,METAR,2026-07-06T04:59:26Z,38.3,100.9,7.8,46.0,1,340,NNW,3,3.5,,,10+,10.0,75,15000,BKN15000 BKN25000,1010.6,1007.2,,,,,,VFR,METAR KLAS 052256Z 34003KT 10SM BKN150 BKN250 38/08 A2984 RMK AO2 SLP072 T03830078 $
2026-07-06T10:56:00Z,2026-07-06,2026-07-06,METAR,2026-07-06T11:15:17Z,30,86.0,8.3,46.9,1,170,S,5,5.8,,,10+,10.0,,,,1011.6,1008.1,,,,,,VFR,METAR KLAS 061056Z 17005KT 10SM CLR 30/08 A2987 RMK AO2 SLP081 T03000083 $
2026-07-06T09:56:00Z,2026-07-06,2026-07-06,METAR,2026-07-06T11:15:17Z,30.6,87.1,7.8,46.0,1,180,S,7,8.1,,,10+,10.0,,,,1010.9,1007.7,,,,,,VFR,METAR KLAS 060956Z 18007KT 10SM CLR 31/08 A2985 RMK AO2 SLP077 T03060078 $
2026-07-06T08:56:00Z,2026-07-06,2026-07-06,METAR,2026-07-06T11:15:17Z,31.7,89.1,7.8,46.0,1,200,SSW,6,6.9,,,10+,10.0,,,,1010.9,1007.5,,,,,,VFR,METAR KLAS 060856Z 20006KT 10SM CLR 32/08 A2985 RMK AO2 SLP075 T03170078 53003 $
2026-07-06T07:56:00Z,2026-07-06,2026-07-06,METAR,2026-07-06T11:15:17Z,32.2,90.0,7.2,45.0,1,220,SW,6,6.9,,,10+,10.0,19,,FEW22000,1010.9,1007.3,,,,,,VFR,METAR KLAS 060756Z 22006KT 10SM FEW220 32/07 A2985 RMK AO2 SLP073 T03220072 404000294 $
2026-07-06T06:56:00Z,2026-07-06,2026-07-05,METAR,2026-07-06T11:15:17Z,32.8,91.0,6.7,44.1,1,180,S,7,8.1,,,10+,10.0,44,,SCT22000,1010.6,1007.2,,,,,,VFR,METAR KLAS 060656Z 18007KT 10SM SCT220 33/07 A2984 RMK AO2 SLP072 T03280067 $
2026-07-06T05:56:00Z,2026-07-06,2026-07-05,METAR,2026-07-06T11:15:17Z,33.9,93.0,7.2,45.0,1,190,S,4,4.6,,,10+,10.0,44,,FEW15000 SCT22000,1010.6,1007.1,,,,,,VFR,METAR KLAS 060556Z 19004KT 10SM FEW150 SCT220 34/07 A2984 RMK AO2 SLP071 T03390072 10394 20339 50007 $
2026-07-06T04:56:00Z,2026-07-06,2026-07-05,METAR,2026-07-06T11:15:17Z,34.4,93.9,7.2,45.0,1,190,S,4,4.6,,,10+,10.0,75,22000,SCT15000 BKN22000,1010.9,1007.4,,,,,,VFR,METAR KLAS 060456Z 19004KT 10SM SCT150 BKN220 34/07 A2985 RMK AO2 SLP074 T03440072 $
2026-07-06T15:56:00Z,2026-07-06,2026-07-06,METAR,2026-07-06T16:05:16Z,32.8,91.0,8.9,48.0,1,240,WSW,3,3.5,,,10+,10.0,,,,1013.3,1010,,,,,,VFR,METAR KLAS 061556Z 24003KT 10SM CLR 33/09 A2992 RMK AO2 SLP100 T03280089
2026-07-06T14:56:00Z,2026-07-06,2026-07-06,METAR,2026-07-06T16:05:16Z,31.7,89.1,9.4,48.9,1,190,S,5,5.8,,,10+,10.0,19,,FEW14000,1013.3,1009.9,,,,,,VFR,METAR KLAS 061456Z 19005KT 10SM FEW140 32/09 A2992 RMK AO2 SLP099 T03170094 53014
2026-07-06T13:56:00Z,2026-07-06,2026-07-06,METAR,2026-07-06T16:05:16Z,29.4,84.9,8.9,48.0,1,230,SW,5,5.8,,,10+,10.0,19,,FEW14000,1012.6,1009.4,,,,,,VFR,METAR KLAS 061356Z 23005KT 10SM FEW140 29/09 A2990 RMK AO2 SLP094 T02940089 $
2026-07-06T12:56:00Z,2026-07-06,2026-07-06,METAR,2026-07-06T16:05:16Z,28.9,84.0,8.9,48.0,1,190,S,7,8.1,,,10+,10.0,19,,FEW14000,1012.3,1008.8,,,,,,VFR,METAR KLAS 061256Z 19007KT 10SM FEW140 29/09 A2989 RMK AO2 SLP088 T02890089 $
2026-07-06T11:56:00Z,2026-07-06,2026-07-06,METAR,2026-07-06T16:05:16Z,29.4,84.9,8.3,46.9,1,190,S,8,9.2,,,10+,10.0,,,,1011.9,1008.4,,,,,,VFR,METAR KLAS 061156Z 19008KT 10SM CLR 29/08 A2988 RMK AO2 SLP084 T02940083 10339 20294 53007 $
2026-07-06T19:56:00Z,2026-07-06,2026-07-06,METAR,2026-07-06T20:32:19Z,40,104.0,5.6,42.1,1,220,SW,11,12.7,17,19.6,10+,10.0,19,,FEW14000,1012.3,1008.8,,,,,,VFR,METAR KLAS 061956Z 22011G17KT 10SM FEW140 40/06 A2989 RMK AO2 SLP088 T04000056
2026-07-06T18:56:00Z,2026-07-06,2026-07-06,METAR,2026-07-06T20:32:19Z,38.3,100.9,5.6,42.1,1,210,SSW,9,10.4,18,20.7,10+,10.0,19,,FEW14000,1012.6,1009.3,,,,,,VFR,METAR KLAS 061856Z 21009G18KT 10SM FEW140 38/06 A2990 RMK AO2 SLP093 T03830056
2026-07-06T17:56:00Z,2026-07-06,2026-07-06,METAR,2026-07-06T20:32:19Z,36.7,98.1,7.8,46.0,1,190,S,8,9.2,16,18.4,10+,10.0,19,,FEW14000,1013,1009.6,,,,,,VFR,METAR KLAS 061756Z 19008G16KT 10SM FEW140 37/08 A2991 RMK AO2 SLP096 T03670078 10367 20289 58002
2026-07-06T16:56:00Z,2026-07-06,2026-07-06,METAR,2026-07-06T20:32:19Z,35,95.0,8.3,46.9,1,230,SW,5,5.8,,,10+,10.0,19,,FEW14000,1013,1009.7,,,,,,VFR,METAR KLAS 061656Z 23005KT 10SM FEW140 35/08 A2991 RMK AO2 SLP097 T03500083
2026-07-07T03:56:00Z,2026-07-07,2026-07-06,METAR,2026-07-07T04:38:05Z,36.7,98.1,4.4,39.9,1,230,SW,8,9.2,,,10+,10.0,,,,1010.6,1007,,,,,,VFR,METAR KLAS 070356Z 23008KT 10SM CLR 37/04 A2984 RMK AO2 SLP070 T03670044 $
2026-07-07T02:56:00Z,2026-07-07,2026-07-06,METAR,2026-07-07T04:38:05Z,37.8,100.0,5,41.0,1,240,WSW,13,15.0,,,10+,10.0,19,,FEW14000,1009.9,1006.5,,,,,,VFR,METAR KLAS 070256Z 24013KT 10SM FEW140 38/05 A2982 RMK AO2 SLP065 T03780050 53003
2026-07-07T01:56:00Z,2026-07-07,2026-07-06,METAR,2026-07-07T04:38:05Z,39.4,102.9,5.6,42.1,1,230,SW,13,15.0,,,10+,10.0,19,,FEW14000,1009.2,1006,,,,,,VFR,METAR KLAS 070156Z 23013KT 10SM FEW140 39/06 A2980 RMK AO2 SLP060 T03940056
2026-07-07T00:56:00Z,2026-07-07,2026-07-06,METAR,2026-07-07T04:38:05Z,40.6,105.1,5,41.0,1,250,WSW,11,12.7,21,24.2,10+,10.0,19,,FEW14000,1009.2,1005.8,,,,,,VFR,METAR KLAS 070056Z 25011G21KT 10SM FEW140 41/05 A2980 RMK AO2 SLP058 T04060050
2026-07-06T23:56:00Z,2026-07-06,2026-07-06,METAR,2026-07-07T04:38:05Z,41.1,106.0,4.4,39.9,1,210,SSW,11,12.7,21,24.2,10+,10.0,19,,FEW14000,1009.6,1006,,,,,,VFR,METAR KLAS 062356Z 21011G21KT 10SM FEW140 41/04 A2981 RMK AO2 SLP060 T04110044 10417 20367 57017
2026-07-06T23:22:00Z,2026-07-06,2026-07-06,SPECI,2026-07-07T04:38:05Z,41.1,106.0,4.4,39.9,1,170,S,9,10.4,20,23.0,10+,10.0,19,,FEW14000,1009.9,,,,,,,VFR,SPECI KLAS 062322Z 17009G20KT 10SM FEW140 41/04 A2982 RMK AO2 T04110044
2026-07-06T22:56:00Z,2026-07-06,2026-07-06,METAR,2026-07-07T04:38:05Z,41.1,106.0,3.3,37.9,1,VRB,VRB,6,6.9,17,19.6,10+,10.0,19,,FEW14000,1010.2,1006.6,,,,,,VFR,METAR KLAS 062256Z VRB06G17KT 10SM FEW140 41/03 A2983 RMK AO2 PK WND 21030/2230 SLP066 T04110033
2026-07-06T21:56:00Z,2026-07-06,2026-07-06,METAR,2026-07-07T04:38:05Z,40.6,105.1,6.1,43.0,1,220,SW,9,10.4,17,19.6,10+,10.0,19,,FEW14000,1010.9,1007.3,,,,,,VFR,METAR KLAS 062156Z 22009G17KT 10SM FEW140 41/06 A2985 RMK AO2 PK WND 22028/2115 SLP073 T04060061
2026-07-07T09:56:00Z,2026-07-07,2026-07-07,METAR,2026-07-07T10:11:22Z,31.1,88.0,3.3,37.9,1,190,S,6,6.9,,,10+,10.0,,,,1011.6,1008,,,,,,VFR,METAR KLAS 070956Z 19006KT 10SM CLR 31/03 A2987 RMK AO2 SLP080 T03110033 $
2026-07-07T08:56:00Z,2026-07-07,2026-07-07,METAR,2026-07-07T10:11:22Z,31.7,89.1,2.2,36.0,1,220,SW,6,6.9,,,10+,10.0,,,,1011.3,1007.9,,,,,,VFR,METAR KLAS 070856Z 22006KT 10SM CLR 32/02 A2986 RMK AO2 SLP079 T03170022 53003 $
2026-07-07T07:56:00Z,2026-07-07,2026-07-07,METAR,2026-07-07T10:11:22Z,32.2,90.0,2.2,36.0,1,280,W,5,5.8,,,10+,10.0,,,,1011.3,1007.7,,,,,,VFR,METAR KLAS 070756Z 28005KT 10SM CLR 32/02 A2986 RMK AO2 SLP077 T03220022 404170289 $
2026-07-07T06:56:00Z,2026-07-07,2026-07-06,METAR,2026-07-07T10:11:22Z,33.3,91.9,3.9,39.0,1,190,S,4,4.6,,,10+,10.0,,,,1010.9,1007.6,,,,,,VFR,METAR KLAS 070656Z 19004KT 10SM CLR 33/04 A2985 RMK AO2 SLP076 T03330039 $
2026-07-07T05:56:00Z,2026-07-07,2026-07-06,METAR,2026-07-07T10:11:22Z,34.4,93.9,2.2,36.0,1,210,SSW,5,5.8,,,10+,10.0,,,,1010.9,1007.5,,,,,,VFR,METAR KLAS 070556Z 21005KT 10SM CLR 34/02 A2985 RMK AO2 SLP075 T03440022 10411 20344 51010 $
2026-07-07T04:56:00Z,2026-07-07,2026-07-06,METAR,2026-07-07T10:11:22Z,35.6,96.1,3.3,37.9,1,230,SW,7,8.1,,,10+,10.0,,,,1010.9,1007.5,,,,,,VFR,METAR KLAS 070456Z 23007KT 10SM CLR 36/03 A2985 RMK AO2 SLP075 T03560033 $
2026-07-07T14:56:00Z,2026-07-07,2026-07-07,METAR,2026-07-07T15:34:54Z,32.8,91.0,2.8,37.0,1,230,SW,3,3.5,,,10+,10.0,,,,1014,1010.6,,,,,,VFR,METAR KLAS 071456Z 23003KT 10SM CLR 33/03 A2994 RMK AO2 SLP106 T03280028 51016
2026-07-07T13:56:00Z,2026-07-07,2026-07-07,METAR,2026-07-07T15:34:54Z,30.6,87.1,3.3,37.9,1,210,SSW,4,4.6,,,10+,10.0,,,,1013.6,1010.3,,,,,,VFR,METAR KLAS 071356Z 21004KT 10SM CLR 31/03 A2993 RMK AO2 SLP103 T03060033 $
2026-07-07T12:56:00Z,2026-07-07,2026-07-07,METAR,2026-07-07T15:34:54Z,28.9,84.0,2.2,36.0,1,290,WNW,3,3.5,,,10+,10.0,,,,1013.3,1009.9,,,,,,VFR,METAR KLAS 071256Z 29003KT 10SM CLR 29/02 A2992 RMK AO2 SLP099 T02890022 $
2026-07-07T11:56:00Z,2026-07-07,2026-07-07,METAR,2026-07-07T15:34:54Z,30.6,87.1,2.2,36.0,1,190,S,7,8.1,,,10+,10.0,,,,1012.3,1008.9,,,,,,VFR,METAR KLAS 071156Z 19007KT 10SM CLR 31/02 A2989 RMK AO2 SLP089 T03060022 10344 20306 53009 $
2026-07-07T10:56:00Z,2026-07-07,2026-07-07,METAR,2026-07-07T15:34:54Z,30.6,87.1,2.8,37.0,1,190,S,7,8.1,,,10+,10.0,,,,1011.6,1008.2,,,,,,VFR,METAR KLAS 071056Z 19007KT 10SM CLR 31/03 A2987 RMK AO2 SLP082 T03060028 $
2026-07-07T19:56:00Z,2026-07-07,2026-07-07,METAR,2026-07-07T20:29:45Z,40.6,105.1,2.2,36.0,1,200,SSW,11,12.7,24,27.6,10+,10.0,19,,FEW14000,1013,1009.4,,,,,,VFR,METAR KLAS 071956Z 20011G24KT 10SM FEW140 41/02 A2991 RMK AO2 PK WND 22030/1913 SLP094 T04060022
2026-07-07T18:56:00Z,2026-07-07,2026-07-07,METAR,2026-07-07T20:29:45Z,40,104.0,2.8,37.0,1,230,SW,15,17.3,24,27.6,10+,10.0,,,,1013.3,1009.8,,,,,,VFR,METAR KLAS 071856Z 23015G24KT 10SM CLR 40/03 A2992 RMK AO2 SLP098 T04000028
2026-07-07T17:56:00Z,2026-07-07,2026-07-07,METAR,2026-07-07T20:29:45Z,38.9,102.0,3.9,39.0,1,160,SSE,8,9.2,15,17.3,10+,10.0,,,,1014,1010.6,,,,,,VFR,METAR KLAS 071756Z 16008G15KT 10SM CLR 39/04 A2994 RMK AO2 SLP106 T03890039 10389 20289 51001
2026-07-07T16:56:00Z,2026-07-07,2026-07-07,METAR,2026-07-07T20:29:45Z,36.1,97.0,3.9,39.0,1,VRB,VRB,4,4.6,,,10+,10.0,,,,1014,1010.6,,,,,,VFR,METAR KLAS 071656Z VRB04KT 10SM CLR 36/04 A2994 RMK AO2 SLP106 T03610039
2026-07-07T15:56:00Z,2026-07-07,2026-07-07,METAR,2026-07-07T20:29:45Z,34.4,93.9,3.9,39.0,1,200,SSW,3,3.5,,,10+,10.0,,,,1014,1010.7,,,,,,VFR,METAR KLAS 071556Z 20003KT 10SM CLR 34/04 A2994 RMK AO2 SLP107 T03440039
2026-07-08T02:56:00Z,2026-07-08,2026-07-07,METAR,2026-07-08T03:58:32Z,38.3,100.9,0.6,33.1,1,220,SW,13,15.0,,,10+,10.0,,,,1010.9,1007.3,,,,,,VFR,METAR KLAS 080256Z 22013KT 10SM CLR 38/01 A2985 RMK AO2 SLP073 T03830006 53002
2026-07-08T01:56:00Z,2026-07-08,2026-07-07,METAR,2026-07-08T03:58:32Z,40,104.0,-1.1,30.0,1,220,SW,13,15.0,,,10+,10.0,,,,1010.2,1006.8,,,,,,VFR,METAR KLAS 080156Z 22013KT 10SM CLR 40/M01 A2983 RMK AO2 SLP068 T04001011
2026-07-08T00:56:00Z,2026-07-08,2026-07-07,METAR,2026-07-08T03:58:32Z,40.6,105.1,-0.6,30.9,1,230,SW,16,18.4,25,28.8,10+,10.0,,,,1010.2,1006.9,,,,,,VFR,METAR KLAS 080056Z 23016G25KT 10SM CLR 41/M01 A2983 RMK AO2 PK WND 23026/0014 SLP069 T04061006
2026-07-07T23:56:00Z,2026-07-07,2026-07-07,METAR,2026-07-08T03:58:32Z,41.1,106.0,-0.6,30.9,1,220,SW,15,17.3,23,26.5,10+,10.0,19,,FEW14000,1010.6,1007.1,,,,,,VFR,METAR KLAS 072356Z 22015G23KT 10SM FEW140 41/M01 A2984 RMK AO2 SLP071 T04111006 10422 20383 56016
2026-07-07T22:56:00Z,2026-07-07,2026-07-07,METAR,2026-07-08T03:58:32Z,41.7,107.1,1.7,35.1,1,230,SW,17,19.6,23,26.5,10+,10.0,19,,FEW14000,1010.9,1007.3,,,,,,VFR,METAR KLAS 072256Z 23017G23KT 10SM FEW140 42/02 A2985 RMK AO2 SLP073 T04170017
2026-07-07T21:56:00Z,2026-07-07,2026-07-07,METAR,2026-07-08T03:58:32Z,41.1,106.0,2.2,36.0,1,240,WSW,12,13.8,18,20.7,10+,10.0,19,,FEW14000,1011.6,1008.1,,,,,,VFR,METAR KLAS 072156Z 24012G18KT 10SM FEW140 41/02 A2987 RMK AO2 WSHFT 2113 SLP081 T04110022
2026-07-07T21:33:00Z,2026-07-07,2026-07-07,SPECI,2026-07-08T03:58:32Z,41.1,106.0,2.2,36.0,1,260,W,15,17.3,20,23.0,10+,10.0,19,,FEW14000,1011.9,,,,,,,VFR,SPECI KLAS 072133Z 26015G20KT 10SM FEW140 41/02 A2988 RMK AO2 WSHFT 2113 T04110022
2026-07-08T08:56:00Z,2026-07-08,2026-07-08,METAR,2026-07-08T09:11:05Z,32.8,91.0,-0.6,30.9,1,190,S,7,8.1,,,10+,10.0,,,,1012.6,1009.1,,,,,,VFR,METAR KLAS 080856Z 19007KT 10SM CLR 33/M01 A2990 RMK AO2 SLP091 T03281006 53006
2026-07-08T07:56:00Z,2026-07-08,2026-07-08,METAR,2026-07-08T09:11:05Z,33.3,91.9,0.6,33.1,1,200,SSW,7,8.1,,,10+,10.0,,,,1012.3,1008.7,,,,,,VFR,METAR KLAS 080756Z 20007KT 10SM CLR 33/01 A2989 RMK AO2 SLP087 T03330006 404220289
2026-07-08T06:56:00Z,2026-07-08,2026-07-07,METAR,2026-07-08T09:11:05Z,33.9,93.0,1.1,34.0,1,210,SSW,7,8.1,,,10+,10.0,,,,1012.3,1008.5,,,,,,VFR,METAR KLAS 080656Z 21007KT 10SM CLR 34/01 A2989 RMK AO2 SLP085 T03390011
2026-07-08T05:56:00Z,2026-07-08,2026-07-07,METAR,2026-07-08T09:11:05Z,35,95.0,1.7,35.1,1,180,S,6,6.9,,,10+,10.0,,,,1011.9,1008.4,,,,,,VFR,METAR KLAS 080556Z 18006KT 10SM CLR 35/02 A2988 RMK AO2 SLP084 T03500017 10417 20350 51011
2026-07-08T04:56:00Z,2026-07-08,2026-07-07,METAR,2026-07-08T09:11:05Z,36.1,97.0,1.1,34.0,1,200,SSW,7,8.1,,,10+,10.0,,,,1011.9,1008.5,,,,,,VFR,METAR KLAS 080456Z 20007KT 10SM CLR 36/01 A2988 RMK AO2 SLP085 T03610011
2026-07-08T03:56:00Z,2026-07-08,2026-07-07,METAR,2026-07-08T09:11:05Z,37.2,99.0,0.6,33.1,1,210,SSW,11,12.7,,,10+,10.0,,,,1011.3,1007.7,,,,,,VFR,METAR KLAS 080356Z 21011KT 10SM CLR 37/01 A2986 RMK AO2 SLP077 T03720006
2026-07-08T14:56:00Z,2026-07-08,2026-07-08,METAR,2026-07-08T15:00:24Z,32.8,91.0,1.7,35.1,1,0,CALM,0,0.0,,,10+,10.0,,,,1015,1011.5,,,,,,VFR,METAR KLAS 081456Z 00000KT 10SM CLR 33/02 A2997 RMK AO2 SLP115 T03280017 51018
2026-07-08T13:56:00Z,2026-07-08,2026-07-08,METAR,2026-07-08T15:00:24Z,31.1,88.0,1.7,35.1,1,230,SW,3,3.5,,,10+,10.0,,,,1014.3,1011,,,,,,VFR,METAR KLAS 081356Z 23003KT 10SM CLR 31/02 A2995 RMK AO2 SLP110 T03110017
2026-07-08T12:56:00Z,2026-07-08,2026-07-08,METAR,2026-07-08T15:00:24Z,30.6,87.1,1.1,34.0,1,190,S,9,10.4,,,10+,10.0,,,,1014,1010.6,,,,,,VFR,METAR KLAS 081256Z 19009KT 10SM CLR 31/01 A2994 RMK AO2 SLP106 T03060011
2026-07-08T11:56:00Z,2026-07-08,2026-07-08,METAR,2026-07-08T15:00:24Z,30,86.0,1.1,34.0,1,180,S,7,8.1,,,10+,10.0,,,,1013,1009.6,,,,,,VFR,METAR KLAS 081156Z 18007KT 10SM CLR 30/01 A2991 RMK AO2 SLP096 T03000011 10350 20300 51004
2026-07-08T10:56:00Z,2026-07-08,2026-07-08,METAR,2026-07-08T15:00:24Z,30.6,87.1,0.6,33.1,1,240,WSW,5,5.8,,,10+,10.0,,,,1013,1009.5,,,,,,VFR,METAR KLAS 081056Z 24005KT 10SM CLR 31/01 A2991 RMK AO2 SLP095 T03060006
2026-07-08T09:56:00Z,2026-07-08,2026-07-08,METAR,2026-07-08T15:00:24Z,31.7,89.1,0,32.0,1,180,S,8,9.2,,,10+,10.0,,,,1013,1009.2,,,,,,VFR,METAR KLAS 080956Z 18008KT 10SM CLR 32/00 A2991 RMK AO2 SLP092 T03170000
2026-07-08T19:56:00Z,2026-07-08,2026-07-08,METAR,2026-07-08T20:07:13Z,41.1,106.0,-2.8,27.0,1,230,SW,15,17.3,28,32.2,10+,10.0,,,,1013.3,1009.8,,,,,,VFR,METAR KLAS 081956Z 23015G28KT 10SM CLR 41/M03 A2992 RMK AO2 PK WND 21028/1956 SLP098 T04111028
2026-07-08T18:56:00Z,2026-07-08,2026-07-08,METAR,2026-07-08T20:07:13Z,40,104.0,-0.6,30.9,1,220,SW,13,15.0,21,24.2,10+,10.0,,,,1014,1010.4,,,,,,VFR,METAR KLAS 081856Z 22013G21KT 10SM CLR 40/M01 A2994 RMK AO2 SLP104 T04001006
2026-07-08T17:56:00Z,2026-07-08,2026-07-08,METAR,2026-07-08T20:07:13Z,38.9,102.0,1.7,35.1,1,220,SW,9,10.4,17,19.6,10+,10.0,,,,1014.6,1011,,,,,,VFR,METAR KLAS 081756Z 22009G17KT 10SM CLR 39/02 A2996 RMK AO2 SLP110 T03890017 10389 20300 58004
2026-07-08T16:56:00Z,2026-07-08,2026-07-08,METAR,2026-07-08T20:07:13Z,37.2,99.0,1.7,35.1,1,230,SW,5,5.8,,,10+,10.0,,,,1015,1011.3,,,,,,VFR,METAR KLAS 081656Z 23005KT 10SM CLR 37/02 A2997 RMK AO2 SLP113 T03720017
2026-07-08T15:56:00Z,2026-07-08,2026-07-08,METAR,2026-07-08T20:07:13Z,34.4,93.9,2.2,36.0,1,VRB,VRB,4,4.6,,,10+,10.0,,,,1015,1011.6,,,,,,VFR,METAR KLAS 081556Z VRB04KT 10SM CLR 34/02 A2997 RMK AO2 SLP116 T03440022
2026-07-09T03:56:00Z,2026-07-09,2026-07-08,METAR,2026-07-09T04:37:52Z,38.3,100.9,-8.3,17.1,1,200,SSW,10,11.5,18,20.7,10+,10.0,,,,1009.6,1005.9,,,,,,VFR,METAR KLAS 090356Z 20010G18KT 10SM CLR 38/M08 A2981 RMK AO2 SLP059 T03831083
2026-07-09T02:56:00Z,2026-07-09,2026-07-08,METAR,2026-07-09T04:37:52Z,39.4,102.9,-8.9,16.0,1,210,SSW,11,12.7,19,21.9,10+,10.0,,,,1009.2,1005.7,,,,,,VFR,METAR KLAS 090256Z 21011G19KT 10SM CLR 39/M09 A2980 RMK AO2 SLP057 T03941089 56006
2026-07-09T01:56:00Z,2026-07-09,2026-07-08,METAR,2026-07-09T04:37:52Z,40.6,105.1,-9.4,15.1,1,210,SSW,16,18.4,22,25.3,10+,10.0,,,,1009.2,1005.7,,,,,,VFR,METAR KLAS 090156Z 21016G22KT 10SM CLR 41/M09 A2980 RMK AO2 SLP057 T04061094
2026-07-09T00:56:00Z,2026-07-09,2026-07-08,METAR,2026-07-09T04:37:52Z,41.7,107.1,-11.1,12.0,1,200,SSW,16,18.4,24,27.6,10+,10.0,,,,1009.2,1005.9,,,,,,VFR,METAR KLAS 090056Z 20016G24KT 10SM CLR 42/M11 A2980 RMK AO2 SLP059 T04171111
2026-07-08T23:56:00Z,2026-07-08,2026-07-08,METAR,2026-07-09T04:37:52Z,42.2,108.0,-8.9,16.0,1,220,SW,14,16.1,23,26.5,10+,10.0,,,,1009.9,1006.3,,,,,,VFR,METAR KLAS 082356Z 22014G23KT 10SM CLR 42/M09 A2982 RMK AO2 PK WND 22028/2328 SLP063 T04221089 10428 20389 56025
2026-07-08T22:56:00Z,2026-07-08,2026-07-08,METAR,2026-07-09T04:37:52Z,42.2,108.0,-6.7,19.9,1,200,SSW,13,15.0,23,26.5,10+,10.0,,,,1010.6,1006.9,,,,,,VFR,METAR KLAS 082256Z 20013G23KT 10SM CLR 42/M07 A2984 RMK AO2 PK WND 23026/2234 SLP069 T04221067
2026-07-08T21:56:00Z,2026-07-08,2026-07-08,METAR,2026-07-09T04:37:52Z,42.8,109.0,-6.1,21.0,1,220,SW,12,13.8,21,24.2,10+,10.0,,,,1011.6,1008,,,,,,VFR,METAR KLAS 082156Z 22012G21KT 10SM CLR 43/M06 A2987 RMK AO2 PK WND 24028/2140 SLP080 T04281061
2026-07-09T09:56:00Z,2026-07-09,2026-07-09,METAR,2026-07-09T10:11:25Z,33.3,91.9,-3.9,25.0,1,190,S,8,9.2,,,10+,10.0,,,,1009.9,1006.2,,,,,,VFR,METAR KLAS 090956Z 19008KT 10SM CLR 33/M04 A2982 RMK AO2 SLP062 T03331039
2026-07-09T08:56:00Z,2026-07-09,2026-07-09,METAR,2026-07-09T10:11:25Z,33.3,91.9,-5,23.0,1,200,SSW,8,9.2,,,10+,10.0,,,,1009.9,1006.2,,,,,,VFR,METAR KLAS 090856Z 20008KT 10SM CLR 33/M05 A2982 RMK AO2 SLP062 T03331050 55002
2026-07-09T07:56:00Z,2026-07-09,2026-07-09,METAR,2026-07-09T10:11:25Z,33.3,91.9,-6.1,21.0,1,180,S,9,10.4,,,10+,10.0,,,,1009.6,1006.1,,,,,,VFR,METAR KLAS 090756Z 18009KT 10SM CLR 33/M06 A2981 RMK AO2 SLP061 T03331061 404280300
2026-07-09T06:56:00Z,2026-07-09,2026-07-08,METAR,2026-07-09T10:11:25Z,34.4,93.9,-6.1,21.0,1,180,S,6,6.9,,,10+,10.0,,,,1009.9,1006.3,,,,,,VFR,METAR KLAS 090656Z 18006KT 10SM CLR 34/M06 A2982 RMK AO2 SLP063 T03441061
2026-07-09T05:56:00Z,2026-07-09,2026-07-08,METAR,2026-07-09T10:11:25Z,35.6,96.1,-7.8,18.0,1,210,SSW,6,6.9,,,10+,10.0,,,,1010.2,1006.5,,,,,,VFR,METAR KLAS 090556Z 21006KT 10SM CLR 36/M08 A2983 RMK AO2 SLP065 T03561078 10422 20356 51008
2026-07-09T04:56:00Z,2026-07-09,2026-07-08,METAR,2026-07-09T10:11:25Z,37.2,99.0,-7.8,18.0,1,220,SW,12,13.8,,,10+,10.0,,,,1009.9,1006.4,,,,,,VFR,METAR KLAS 090456Z 22012KT 10SM CLR 37/M08 A2982 RMK AO2 SLP064 T03721078
2026-07-09T14:56:00Z,2026-07-09,2026-07-09,METAR,2026-07-09T15:46:34Z,32.2,90.0,-3.3,26.1,1,290,WNW,5,5.8,,,10+,10.0,,,,1012.3,1008.8,,,,,,VFR,METAR KLAS 091456Z 29005KT 10SM CLR 32/M03 A2989 RMK AO2 SLP088 T03221033 51016
2026-07-09T13:56:00Z,2026-07-09,2026-07-09,METAR,2026-07-09T15:46:34Z,30.6,87.1,-3.9,25.0,1,320,NW,3,3.5,,,10+,10.0,,,,1011.9,1008.3,,,,,,VFR,METAR KLAS 091356Z 32003KT 10SM CLR 31/M04 A2988 RMK AO2 SLP083 T03061039
2026-07-09T12:56:00Z,2026-07-09,2026-07-09,METAR,2026-07-09T15:46:34Z,30,86.0,-3.9,25.0,1,220,SW,5,5.8,,,10+,10.0,,,,1011.3,1007.7,,,,,,VFR,METAR KLAS 091256Z 22005KT 10SM CLR 30/M04 A2986 RMK AO2 SLP077 T03001039
2026-07-09T11:56:00Z,2026-07-09,2026-07-09,METAR,2026-07-09T15:46:34Z,29.4,84.9,-4.4,24.1,1,0,CALM,0,0.0,,,10+,10.0,,,,1010.6,1007.1,,,,,,VFR,METAR KLAS 091156Z 00000KT 10SM CLR 29/M04 A2984 RMK AO2 SLP071 T02941044 10356 20294 53007
2026-07-09T10:56:00Z,2026-07-09,2026-07-09,METAR,2026-07-09T15:46:34Z,31.7,89.1,-3.3,26.1,1,220,SW,5,5.8,,,10+,10.0,,,,1010.2,1006.7,,,,,,VFR,METAR KLAS 091056Z 22005KT 10SM CLR 32/M03 A2983 RMK AO2 SLP067 T03171033
2026-07-09T19:56:00Z,2026-07-09,2026-07-09,METAR,2026-07-09T20:27:18Z,41.7,107.1,-5.6,21.9,1,220,SW,8,9.2,20,23.0,10+,10.0,,,,1009.6,1006,,,,,,VFR,METAR KLAS 091956Z 22008G20KT 10SM CLR 42/M06 A2981 RMK AO2 SLP060 T04171056
2026-07-09T19:05:00Z,2026-07-09,2026-07-09,SPECI,2026-07-09T20:27:18Z,40.6,105.1,-3.3,26.1,1,190,S,8,9.2,15,17.3,10+,10.0,,,,1010.6,,,,,,,VFR,SPECI KLAS 091905Z 19008G15KT 030V320 10SM CLR 41/M03 A2984 RMK AO2 T04061033
2026-07-09T18:56:00Z,2026-07-09,2026-07-09,METAR,2026-07-09T20:27:18Z,40.6,105.1,-1.7,28.9,1,VRB,VRB,5,5.8,,,10+,10.0,,,,1010.6,1006.9,,,,,,VFR,METAR KLAS 091856Z VRB05KT 10SM CLR 41/M02 A2984 RMK AO2 SLP069 T04061017
2026-07-09T17:56:00Z,2026-07-09,2026-07-09,METAR,2026-07-09T20:27:18Z,38.9,102.0,-3.3,26.1,1,170,S,6,6.9,,,10+,10.0,,,,1011.3,1007.7,,,,,,VFR,METAR KLAS 091756Z 17006KT 10SM CLR 39/M03 A2986 RMK AO2 SLP077 T03891033 10389 20289 58009
2026-07-09T16:56:00Z,2026-07-09,2026-07-09,METAR,2026-07-09T20:27:18Z,37.2,99.0,-3.3,26.1,1,50,NE,4,4.6,,,10+,10.0,,,,1011.6,1008.2,,,,,,VFR,METAR KLAS 091656Z 05004KT 10SM CLR 37/M03 A2987 RMK AO2 SLP082 T03721033
2026-07-09T15:56:00Z,2026-07-09,2026-07-09,METAR,2026-07-09T20:27:18Z,33.9,93.0,-3.3,26.1,1,0,CALM,0,0.0,,,10+,10.0,,,,1012.3,1008.9,,,,,,VFR,METAR KLAS 091556Z 00000KT 10SM CLR 34/M03 A2989 RMK AO2 SLP089 T03391033
2026-07-10T03:56:00Z,2026-07-10,2026-07-09,METAR,2026-07-10T04:39:27Z,38.9,102.0,-9.4,15.1,1,200,SSW,3,3.5,,,10+,10.0,,,,1006.5,1002.9,,,,,,VFR,METAR KLAS 100356Z 20003KT 10SM CLR 39/M09 A2972 RMK AO2 SLP029 T03891094
2026-07-10T02:56:00Z,2026-07-10,2026-07-09,METAR,2026-07-10T04:39:27Z,40.6,105.1,-11.1,12.0,1,220,SW,10,11.5,,,10+,10.0,,,,1006.5,1002.7,,,,,,VFR,METAR KLAS 100256Z 22010KT 10SM CLR 41/M11 A2972 RMK AO2 SLP027 T04061111 56002
2026-07-10T01:56:00Z,2026-07-10,2026-07-09,METAR,2026-07-10T04:39:27Z,42.2,108.0,-8.3,17.1,1,240,WSW,14,16.1,19,21.9,10+,10.0,,,,1006.5,1002.8,,,,,,VFR,METAR KLAS 100156Z 24014G19KT 10SM CLR 42/M08 A2972 RMK AO2 PK WND 27028/0125 SLP028 T04221083
2026-07-10T00:56:00Z,2026-07-10,2026-07-09,METAR,2026-07-10T04:39:27Z,42.8,109.0,-10.6,12.9,1,240,WSW,14,16.1,25,28.8,10+,10.0,,,,1006.2,1002.6,,,,,,VFR,METAR KLAS 100056Z 24014G25KT 10SM CLR 43/M11 A2971 RMK AO2 PK WND 22027/0011 SLP026 T04281106
2026-07-09T23:56:00Z,2026-07-09,2026-07-09,METAR,2026-07-10T04:39:27Z,43.3,109.9,-7.8,18.0,1,220,SW,14,16.1,25,28.8,10+,10.0,,,,1006.5,1003,,,,,,VFR,METAR KLAS 092356Z 22014G25KT 10SM CLR 43/M08 A2972 RMK AO2 SLP030 T04331078 10439 20389 56021
2026-07-09T22:56:00Z,2026-07-09,2026-07-09,METAR,2026-07-10T04:39:27Z,43.9,111.0,-10.6,12.9,1,220,SW,17,19.6,26,29.9,10+,10.0,,,,1007.2,1003.6,,,,,,VFR,METAR KLAS 092256Z 22017G26KT 10SM CLR 44/M11 A2974 RMK AO2 PK WND 20027/2225 SLP036 T04391106
2026-07-09T21:56:00Z,2026-07-09,2026-07-09,METAR,2026-07-10T04:39:27Z,43.3,109.9,-11.7,10.9,1,210,SSW,13,15.0,23,26.5,10+,10.0,,,,1007.9,1004.3,,,,,,VFR,METAR KLAS 092156Z 21013G23KT 10SM CLR 43/M12 A2976 RMK AO2 SLP043 T04331117
2026-07-10T09:56:00Z,2026-07-10,2026-07-10,METAR,2026-07-10T10:03:29Z,32.2,90.0,-6.7,19.9,1,180,S,8,9.2,,,10+,10.0,,,,1007.5,1003.8,,,,,,VFR,METAR KLAS 100956Z 18008KT 10SM CLR 32/M07 A2975 RMK AO2 PK WND 20026/0857 SLP038 T03221067
2026-07-10T08:56:00Z,2026-07-10,2026-07-10,METAR,2026-07-10T10:03:29Z,33.3,91.9,-7.2,19.0,1,200,SSW,14,16.1,23,26.5,10+,10.0,,,,1007.2,1003.3,,,,,,VFR,METAR KLAS 100856Z 20014G23KT 10SM CLR 33/M07 A2974 RMK AO2 SLP033 T03331072 58004
2026-07-10T07:56:00Z,2026-07-10,2026-07-10,METAR,2026-07-10T10:03:29Z,33.9,93.0,-9.4,15.1,1,190,S,8,9.2,,,10+,10.0,,,,1007.5,1003.9,,,,,,VFR,METAR KLAS 100756Z 19008KT 10SM CLR 34/M09 A2975 RMK AO2 SLP039 T03391094 404390289
2026-07-10T06:56:00Z,2026-07-10,2026-07-09,METAR,2026-07-10T10:03:29Z,35.6,96.1,-9.4,15.1,1,200,SSW,8,9.2,,,10+,10.0,,,,1007.5,1003.9,,,,,,VFR,METAR KLAS 100656Z 20008KT 10SM CLR 36/M09 A2975 RMK AO2 SLP039 T03561094
2026-07-10T05:56:00Z,2026-07-10,2026-07-09,METAR,2026-07-10T10:03:29Z,35.6,96.1,-11.1,12.0,1,210,SSW,9,10.4,,,10+,10.0,,,,1007.5,1003.9,,,,,,VFR,METAR KLAS 100556Z 21009KT 10SM CLR 36/M11 A2975 RMK AO2 SLP039 T03561111 10433 20356 53011
2026-07-10T04:56:00Z,2026-07-10,2026-07-09,METAR,2026-07-10T10:03:29Z,37.8,100.0,-10.6,12.9,1,230,SW,11,12.7,,,10+,10.0,,,,1007.2,1003.6,,,,,,VFR,METAR KLAS 100456Z 23011KT 10SM CLR 38/M11 A2974 RMK AO2 SLP036 T03781106
2026-07-10T14:56:00Z,2026-07-10,2026-07-10,METAR,2026-07-10T15:19:52Z,32.2,90.0,-3.9,25.0,1,0,CALM,0,0.0,,,10+,10.0,,,,1010.9,1007.4,,,,,,VFR,METAR KLAS 101456Z 00000KT 10SM CLR 32/M04 A2985 RMK AO2 SLP074 T03221039 51023
2026-07-10T13:56:00Z,2026-07-10,2026-07-10,METAR,2026-07-10T15:19:52Z,31.1,88.0,-5,23.0,1,230,SW,4,4.6,,,10+,10.0,,,,1010.2,1006.8,,,,,,VFR,METAR KLAS 101356Z 23004KT 10SM CLR 31/M05 A2983 RMK AO2 SLP068 T03111050
2026-07-10T12:56:00Z,2026-07-10,2026-07-10,METAR,2026-07-10T15:19:52Z,29.4,84.9,-6.7,19.9,1,200,SSW,4,4.6,,,10+,10.0,,,,1009.6,1006.2,,,,,,VFR,METAR KLAS 101256Z 20004KT 10SM CLR 29/M07 A2981 RMK AO2 SLP062 T02941067
2026-07-10T11:56:00Z,2026-07-10,2026-07-10,METAR,2026-07-10T15:19:52Z,29.4,84.9,-7.8,18.0,1,240,WSW,7,8.1,,,10+,10.0,,,,1008.5,1004.9,,,,,,VFR,METAR KLAS 101156Z 24007KT 10SM CLR 29/M08 A2978 RMK AO2 SLP049 T02941078 10361 20294 53014
2026-07-10T10:56:00Z,2026-07-10,2026-07-10,METAR,2026-07-10T15:19:52Z,31.1,88.0,-8.3,17.1,1,210,SSW,8,9.2,,,10+,10.0,,,,1007.5,1003.9,,,,,,VFR,METAR KLAS 101056Z 21008KT 10SM CLR 31/M08 A2975 RMK AO2 SLP039 T03111083
2026-07-10T19:56:00Z,2026-07-10,2026-07-10,METAR,2026-07-10T20:03:21Z,40.6,105.1,-6.1,21.0,1,180,S,9,10.4,,,10+,10.0,,,,1010.6,1007,,,,,,VFR,METAR KLAS 101956Z 18009KT 10SM CLR 41/M06 A2984 RMK AO2 SLP070 T04061061
2026-07-10T18:56:00Z,2026-07-10,2026-07-10,METAR,2026-07-10T20:03:21Z,38.9,102.0,-6.1,21.0,1,VRB,VRB,3,3.5,,,10+,10.0,,,,1011.3,1007.6,,,,,,VFR,METAR KLAS 101856Z VRB03KT 10SM CLR 39/M06 A2986 RMK AO2 SLP076 T03891061
2026-07-10T17:56:00Z,2026-07-10,2026-07-10,METAR,2026-07-10T20:03:21Z,37.8,100.0,-4.4,24.1,1,200,SSW,6,6.9,,,10+,10.0,,,,1011.3,1007.7,,,,,,VFR,METAR KLAS 101756Z 20006KT 10SM CLR 38/M04 A2986 RMK AO2 SLP077 T03781044 10378 20289 51002
2026-07-10T16:56:00Z,2026-07-10,2026-07-10,METAR,2026-07-10T20:03:21Z,36.1,97.0,-4.4,24.1,1,170,S,6,6.9,,,10+,10.0,,,,1011.3,1007.6,,,,,,VFR,METAR KLAS 101656Z 17006KT 10SM CLR 36/M04 A2986 RMK AO2 SLP076 T03611044
2026-07-10T15:56:00Z,2026-07-10,2026-07-10,METAR,2026-07-10T20:03:21Z,33.9,93.0,-5,23.0,1,VRB,VRB,3,3.5,,,10+,10.0,,,,1011.3,1007.7,,,,,,VFR,METAR KLAS 101556Z VRB03KT 10SM CLR 34/M05 A2986 RMK AO2 SLP077 T03391050
2026-07-11T02:56:00Z,2026-07-11,2026-07-10,METAR,2026-07-11T03:56:30Z,40.6,105.1,-4.4,24.1,1,210,SSW,10,11.5,,,10+,10.0,,,,1007.9,1004.3,,,,,,VFR,METAR KLAS 110256Z 21010KT 10SM CLR 41/M04 A2976 RMK AO2 SLP043 T04061044 53001
2026-07-11T01:56:00Z,2026-07-11,2026-07-10,METAR,2026-07-11T03:56:30Z,41.7,107.1,-5.6,21.9,1,220,SW,10,11.5,,,10+,10.0,,,,1007.5,1004,,,,,,VFR,METAR KLAS 110156Z 22010KT 10SM CLR 42/M06 A2975 RMK AO2 SLP040 T04171056
2026-07-11T00:56:00Z,2026-07-11,2026-07-10,METAR,2026-07-11T03:56:30Z,42.8,109.0,-6.7,19.9,1,220,SW,6,6.9,,,10+,10.0,,,,1007.5,1004,,,,,,VFR,METAR KLAS 110056Z 22006KT 10SM CLR 43/M07 A2975 RMK AO2 SLP040 T04281067
2026-07-10T23:56:00Z,2026-07-10,2026-07-10,METAR,2026-07-11T03:56:30Z,43.3,109.9,-5.6,21.9,1,180,S,9,10.4,16,18.4,10+,10.0,,,,1007.9,1004.2,,,,,,VFR,METAR KLAS 102356Z 18009G16KT 10SM CLR 43/M06 A2976 RMK AO2 SLP042 T04331056 10433 20378 56020
2026-07-10T22:56:00Z,2026-07-10,2026-07-10,METAR,2026-07-11T03:56:30Z,42.2,108.0,-5.6,21.9,1,VRB,VRB,6,6.9,16,18.4,10+,10.0,,,,1008.2,1004.8,,,,,,VFR,METAR KLAS 102256Z VRB06G16KT 10SM CLR 42/M06 A2977 RMK AO2 SLP048 T04221056
2026-07-10T21:56:00Z,2026-07-10,2026-07-10,METAR,2026-07-11T03:56:30Z,42.2,108.0,-5.6,21.9,1,190,S,9,10.4,17,19.6,10+,10.0,,,,1008.9,1005.4,,,,,,VFR,METAR KLAS 102156Z 19009G17KT 10SM CLR 42/M06 A2979 RMK AO2 SLP054 T04221056
2026-07-11T07:56:00Z,2026-07-11,2026-07-11,METAR,2026-07-11T08:25:25Z,34.4,93.9,-3.3,26.1,1,190,S,7,8.1,,,10+,10.0,,,,1009.6,1005.9,,,,,,VFR,METAR KLAS 110756Z 19007KT 10SM CLR 34/M03 A2981 RMK AO2 SLP059 T03441033 404330289
2026-07-11T06:56:00Z,2026-07-11,2026-07-10,METAR,2026-07-11T08:25:25Z,35,95.0,-2.8,27.0,1,200,SSW,6,6.9,,,10+,10.0,,,,1009.6,1005.9,,,,,,VFR,METAR KLAS 110656Z 20006KT 10SM CLR 35/M03 A2981 RMK AO2 SLP059 T03501028
2026-07-11T05:56:00Z,2026-07-11,2026-07-10,METAR,2026-07-11T08:25:25Z,35.6,96.1,-2.8,27.0,1,210,SSW,4,4.6,,,10+,10.0,,,,1009.2,1005.5,,,,,,VFR,METAR KLAS 110556Z 21004KT 10SM CLR 36/M03 A2980 RMK AO2 SLP055 T03561028 10433 20356 50012
2026-07-11T04:56:00Z,2026-07-11,2026-07-10,METAR,2026-07-11T08:25:25Z,36.7,98.1,-3.3,26.1,1,220,SW,5,5.8,,,10+,10.0,,,,1009.2,1005.7,,,,,,VFR,METAR KLAS 110456Z 22005KT 10SM CLR 37/M03 A2980 RMK AO2 SLP057 T03671033
2026-07-11T03:56:00Z,2026-07-11,2026-07-10,METAR,2026-07-11T08:25:25Z,38.9,102.0,-4.4,24.1,1,210,SSW,7,8.1,,,10+,10.0,,,,1008.5,1004.8,,,,,,VFR,METAR KLAS 110356Z 21007KT 10SM CLR 39/M04 A2978 RMK AO2 SLP048 T03891044
